{
"type": "FeatureCollection",
"name": "Earthquake_Hatay_buildings",
"crs": { "type": "name", "properties": { "name": "urn:ogc:def:crs:OGC:1.3:CRS84" } },
"features": [
{ "type": "Feature", "properties": { "facility_type": "hospital", "osm_id": 392046187 }, "geometry": { "type": "Polygon", "coordinates": [ [ [ 36.135734, 36.2146293 ], [ 36.1358705, 36.2140787 ], [ 36.1361487, 36.2135796 ], [ 36.1362219, 36.2135435 ], [ 36.1363479, 36.2135665 ], [ 36.1364577, 36.213619 ], [ 36.136787, 36.2139273 ], [ 36.1377871, 36.214685 ], [ 36.1377911, 36.2147441 ], [ 36.1376854, 36.2148851 ], [ 36.1370187, 36.2154952 ], [ 36.135734, 36.2146293 ] ] ] } },
{ "type": "Feature", "properties": { "facility_type": "hospital", "osm_id": 392046191 }, "geometry": { "type": "Polygon", "coordinates": [ [ [ 36.1638867, 36.2323649 ], [ 36.1634973, 36.2318539 ], [ 36.163554, 36.2317425 ], [ 36.1644424, 36.2314941 ], [ 36.16463, 36.2321455 ], [ 36.1646406, 36.2321822 ], [ 36.1642866, 36.2323249 ], [ 36.1640459, 36.232382 ], [ 36.1638867, 36.2323649 ] ] ] } },
{ "type": "Feature", "properties": { "facility_type": "hospital", "osm_id": 805125672 }, "geometry": { "type": "Polygon", "coordinates": [ [ [ 36.2281948, 36.2690034 ], [ 36.2275135, 36.268026 ], [ 36.226151, 36.2684628 ], [ 36.2260893, 36.2682725 ], [ 36.2230745, 36.2688521 ], [ 36.2208483, 36.2693408 ], [ 36.2214062, 36.269663 ], [ 36.2215134, 36.2697019 ], [ 36.22161, 36.2697776 ], [ 36.2228519, 36.2709627 ], [ 36.2229672, 36.2711594 ], [ 36.222994, 36.2712654 ], [ 36.2230155, 36.2717411 ], [ 36.2230691, 36.2718709 ], [ 36.2234554, 36.2717606 ], [ 36.2256414, 36.2707291 ], [ 36.2260705, 36.2704956 ], [ 36.2281948, 36.2690034 ] ] ] } },
{ "type": "Feature", "properties": { "facility_type": "hospital", "osm_id": 859713202 }, "geometry": { "type": "Polygon", "coordinates": [ [ [ 36.3353139, 36.4896456 ], [ 36.3377934, 36.4886872 ], [ 36.3366728, 36.4871201 ], [ 36.3362199, 36.4875227 ], [ 36.3356417, 36.4876521 ], [ 36.3354092, 36.4874987 ], [ 36.3351887, 36.4874891 ], [ 36.334235, 36.4885626 ], [ 36.3349682, 36.4885961 ], [ 36.3350874, 36.4888645 ], [ 36.3348609, 36.4890082 ], [ 36.3353139, 36.4896456 ] ] ] } },
{ "type": "Feature", "properties": { "facility_type": "hospital", "osm_id": 1139297314 }, "geometry": { "type": "Polygon", "coordinates": [ [ [ 36.1636302, 36.1968084 ], [ 36.1636586, 36.1964998 ], [ 36.1640682, 36.1965589 ], [ 36.1640427, 36.1966746 ], [ 36.1640285, 36.1967393 ], [ 36.1640034, 36.1968532 ], [ 36.1636302, 36.1968084 ] ] ] } },
{ "type": "Feature", "properties": { "facility_type": "hospital", "osm_id": 1141604781 }, "geometry": { "type": "Polygon", "coordinates": [ [ [ 36.1988032, 36.3363156 ], [ 36.1982296, 36.3363468 ], [ 36.1981713, 36.3363123 ], [ 36.1981397, 36.3359352 ], [ 36.1980701, 36.3359389 ], [ 36.1980826, 36.3360872 ], [ 36.1980873, 36.3361443 ], [ 36.1981045, 36.3363496 ], [ 36.1980329, 36.3364282 ], [ 36.1974365, 36.3364606 ], [ 36.1974013, 36.3360402 ], [ 36.1972113, 36.3360506 ], [ 36.1972154, 36.3361002 ], [ 36.1966401, 36.3361315 ], [ 36.1965895, 36.3355267 ], [ 36.1969159, 36.335509 ], [ 36.1969544, 36.3359681 ], [ 36.1972353, 36.3359528 ], [ 36.1971953, 36.3354764 ], [ 36.1974843, 36.3354607 ], [ 36.1975185, 36.3358681 ], [ 36.1977915, 36.3358532 ], [ 36.1977533, 36.3353975 ], [ 36.1980487, 36.3353815 ], [ 36.198082, 36.335778 ], [ 36.1983029, 36.335766 ], [ 36.1982819, 36.3355158 ], [ 36.1982351, 36.3354881 ], [ 36.1982214, 36.3353244 ], [ 36.1983618, 36.3353167 ], [ 36.1986086, 36.335273 ], [ 36.1987093, 36.3357491 ], [ 36.1988032, 36.3363156 ] ] ] } },
{ "type": "Feature", "properties": { "facility_type": "hospital", "osm_id": 1141604784 }, "geometry": { "type": "Polygon", "coordinates": [ [ [ 36.1987556, 36.3353191 ], [ 36.1993572, 36.3352807 ], [ 36.1993975, 36.3356897 ], [ 36.1992466, 36.3356993 ], [ 36.1992409, 36.3356414 ], [ 36.1989182, 36.3356619 ], [ 36.1989245, 36.3357264 ], [ 36.1992087, 36.3357083 ], [ 36.1992109, 36.3357298 ], [ 36.1995015, 36.3357112 ], [ 36.1995385, 36.3360872 ], [ 36.1994757, 36.3360912 ], [ 36.1994797, 36.3361319 ], [ 36.1994758, 36.3361323 ], [ 36.1995192, 36.3365726 ], [ 36.1988951, 36.3366125 ], [ 36.1988572, 36.3362271 ], [ 36.1989491, 36.3362212 ], [ 36.198946, 36.3361899 ], [ 36.1989887, 36.3361871 ], [ 36.1989957, 36.3362581 ], [ 36.199289, 36.3362393 ], [ 36.1992839, 36.3361869 ], [ 36.1990319, 36.336203 ], [ 36.1990283, 36.3361651 ], [ 36.1988401, 36.3361771 ], [ 36.1987556, 36.3353191 ] ] ] } },
{ "type": "Feature", "properties": { "facility_type": "hospital", "osm_id": 1141900788 }, "geometry": { "type": "Polygon", "coordinates": [ [ [ 36.1640034, 36.1968532 ], [ 36.1640285, 36.1967393 ], [ 36.1642173, 36.1967703 ], [ 36.1641704, 36.1969374 ], [ 36.1639873, 36.1969075 ], [ 36.1640034, 36.1968532 ] ] ] } },
{ "type": "Feature", "properties": { "facility_type": "hospital", "osm_id": 1226131924 }, "geometry": { "type": "Polygon", "coordinates": [ [ [ 36.1299268, 36.2282547 ], [ 36.1306346, 36.22878 ], [ 36.131182, 36.228346 ], [ 36.1304742, 36.2278055 ], [ 36.1299268, 36.2282547 ] ] ] } },
{ "type": "Feature", "properties": { "facility_type": "hospital", "osm_id": 1276304314 }, "geometry": { "type": "Polygon", "coordinates": [ [ [ 36.1253676, 36.1609045 ], [ 36.1263808, 36.1622016 ], [ 36.1261184, 36.1626579 ], [ 36.1263526, 36.1631696 ], [ 36.1260942, 36.163427 ], [ 36.1252788, 36.1631956 ], [ 36.1244311, 36.1630229 ], [ 36.1243423, 36.1624819 ], [ 36.1235995, 36.1613478 ], [ 36.12343, 36.1610251 ], [ 36.1235672, 36.1607839 ], [ 36.1237892, 36.1606731 ], [ 36.124201, 36.160709 ], [ 36.1248671, 36.160797 ], [ 36.1252102, 36.1608328 ], [ 36.1253676, 36.1609045 ] ] ] } },
{ "type": "Feature", "properties": { "facility_type": "aerodrome", "osm_id": 214629496 }, "geometry": { "type": "Polygon", "coordinates": [ [ [ 36.2694234, 36.3440418 ], [ 36.2655592, 36.347018 ], [ 36.28104, 36.360575 ], [ 36.2777313, 36.3629477 ], [ 36.2755577, 36.3639201 ], [ 36.2735532, 36.3639007 ], [ 36.2733029, 36.3639558 ], [ 36.2735773, 36.3648731 ], [ 36.2769826, 36.3649703 ], [ 36.2770551, 36.3661372 ], [ 36.2798324, 36.3661372 ], [ 36.2798083, 36.3669734 ], [ 36.2840588, 36.3674012 ], [ 36.2842279, 36.3662538 ], [ 36.285363, 36.3663705 ], [ 36.2855562, 36.3654371 ], [ 36.2860392, 36.3649898 ], [ 36.2946369, 36.3723795 ], [ 36.296883, 36.3727879 ], [ 36.3040558, 36.3772408 ], [ 36.3056302, 36.3785863 ], [ 36.3057978, 36.3786124 ], [ 36.3060229, 36.378442 ], [ 36.306042, 36.3783295 ], [ 36.305792, 36.3780577 ], [ 36.307022, 36.3773489 ], [ 36.3071757, 36.3771702 ], [ 36.3071244, 36.3769867 ], [ 36.2988316, 36.3697412 ], [ 36.2694234, 36.3440418 ] ] ] } },
{ "type": "Feature", "properties": { "facility_type": "power_plant", "osm_id": 1461913762 }, "geometry": { "type": "Polygon", "coordinates": [ [ [ 36.174637, 36.136224 ], [ 36.1749429, 36.1370999 ], [ 36.1748942, 36.1381106 ], [ 36.1756, 36.1382913 ], [ 36.1773603, 36.1383156 ], [ 36.1779363, 36.1382605 ], [ 36.1781812, 36.1385653 ], [ 36.1781009, 36.1388814 ], [ 36.1788496, 36.1390143 ], [ 36.1795903, 36.1387241 ], [ 36.1798853, 36.1385474 ], [ 36.1792617, 36.1359388 ], [ 36.1786432, 36.1351938 ], [ 36.1783075, 36.1351341 ], [ 36.1776996, 36.1350764 ], [ 36.1774036, 36.1348694 ], [ 36.177393, 36.1347349 ], [ 36.1770521, 36.1346388 ], [ 36.1768433, 36.1346516 ], [ 36.1773877, 36.1363444 ], [ 36.1767217, 36.1363636 ], [ 36.1767296, 36.1360135 ], [ 36.1755964, 36.1359242 ], [ 36.174637, 36.136224 ] ] ] } },
{ "type": "Feature", "properties": { "facility_type": "fire_station", "osm_id": 810271132 }, "geometry": { "type": "Polygon", "coordinates": [ [ [ 36.283447, 36.3642284 ], [ 36.2832353, 36.3643745 ], [ 36.2836759, 36.3647745 ], [ 36.2839005, 36.3646006 ], [ 36.283447, 36.3642284 ] ] ] } },
{ "type": "Feature", "properties": { "facility_type": "fire_station", "osm_id": 1145235591 }, "geometry": { "type": "Polygon", "coordinates": [ [ [ 36.3588437, 36.4976318 ], [ 36.3588466, 36.4975172 ], [ 36.3591553, 36.4975222 ], [ 36.3591524, 36.4976368 ], [ 36.3588437, 36.4976318 ] ] ] } },
{ "type": "Feature", "properties": { "facility_type": "police", "osm_id": 1226188697 }, "geometry": { "type": "Polygon", "coordinates": [ [ [ 36.2068298, 36.3544869 ], [ 36.2069722, 36.3544257 ], [ 36.2067712, 36.3541225 ], [ 36.2066603, 36.3542479 ], [ 36.206646, 36.3543876 ], [ 36.2064956, 36.3544523 ], [ 36.206545, 36.3545268 ], [ 36.2067872, 36.3544226 ], [ 36.2068298, 36.3544869 ] ] ] } },
{ "type": "Feature", "properties": { "facility_type": "police", "osm_id": 1389323482 }, "geometry": { "type": "Polygon", "coordinates": [ [ [ 36.2476745, 36.1173938 ], [ 36.2477056, 36.1174297 ], [ 36.2476387, 36.1174674 ], [ 36.2476077, 36.1174315 ], [ 36.2476745, 36.1173938 ] ] ] } }
]
}
