{
"type": "FeatureCollection",
"name": "Ian_FortMyers_buildings",
"crs": { "type": "name", "properties": { "name": "urn:ogc:def:crs:OGC:1.3:CRS84" } },
"features": [
{ "type": "Feature", "properties": { "facility_type": "aerodrome", "osm_id": 208882350 }, "geometry": { "type": "Polygon", "coordinates": [ [ [ -81.7640884, 26.5202862 ], [ -81.7643072, 26.5184328 ], [ -81.761918, 26.5171519 ], [ -81.7598744, 26.5171431 ], [ -81.7565839, 26.5190439 ], [ -81.7563137, 26.519402 ], [ -81.756962, 26.5200494 ], [ -81.7542607, 26.5218624 ], [ -81.751494, 26.5237193 ], [ -81.7519643, 26.525566 ], [ -81.752143, 26.5262678 ], [ -81.7493614, 26.5280821 ], [ -81.7487767, 26.5273573 ], [ -81.7484117, 26.5275924 ], [ -81.7471939, 26.5283768 ], [ -81.7471623, 26.5283972 ], [ -81.7471298, 26.5284181 ], [ -81.7477997, 26.5292447 ], [ -81.7492801, 26.5310802 ], [ -81.7493836, 26.5312088 ], [ -81.7521013, 26.5345879 ], [ -81.7521591, 26.5347054 ], [ -81.7520078, 26.5348085 ], [ -81.7520539, 26.5348666 ], [ -81.7520726, 26.5348902 ], [ -81.752134, 26.5349674 ], [ -81.7440295, 26.5402201 ], [ -81.7438364, 26.5403459 ], [ -81.7436939, 26.5404388 ], [ -81.7432292, 26.5407416 ], [ -81.7427143, 26.5410772 ], [ -81.7419971, 26.5415445 ], [ -81.7400158, 26.5428356 ], [ -81.739963, 26.5428883 ], [ -81.7399139, 26.5429508 ], [ -81.739871, 26.5430252 ], [ -81.7398334, 26.5431068 ], [ -81.7396913, 26.5439226 ], [ -81.7396617, 26.5440186 ], [ -81.7396215, 26.5440954 ], [ -81.7395786, 26.5441482 ], [ -81.7395142, 26.5442249 ], [ -81.7394499, 26.5442753 ], [ -81.7362741, 26.5463281 ], [ -81.7362151, 26.5463845 ], [ -81.7361588, 26.5464468 ], [ -81.7361329, 26.5464924 ], [ -81.7361132, 26.5465524 ], [ -81.7360998, 26.546628 ], [ -81.7360931, 26.5467 ], [ -81.7361051, 26.5467588 ], [ -81.7361145, 26.5468199 ], [ -81.736132, 26.5468655 ], [ -81.7361802, 26.5469327 ], [ -81.7375513, 26.548654 ], [ -81.7377493, 26.5489026 ], [ -81.7378389, 26.5489752 ], [ -81.7379143, 26.549019 ], [ -81.7379827, 26.5490478 ], [ -81.7380564, 26.5490646 ], [ -81.7381651, 26.5490766 ], [ -81.7382415, 26.5490754 ], [ -81.7383287, 26.5490562 ], [ -81.7384105, 26.5490214 ], [ -81.7389054, 26.5486987 ], [ -81.7389899, 26.5486555 ], [ -81.7390864, 26.5486111 ], [ -81.7391508, 26.5485871 ], [ -81.7392111, 26.5485715 ], [ -81.7408025, 26.5485618 ], [ -81.7409493, 26.5485336 ], [ -81.7410117, 26.5483914 ], [ -81.7410574, 26.5484523 ], [ -81.7434725, 26.5468739 ], [ -81.74334, 26.5467103 ], [ -81.7437075, 26.5464692 ], [ -81.7438604, 26.5466239 ], [ -81.7454885, 26.545561 ], [ -81.7455547, 26.5456379 ], [ -81.7455931, 26.545693 ], [ -81.7471568, 26.5446804 ], [ -81.7480741, 26.5454962 ], [ -81.748911, 26.5449407 ], [ -81.7495708, 26.5457613 ], [ -81.7498095, 26.5456054 ], [ -81.7497263, 26.5454986 ], [ -81.7501179, 26.5452491 ], [ -81.7500608, 26.5451729 ], [ -81.7504467, 26.5448623 ], [ -81.7509559, 26.5447674 ], [ -81.7515892, 26.5443682 ], [ -81.7517497, 26.5441198 ], [ -81.7509816, 26.5430792 ], [ -81.7512675, 26.5429061 ], [ -81.7518403, 26.5435643 ], [ -81.7523222, 26.5435678 ], [ -81.7525927, 26.5430503 ], [ -81.7532039, 26.542997 ], [ -81.7533907, 26.5425752 ], [ -81.7528209, 26.5418187 ], [ -81.7531235, 26.5416417 ], [ -81.7539366, 26.5425489 ], [ -81.7545858, 26.5421444 ], [ -81.7547151, 26.5423402 ], [ -81.7553747, 26.5418948 ], [ -81.7554189, 26.5417432 ], [ -81.755063, 26.5412777 ], [ -81.7544382, 26.5411959 ], [ -81.7540977, 26.5407896 ], [ -81.754219, 26.5407116 ], [ -81.7546133, 26.5398214 ], [ -81.7577408, 26.5377889 ], [ -81.7577893, 26.5378505 ], [ -81.7578749, 26.5379593 ], [ -81.7581624, 26.537776 ], [ -81.7582666, 26.5377098 ], [ -81.7582754, 26.5376916 ], [ -81.7584122, 26.5376047 ], [ -81.7586407, 26.5374578 ], [ -81.7587024, 26.5375347 ], [ -81.7587895, 26.5374818 ], [ -81.7587413, 26.5374236 ], [ -81.758723, 26.5374016 ], [ -81.7586313, 26.537291 ], [ -81.7586522, 26.5372802 ], [ -81.7586869, 26.5372622 ], [ -81.7587108, 26.5372462 ], [ -81.7587409, 26.5372261 ], [ -81.758811, 26.5371794 ], [ -81.7587761, 26.5371302 ], [ -81.7592857, 26.5368027 ], [ -81.7599342, 26.5376077 ], [ -81.7603245, 26.5380923 ], [ -81.7605169, 26.5383312 ], [ -81.7606622, 26.5382419 ], [ -81.7607062, 26.5382149 ], [ -81.7612589, 26.5378404 ], [ -81.7613627, 26.5377756 ], [ -81.7616375, 26.5375961 ], [ -81.7622362, 26.5372034 ], [ -81.7622573, 26.5372286 ], [ -81.7627927, 26.5378665 ], [ -81.7628821, 26.5378104 ], [ -81.7631281, 26.5376559 ], [ -81.7631587, 26.5376367 ], [ -81.763765, 26.5372562 ], [ -81.7637245, 26.5372023 ], [ -81.7641717, 26.5369184 ], [ -81.7641977, 26.5369019 ], [ -81.7641458, 26.5368365 ], [ -81.7642256, 26.5367857 ], [ -81.7642515, 26.5367693 ], [ -81.7642052, 26.536711 ], [ -81.7642663, 26.536673 ], [ -81.7642315, 26.5366276 ], [ -81.7642905, 26.5365892 ], [ -81.7642782, 26.5365716 ], [ -81.7642006, 26.536468 ], [ -81.7641818, 26.5364453 ], [ -81.7641349, 26.536474 ], [ -81.7641004, 26.5364374 ], [ -81.7640035, 26.5363229 ], [ -81.7641352, 26.5362423 ], [ -81.7638539, 26.5358477 ], [ -81.7640972, 26.5356856 ], [ -81.7664034, 26.5341547 ], [ -81.7670003, 26.5337563 ], [ -81.7670627, 26.5337146 ], [ -81.767094, 26.533702 ], [ -81.7673206, 26.533565 ], [ -81.7662997, 26.5322913 ], [ -81.7662353, 26.5323345 ], [ -81.7661812, 26.5323271 ], [ -81.7661395, 26.5322772 ], [ -81.7661165, 26.5322496 ], [ -81.7660583, 26.5321809 ], [ -81.7682411, 26.5307618 ], [ -81.7714317, 26.5286774 ], [ -81.7714576, 26.5284528 ], [ -81.7715528, 26.5284608 ], [ -81.7717446, 26.5284804 ], [ -81.7728282, 26.5277749 ], [ -81.7728097, 26.5276441 ], [ -81.772898, 26.5276697 ], [ -81.7731887, 26.5274806 ], [ -81.7734064, 26.5272051 ], [ -81.7742337, 26.5266518 ], [ -81.7743517, 26.526575 ], [ -81.7744322, 26.5264934 ], [ -81.7744637, 26.52639 ], [ -81.7744751, 26.526263 ], [ -81.7744375, 26.526143 ], [ -81.774518, 26.5261046 ], [ -81.7744483, 26.5259942 ], [ -81.7745138, 26.5259628 ], [ -81.7745663, 26.5259222 ], [ -81.7733486, 26.5244199 ], [ -81.7765592, 26.522338 ], [ -81.776594, 26.5223752 ], [ -81.7767228, 26.5222984 ], [ -81.776587, 26.5221251 ], [ -81.7764669, 26.5222027 ], [ -81.7764975, 26.5222744 ], [ -81.7760308, 26.5225672 ], [ -81.7759879, 26.5225672 ], [ -81.7759342, 26.5225768 ], [ -81.7759128, 26.5226152 ], [ -81.7759074, 26.5226536 ], [ -81.7755292, 26.5228996 ], [ -81.7754621, 26.522884 ], [ -81.7754246, 26.5229224 ], [ -81.7754219, 26.5229571 ], [ -81.775041, 26.5232211 ], [ -81.7749928, 26.5232115 ], [ -81.7749445, 26.5232259 ], [ -81.7749177, 26.5232595 ], [ -81.7749257, 26.5232871 ], [ -81.7745287, 26.5235511 ], [ -81.7744724, 26.5235331 ], [ -81.7744241, 26.5235715 ], [ -81.7744241, 26.5236099 ], [ -81.7740459, 26.5238679 ], [ -81.7739601, 26.5238631 ], [ -81.773936, 26.5238931 ], [ -81.773936, 26.5239363 ], [ -81.7735846, 26.5241703 ], [ -81.7734639, 26.5241715 ], [ -81.7734183, 26.5241943 ], [ -81.7733727, 26.5242531 ], [ -81.7733781, 26.5242963 ], [ -81.7733074, 26.5243419 ], [ -81.7723991, 26.5232487 ], [ -81.7723079, 26.5231767 ], [ -81.7721925, 26.5231251 ], [ -81.7720584, 26.5230915 ], [ -81.7719458, 26.5230867 ], [ -81.7718304, 26.5230903 ], [ -81.7716722, 26.5231347 ], [ -81.7715676, 26.5231815 ], [ -81.7713724, 26.5233077 ], [ -81.7711894, 26.5234323 ], [ -81.7710901, 26.5234695 ], [ -81.7709909, 26.5234947 ], [ -81.7709024, 26.5234935 ], [ -81.7707951, 26.5234935 ], [ -81.7699743, 26.5233687 ], [ -81.7698349, 26.5233735 ], [ -81.7698387, 26.5234366 ], [ -81.7698483, 26.5235979 ], [ -81.7689685, 26.5241631 ], [ -81.7687191, 26.5243239 ], [ -81.7686279, 26.5243671 ], [ -81.7685206, 26.5244007 ], [ -81.7684938, 26.5243383 ], [ -81.7682926, 26.5243779 ], [ -81.7681585, 26.5243923 ], [ -81.7680076, 26.5243911 ], [ -81.7678688, 26.5244115 ], [ -81.7677562, 26.5244451 ], [ -81.7676194, 26.5245207 ], [ -81.7671258, 26.5248231 ], [ -81.766981, 26.5248999 ], [ -81.7668362, 26.5249479 ], [ -81.7667103, 26.524972 ], [ -81.766526, 26.5249874 ], [ -81.7663534, 26.5249767 ], [ -81.7661683, 26.5249203 ], [ -81.7658196, 26.5247907 ], [ -81.7656721, 26.5247559 ], [ -81.7655487, 26.5247463 ], [ -81.7653824, 26.5247703 ], [ -81.7652519, 26.5247905 ], [ -81.765141, 26.5248519 ], [ -81.76358, 26.5258742 ], [ -81.7634153, 26.5259737 ], [ -81.7632956, 26.5260182 ], [ -81.7631459, 26.5260657 ], [ -81.7629711, 26.526077 ], [ -81.7620168, 26.5260726 ], [ -81.7595781, 26.5260614 ], [ -81.7594467, 26.526101 ], [ -81.7640884, 26.5202862 ] ] ] } },
{ "type": "Feature", "properties": { "facility_type": "aerodrome", "osm_id": 296888205 }, "geometry": { "type": "Polygon", "coordinates": [ [ [ -81.8715211, 26.5796448 ], [ -81.8715756, 26.5807486 ], [ -81.8715863, 26.5814237 ], [ -81.8715772, 26.5823527 ], [ -81.871257, 26.5827579 ], [ -81.8707164, 26.5829142 ], [ -81.8703504, 26.583056 ], [ -81.870062, 26.5831949 ], [ -81.8698367, 26.5833316 ], [ -81.8695216, 26.5835645 ], [ -81.8692814, 26.5837729 ], [ -81.8690335, 26.5840346 ], [ -81.8687894, 26.5843632 ], [ -81.8686204, 26.5846415 ], [ -81.8685143, 26.5848739 ], [ -81.8683793, 26.5851448 ], [ -81.8683041, 26.5854263 ], [ -81.8682633, 26.5856446 ], [ -81.8682412, 26.5859083 ], [ -81.8682268, 26.5861493 ], [ -81.8679765, 26.5862874 ], [ -81.8678778, 26.5863419 ], [ -81.8679138, 26.5863936 ], [ -81.8676639, 26.5865229 ], [ -81.8676226, 26.5864599 ], [ -81.8674709, 26.5865384 ], [ -81.8675123, 26.586608 ], [ -81.8672843, 26.586726 ], [ -81.8673594, 26.5868422 ], [ -81.8673808, 26.5869405 ], [ -81.8672927, 26.5869572 ], [ -81.8672966, 26.5869716 ], [ -81.8673023, 26.5869928 ], [ -81.8673164, 26.5870524 ], [ -81.8673296, 26.5871083 ], [ -81.8673929, 26.5873767 ], [ -81.8674453, 26.5875986 ], [ -81.867491, 26.5877883 ], [ -81.8676142, 26.5877642 ], [ -81.8676477, 26.5877577 ], [ -81.8677138, 26.5880104 ], [ -81.8675661, 26.5880425 ], [ -81.8677768, 26.5888909 ], [ -81.8683514, 26.5893438 ], [ -81.868419, 26.5892685 ], [ -81.8689669, 26.5896873 ], [ -81.8690055, 26.5896824 ], [ -81.8690784, 26.5899806 ], [ -81.8691093, 26.5901347 ], [ -81.869127, 26.5902789 ], [ -81.8691314, 26.5904251 ], [ -81.8691282, 26.590556 ], [ -81.8691182, 26.5907066 ], [ -81.8690939, 26.5908706 ], [ -81.8690663, 26.590994 ], [ -81.8690166, 26.5911392 ], [ -81.869032, 26.5912751 ], [ -81.8689986, 26.5913551 ], [ -81.8689479, 26.591472 ], [ -81.868897, 26.5915632 ], [ -81.8688365, 26.5916726 ], [ -81.8686627, 26.5919268 ], [ -81.8683925, 26.5922108 ], [ -81.8682103, 26.592357 ], [ -81.8680454, 26.5924659 ], [ -81.8680148, 26.5924864 ], [ -81.8678745, 26.5925694 ], [ -81.867732, 26.5926385 ], [ -81.8675376, 26.5927195 ], [ -81.8672272, 26.5928242 ], [ -81.8670903, 26.5928262 ], [ -81.8666463, 26.5929476 ], [ -81.8664695, 26.5929269 ], [ -81.8664441, 26.5929072 ], [ -81.8664728, 26.5928746 ], [ -81.8665096, 26.5928363 ], [ -81.8667359, 26.5926008 ], [ -81.8668495, 26.5924825 ], [ -81.8666637, 26.5923388 ], [ -81.8663941, 26.5921399 ], [ -81.8663288, 26.5922092 ], [ -81.8662993, 26.592186 ], [ -81.8662004, 26.5921074 ], [ -81.8658873, 26.5924344 ], [ -81.8658996, 26.5924499 ], [ -81.8659051, 26.5924983 ], [ -81.8658393, 26.5925657 ], [ -81.8657792, 26.5926158 ], [ -81.8657174, 26.5926227 ], [ -81.8655925, 26.5926494 ], [ -81.8654662, 26.5927102 ], [ -81.865375, 26.592787 ], [ -81.8649944, 26.5931821 ], [ -81.8649376, 26.5932252 ], [ -81.8649188, 26.593237 ], [ -81.8648912, 26.5932114 ], [ -81.8648273, 26.5931823 ], [ -81.8648007, 26.5931733 ], [ -81.8647774, 26.5931639 ], [ -81.8646084, 26.5929368 ], [ -81.8645046, 26.5928252 ], [ -81.8642925, 26.5926188 ], [ -81.8637138, 26.592041 ], [ -81.8637182, 26.5917466 ], [ -81.8641243, 26.591323 ], [ -81.8644273, 26.5910069 ], [ -81.8643441, 26.5909398 ], [ -81.864306, 26.5909789 ], [ -81.8642008, 26.5910868 ], [ -81.8641157, 26.5910205 ], [ -81.864092, 26.5910448 ], [ -81.864005, 26.590977 ], [ -81.8639658, 26.5909473 ], [ -81.8640461, 26.5908532 ], [ -81.8639656, 26.5907905 ], [ -81.8638839, 26.5908834 ], [ -81.8638971, 26.5908952 ], [ -81.8637686, 26.5910335 ], [ -81.8636994, 26.5911491 ], [ -81.8636044, 26.5912232 ], [ -81.8636066, 26.5903619 ], [ -81.8630296, 26.5908485 ], [ -81.8631526, 26.5909681 ], [ -81.8633702, 26.5911797 ], [ -81.8633515, 26.5911955 ], [ -81.863381, 26.5912254 ], [ -81.8634851, 26.5913308 ], [ -81.8633979, 26.5914019 ], [ -81.8632156, 26.5914493 ], [ -81.8630524, 26.5913852 ], [ -81.8628589, 26.5911985 ], [ -81.8629776, 26.5910962 ], [ -81.8628611, 26.5909802 ], [ -81.8629641, 26.5908968 ], [ -81.8628392, 26.5907689 ], [ -81.8626453, 26.5909229 ], [ -81.8625588, 26.590988 ], [ -81.8621452, 26.5905872 ], [ -81.8621086, 26.5905518 ], [ -81.8620684, 26.5905831 ], [ -81.8620268, 26.5906193 ], [ -81.8622765, 26.5908686 ], [ -81.8621418, 26.5909765 ], [ -81.8621583, 26.5909816 ], [ -81.8618467, 26.5912343 ], [ -81.8615449, 26.5909366 ], [ -81.8615135, 26.5909057 ], [ -81.8610201, 26.5913058 ], [ -81.8609566, 26.5913603 ], [ -81.8609278, 26.5913851 ], [ -81.8609115, 26.591564 ], [ -81.8601984, 26.5921538 ], [ -81.8604415, 26.5923982 ], [ -81.8604839, 26.5923688 ], [ -81.8605043, 26.59239 ], [ -81.8606568, 26.5922689 ], [ -81.8608095, 26.5924274 ], [ -81.8607268, 26.5924848 ], [ -81.8606385, 26.5925585 ], [ -81.8605684, 26.5926328 ], [ -81.8604725, 26.5927316 ], [ -81.8604084, 26.5928801 ], [ -81.8603705, 26.5930496 ], [ -81.8603701, 26.5931779 ], [ -81.8601475, 26.5931803 ], [ -81.8601475, 26.5926862 ], [ -81.8600067, 26.5925566 ], [ -81.859968, 26.5925289 ], [ -81.8599275, 26.5925112 ], [ -81.859831, 26.5925064 ], [ -81.8597238, 26.5925106 ], [ -81.8597101, 26.5924484 ], [ -81.8596657, 26.5924072 ], [ -81.8593596, 26.592652 ], [ -81.8593374, 26.5926311 ], [ -81.8591328, 26.5924256 ], [ -81.8590291, 26.5925226 ], [ -81.8590737, 26.5925723 ], [ -81.8584147, 26.5930978 ], [ -81.8584998, 26.5931868 ], [ -81.8585089, 26.593282 ], [ -81.8584234, 26.5933242 ], [ -81.8581814, 26.5933267 ], [ -81.8581869, 26.5932885 ], [ -81.857952, 26.5932925 ], [ -81.8579121, 26.5932906 ], [ -81.8578309, 26.5933084 ], [ -81.8577201, 26.5933049 ], [ -81.8576369, 26.5932761 ], [ -81.8576017, 26.5932782 ], [ -81.8575216, 26.5932713 ], [ -81.8574036, 26.5933745 ], [ -81.8566378, 26.5933649 ], [ -81.8563869, 26.5933617 ], [ -81.8556397, 26.5933527 ], [ -81.8555743, 26.5899494 ], [ -81.8563885, 26.5892783 ], [ -81.8563625, 26.5892242 ], [ -81.8563535, 26.5891746 ], [ -81.8563565, 26.5890155 ], [ -81.8557077, 26.5890272 ], [ -81.8556823, 26.586614 ], [ -81.8558119, 26.5866122 ], [ -81.8558801, 26.5866113 ], [ -81.8561277, 26.5866167 ], [ -81.8563621, 26.5866153 ], [ -81.8563595, 26.5861812 ], [ -81.8563445, 26.5861062 ], [ -81.8562921, 26.5860365 ], [ -81.8562277, 26.5859789 ], [ -81.8561587, 26.585944 ], [ -81.8560479, 26.5859253 ], [ -81.855919, 26.5859212 ], [ -81.8559175, 26.5858912 ], [ -81.855919, 26.5858569 ], [ -81.8559233, 26.5858151 ], [ -81.855934, 26.5857118 ], [ -81.8558731, 26.5857122 ], [ -81.8558121, 26.5857114 ], [ -81.855681, 26.5856011 ], [ -81.8556519, 26.5818574 ], [ -81.8560048, 26.581859 ], [ -81.8559978, 26.580252 ], [ -81.8564196, 26.5802572 ], [ -81.856386, 26.5803556 ], [ -81.8564233, 26.5803564 ], [ -81.8565511, 26.5803604 ], [ -81.8565497, 26.5803272 ], [ -81.8565497, 26.5803084 ], [ -81.8571428, 26.5803076 ], [ -81.8576368, 26.5803101 ], [ -81.8579088, 26.5803402 ], [ -81.8580852, 26.5804353 ], [ -81.8581075, 26.5805212 ], [ -81.8581532, 26.5806019 ], [ -81.8582071, 26.5806656 ], [ -81.8582635, 26.5806949 ], [ -81.8583836, 26.580861 ], [ -81.8584655, 26.5809886 ], [ -81.8585819, 26.5809861 ], [ -81.858602, 26.5810748 ], [ -81.8586351, 26.5812032 ], [ -81.8586407, 26.5814271 ], [ -81.858455, 26.5814308 ], [ -81.8584605, 26.5815445 ], [ -81.8584762, 26.5815439 ], [ -81.8591978, 26.5815206 ], [ -81.8592769, 26.5815792 ], [ -81.8598952, 26.5815483 ], [ -81.8599301, 26.5815466 ], [ -81.8599731, 26.5815445 ], [ -81.8601097, 26.5815376 ], [ -81.8601097, 26.5815691 ], [ -81.8601153, 26.5816424 ], [ -81.860132, 26.5818596 ], [ -81.8602787, 26.58185 ], [ -81.8602788, 26.5818692 ], [ -81.8602941, 26.5818855 ], [ -81.8604834, 26.581874 ], [ -81.860599, 26.5818679 ], [ -81.8605846, 26.5815532 ], [ -81.8608404, 26.5815476 ], [ -81.8608467, 26.5818458 ], [ -81.86085, 26.5819981 ], [ -81.8609122, 26.5820076 ], [ -81.8612222, 26.5820057 ], [ -81.8613783, 26.5820082 ], [ -81.8616908, 26.5820106 ], [ -81.8616905, 26.5819524 ], [ -81.8618631, 26.581951 ], [ -81.8618635, 26.5819028 ], [ -81.8619265, 26.5819042 ], [ -81.8622983, 26.5819106 ], [ -81.8624592, 26.581912 ], [ -81.8625159, 26.5819125 ], [ -81.8625215, 26.5816336 ], [ -81.8626731, 26.5816136 ], [ -81.8627652, 26.5816057 ], [ -81.8627744, 26.5816152 ], [ -81.8628145, 26.5816537 ], [ -81.8628428, 26.5816488 ], [ -81.8628674, 26.5816446 ], [ -81.862858, 26.5815883 ], [ -81.8629881, 26.5815562 ], [ -81.8634327, 26.5814473 ], [ -81.863579, 26.581476 ], [ -81.8635834, 26.581463 ], [ -81.863605, 26.5814554 ], [ -81.86364, 26.5814527 ], [ -81.8643131, 26.5814302 ], [ -81.8646123, 26.5813788 ], [ -81.8645455, 26.5810938 ], [ -81.8648447, 26.5810512 ], [ -81.8648752, 26.5810444 ], [ -81.8646679, 26.5807609 ], [ -81.8649526, 26.5805937 ], [ -81.8653693, 26.5803544 ], [ -81.8655621, 26.5802618 ], [ -81.8655595, 26.5805813 ], [ -81.8656339, 26.580589 ], [ -81.8657505, 26.5806009 ], [ -81.865856, 26.5805797 ], [ -81.8660835, 26.5805813 ], [ -81.8662199, 26.5806611 ], [ -81.8663018, 26.5806188 ], [ -81.8663302, 26.5806414 ], [ -81.8665398, 26.5808381 ], [ -81.866757, 26.580651 ], [ -81.866834, 26.5805847 ], [ -81.8669851, 26.5807015 ], [ -81.8670484, 26.580729 ], [ -81.8671751, 26.5808531 ], [ -81.8677081, 26.5804382 ], [ -81.8678116, 26.58035 ], [ -81.8681522, 26.5801125 ], [ -81.8682124, 26.5800591 ], [ -81.8682648, 26.5800126 ], [ -81.8685359, 26.5797564 ], [ -81.8688308, 26.5795105 ], [ -81.8694091, 26.5790402 ], [ -81.8702389, 26.5783653 ], [ -81.8704723, 26.5785989 ], [ -81.8715211, 26.5796448 ] ] ] } },
{ "type": "Feature", "properties": { "facility_type": "power_plant", "osm_id": 194907813 }, "geometry": { "type": "Polygon", "coordinates": [ [ [ -81.787267, 26.697716 ], [ -81.7866788, 26.6964977 ], [ -81.7839108, 26.6926202 ], [ -81.7821024, 26.693636 ], [ -81.7790831, 26.6952897 ], [ -81.7776124, 26.6960275 ], [ -81.7798214, 26.7007169 ], [ -81.781109, 26.70023 ], [ -81.7812945, 26.7001499 ], [ -81.7813407, 26.7000676 ], [ -81.7813407, 26.6999046 ], [ -81.7811529, 26.6996027 ], [ -81.7807721, 26.6987736 ], [ -81.7806701, 26.6985292 ], [ -81.7806326, 26.6982704 ], [ -81.7805763, 26.6980452 ], [ -81.780528, 26.6979278 ], [ -81.7804985, 26.6978487 ], [ -81.7805012, 26.6977768 ], [ -81.7805441, 26.6977097 ], [ -81.7805897, 26.6976738 ], [ -81.7806433, 26.6976762 ], [ -81.7806594, 26.6976953 ], [ -81.7806165, 26.6977169 ], [ -81.7809544, 26.6984262 ], [ -81.7813434, 26.6992289 ], [ -81.781566, 26.6997393 ], [ -81.7816089, 26.6998328 ], [ -81.781715, 26.6999219 ], [ -81.7818043, 26.699969 ], [ -81.7818978, 26.6999484 ], [ -81.7819148, 26.6998797 ], [ -81.7818775, 26.699801 ], [ -81.781801, 26.69963 ], [ -81.78182, 26.699592 ], [ -81.7823481, 26.6993902 ], [ -81.7823989, 26.6995108 ], [ -81.7825294, 26.699463 ], [ -81.782475, 26.6993377 ], [ -81.7836494, 26.6988934 ], [ -81.7837049, 26.6989188 ], [ -81.7840414, 26.6987923 ], [ -81.7840964, 26.6987008 ], [ -81.7849247, 26.6983592 ], [ -81.785466, 26.698332 ], [ -81.785822, 26.6982917 ], [ -81.7860771, 26.6982701 ], [ -81.7861835, 26.6982317 ], [ -81.7862643, 26.6981668 ], [ -81.786497, 26.6979377 ], [ -81.786661, 26.697826 ], [ -81.78682, 26.697782 ], [ -81.786992, 26.697749 ], [ -81.787267, 26.697716 ] ] ] } },
{ "type": "Feature", "properties": { "facility_type": "power_plant", "osm_id": 372070148 }, "geometry": { "type": "Polygon", "coordinates": [ [ [ -81.7620758, 26.6311297 ], [ -81.7621142, 26.63128 ], [ -81.762047, 26.6315847 ], [ -81.761927, 26.6318594 ], [ -81.7617109, 26.6320611 ], [ -81.7615909, 26.632177 ], [ -81.7615317, 26.6325131 ], [ -81.7614944, 26.6326738 ], [ -81.7614373, 26.6328465 ], [ -81.7613412, 26.6329667 ], [ -81.7611252, 26.6329753 ], [ -81.7601073, 26.632971 ], [ -81.7599969, 26.6329323 ], [ -81.7599009, 26.6327263 ], [ -81.7599153, 26.6323744 ], [ -81.7599105, 26.6313915 ], [ -81.7599057, 26.6310568 ], [ -81.7599537, 26.630898 ], [ -81.7600689, 26.6307306 ], [ -81.7602417, 26.6306147 ], [ -81.7604242, 26.6305632 ], [ -81.7608323, 26.6305847 ], [ -81.7617301, 26.6306233 ], [ -81.7618502, 26.6306447 ], [ -81.7619462, 26.6307306 ], [ -81.762023, 26.630928 ], [ -81.7620758, 26.6311297 ] ] ] } },
{ "type": "Feature", "properties": { "facility_type": "fire_station", "osm_id": 136287990 }, "geometry": { "type": "Polygon", "coordinates": [ [ [ -81.8642008, 26.5910868 ], [ -81.8641157, 26.5910205 ], [ -81.864092, 26.5910448 ], [ -81.864005, 26.590977 ], [ -81.8639658, 26.5909473 ], [ -81.8640461, 26.5908532 ], [ -81.8639656, 26.5907905 ], [ -81.8640562, 26.5906918 ], [ -81.8641055, 26.5907276 ], [ -81.8641622, 26.5907688 ], [ -81.8641718, 26.5907555 ], [ -81.8642301, 26.5907993 ], [ -81.8642857, 26.5908436 ], [ -81.864268, 26.5908616 ], [ -81.8643546, 26.590929 ], [ -81.8643441, 26.5909398 ], [ -81.864306, 26.5909789 ], [ -81.8642008, 26.5910868 ] ] ] } },
{ "type": "Feature", "properties": { "facility_type": "fire_station", "osm_id": 289543056 }, "geometry": { "type": "Polygon", "coordinates": [ [ [ -81.9359362, 26.5140024 ], [ -81.93593, 26.5138114 ], [ -81.9370777, 26.5137814 ], [ -81.9370839, 26.5139713 ], [ -81.9363254, 26.5139911 ], [ -81.9363324, 26.5142044 ], [ -81.9360988, 26.5142105 ], [ -81.9360919, 26.5139983 ], [ -81.9359362, 26.5140024 ] ] ] } },
{ "type": "Feature", "properties": { "facility_type": "fire_station", "osm_id": 552246203 }, "geometry": { "type": "Polygon", "coordinates": [ [ [ -81.9392753, 26.6070671 ], [ -81.9392682, 26.6068608 ], [ -81.939256, 26.6068608 ], [ -81.939255, 26.6068308 ], [ -81.9392794, 26.6068308 ], [ -81.9392784, 26.6067263 ], [ -81.9391808, 26.6067309 ], [ -81.9391808, 26.6067072 ], [ -81.9391137, 26.6067082 ], [ -81.9391158, 26.6067318 ], [ -81.9390406, 26.6067327 ], [ -81.9390406, 26.6067681 ], [ -81.9389155, 26.6067727 ], [ -81.9389196, 26.6068763 ], [ -81.9390101, 26.6068717 ], [ -81.9390131, 26.6070044 ], [ -81.9389806, 26.6070071 ], [ -81.9389806, 26.6070707 ], [ -81.9390162, 26.6070689 ], [ -81.9390166, 26.607074 ], [ -81.9392753, 26.6070671 ] ] ] } }
]
}
