{
"type": "FeatureCollection",
"name": "Ian_CharlotteHarbor_buildings",
"crs": { "type": "name", "properties": { "name": "urn:ogc:def:crs:OGC:1.3:CRS84" } },
"features": [
{ "type": "Feature", "properties": { "facility_type": "hospital", "osm_id": 508232436 }, "geometry": { "type": "Polygon", "coordinates": [ [ [ -82.0412603, 26.9395464 ], [ -82.0402311, 26.9401067 ], [ -82.0398624, 26.9402839 ], [ -82.0394745, 26.9404497 ], [ -82.039468, 26.9413243 ], [ -82.03841, 26.9413329 ], [ -82.0384004, 26.9424447 ], [ -82.038426, 26.9424647 ], [ -82.0393141, 26.941936 ], [ -82.0407185, 26.9411871 ], [ -82.0418823, 26.9405354 ], [ -82.0416996, 26.9402382 ], [ -82.0412603, 26.9395464 ] ] ] } },
{ "type": "Feature", "properties": { "facility_type": "hospital", "osm_id": 508257487 }, "geometry": { "type": "Polygon", "coordinates": [ [ [ -82.0966295, 26.9880123 ], [ -82.0949131, 26.9879987 ], [ -82.0949085, 26.991511 ], [ -82.094884, 26.9919703 ], [ -82.0952135, 26.991945 ], [ -82.0953357, 26.9919939 ], [ -82.0957184, 26.9926109 ], [ -82.0964937, 26.9926904 ], [ -82.0965533, 26.9922113 ], [ -82.0965698, 26.9914132 ], [ -82.0952936, 26.9913973 ], [ -82.0952973, 26.9902367 ], [ -82.0965944, 26.9902422 ], [ -82.0966295, 26.9880123 ] ] ] } },
{ "type": "Feature", "properties": { "facility_type": "hospital", "osm_id": 508257488 }, "geometry": { "type": "Polygon", "coordinates": [ [ [ -82.0987473, 26.9878083 ], [ -82.0983575, 26.9879339 ], [ -82.0980959, 26.9879854 ], [ -82.0977966, 26.9879989 ], [ -82.0969011, 26.9880056 ], [ -82.0969137, 26.9897404 ], [ -82.0981739, 26.9897561 ], [ -82.098355, 26.9897516 ], [ -82.0985889, 26.9897113 ], [ -82.0989083, 26.989597 ], [ -82.0991951, 26.9894894 ], [ -82.0996101, 26.9893594 ], [ -82.0999874, 26.9893033 ], [ -82.1003773, 26.9892899 ], [ -82.1004276, 26.9892652 ], [ -82.1004603, 26.9892137 ], [ -82.1004653, 26.9890926 ], [ -82.1004401, 26.9888237 ], [ -82.1003898, 26.9886376 ], [ -82.100332, 26.9885816 ], [ -82.100254, 26.9885076 ], [ -82.0996378, 26.988743 ], [ -82.0995724, 26.988743 ], [ -82.099512, 26.9887026 ], [ -82.0987473, 26.9878083 ] ] ] } },
{ "type": "Feature", "properties": { "facility_type": "hospital", "osm_id": 633206436 }, "geometry": { "type": "Polygon", "coordinates": [ [ [ -82.0332586, 26.9241464 ], [ -82.0332516, 26.9225431 ], [ -82.0317271, 26.9225398 ], [ -82.0312463, 26.9229367 ], [ -82.0303893, 26.9228136 ], [ -82.0302921, 26.9228473 ], [ -82.030227, 26.9228978 ], [ -82.0301928, 26.923032 ], [ -82.0301827, 26.923183 ], [ -82.0301801, 26.923391 ], [ -82.0299414, 26.9233994 ], [ -82.0298166, 26.9235357 ], [ -82.0298059, 26.9241288 ], [ -82.0332586, 26.9241464 ] ] ] } },
{ "type": "Feature", "properties": { "facility_type": "hospital", "osm_id": 693760362 }, "geometry": { "type": "Polygon", "coordinates": [ [ [ -82.0584266, 26.9936397 ], [ -82.0585604, 26.9932705 ], [ -82.0585527, 26.9932229 ], [ -82.0585299, 26.9931921 ], [ -82.0584997, 26.9931636 ], [ -82.0584632, 26.9931417 ], [ -82.0584622, 26.9930887 ], [ -82.058086, 26.9930849 ], [ -82.058087, 26.9930567 ], [ -82.0579995, 26.9930571 ], [ -82.0579999, 26.9931496 ], [ -82.0579522, 26.993185 ], [ -82.0579318, 26.9932142 ], [ -82.0579335, 26.9934974 ], [ -82.0579516, 26.9935285 ], [ -82.0579796, 26.9935515 ], [ -82.0579803, 26.9936328 ], [ -82.0584266, 26.9936397 ] ] ] } },
{ "type": "Feature", "properties": { "facility_type": "aerodrome", "osm_id": 308437675 }, "geometry": { "type": "Polygon", "coordinates": [ [ [ -82.0392407, 27.0402596 ], [ -82.0488379, 27.0457171 ], [ -82.0489635, 27.0457344 ], [ -82.0490827, 27.04572 ], [ -82.0491407, 27.045677 ], [ -82.0491826, 27.045588 ], [ -82.0491762, 27.0454847 ], [ -82.0393309, 27.039875 ], [ -82.0392342, 27.0398722 ], [ -82.0392407, 27.0402596 ] ] ] } },
{ "type": "Feature", "properties": { "facility_type": "aerodrome", "osm_id": 308584901 }, "geometry": { "type": "Polygon", "coordinates": [ [ [ -81.9973742, 26.9070368 ], [ -81.9896289, 26.9069466 ], [ -81.9888022, 26.9056727 ], [ -81.9864241, 26.9069693 ], [ -81.9873091, 26.9082171 ], [ -81.9864848, 26.9089001 ], [ -81.9882853, 26.9116263 ], [ -81.9790581, 26.9264162 ], [ -81.9786672, 26.9262467 ], [ -81.9784098, 26.9271472 ], [ -81.978576, 26.9271903 ], [ -81.9770473, 26.9296414 ], [ -81.9770201, 26.931789 ], [ -81.9811173, 26.9319147 ], [ -81.9811643, 26.9314233 ], [ -81.9813395, 26.9310767 ], [ -81.9821338, 26.9310983 ], [ -81.9821753, 26.9292615 ], [ -81.9825874, 26.9283847 ], [ -81.9832582, 26.9284304 ], [ -81.9832795, 26.9275581 ], [ -81.9838264, 26.9266705 ], [ -81.9978271, 26.9264724 ], [ -81.9978229, 26.9256458 ], [ -82.0008862, 26.9256115 ], [ -82.0008862, 26.9248954 ], [ -82.0005658, 26.9244002 ], [ -82.0005145, 26.924244 ], [ -82.0005615, 26.9242021 ], [ -82.0010357, 26.9243354 ], [ -82.0017279, 26.9226822 ], [ -82.0026507, 26.9205565 ], [ -82.0027148, 26.9203127 ], [ -82.0027361, 26.9200194 ], [ -82.0027191, 26.9197908 ], [ -82.0026849, 26.9195432 ], [ -82.0025738, 26.9192842 ], [ -82.0003329, 26.915947 ], [ -82.0002489, 26.9157093 ], [ -81.99777, 26.9119488 ], [ -81.9976781, 26.9118021 ], [ -81.9976073, 26.911558 ], [ -81.9973959, 26.9106097 ], [ -81.9973742, 26.9070368 ] ] ] } },
{ "type": "Feature", "properties": { "facility_type": "power_plant", "osm_id": 651213254 }, "geometry": { "type": "Polygon", "coordinates": [ [ [ -82.0644069, 27.0120388 ], [ -82.0643323, 27.0120389 ], [ -82.0641967, 27.0120392 ], [ -82.0641945, 27.0119261 ], [ -82.0642113, 27.0119182 ], [ -82.0642308, 27.0119147 ], [ -82.0644064, 27.0119159 ], [ -82.0644069, 27.0120388 ] ] ] } },
{ "type": "Feature", "properties": { "facility_type": "fire_station", "osm_id": 96216111 }, "geometry": { "type": "Polygon", "coordinates": [ [ [ -82.0693557, 26.9093454 ], [ -82.069356, 26.909448 ], [ -82.0693563, 26.9095462 ], [ -82.069199, 26.9095457 ], [ -82.069199, 26.9094482 ], [ -82.069199, 26.9093448 ], [ -82.0693557, 26.9093454 ] ] ] } },
{ "type": "Feature", "properties": { "facility_type": "fire_station", "osm_id": 659223364 }, "geometry": { "type": "Polygon", "coordinates": [ [ [ -82.0915151, 27.0263983 ], [ -82.0915144, 27.0261802 ], [ -82.0915757, 27.0261805 ], [ -82.0916385, 27.0261808 ], [ -82.0916385, 27.0261922 ], [ -82.0917632, 27.0261928 ], [ -82.0917637, 27.0262741 ], [ -82.0917645, 27.0263875 ], [ -82.0916392, 27.0263881 ], [ -82.0916385, 27.0263989 ], [ -82.091577, 27.0263986 ], [ -82.0915151, 27.0263983 ] ] ] } },
{ "type": "Feature", "properties": { "facility_type": "fire_station", "osm_id": 955917538 }, "geometry": { "type": "Polygon", "coordinates": [ [ [ -82.0920492, 26.976332 ], [ -82.0921629, 26.9764087 ], [ -82.0923065, 26.9762396 ], [ -82.092288, 26.9762271 ], [ -82.0923273, 26.9761809 ], [ -82.0921167, 26.9760388 ], [ -82.0919617, 26.9762212 ], [ -82.0920772, 26.9762991 ], [ -82.0920492, 26.976332 ] ] ] } },
{ "type": "Feature", "properties": { "facility_type": "fire_station", "osm_id": 956116677 }, "geometry": { "type": "Polygon", "coordinates": [ [ [ -82.156916, 27.004425 ], [ -82.156706, 27.004423 ], [ -82.1567046, 27.0045581 ], [ -82.156703, 27.004715 ], [ -82.156913, 27.004717 ], [ -82.1569146, 27.0045581 ], [ -82.156916, 27.004425 ] ] ] } },
{ "type": "Feature", "properties": { "facility_type": "police", "osm_id": 308584900 }, "geometry": { "type": "Polygon", "coordinates": [ [ [ -82.0039469, 26.9218475 ], [ -82.0030278, 26.9218595 ], [ -82.0030256, 26.9217252 ], [ -82.0029915, 26.9217257 ], [ -82.0029897, 26.9216146 ], [ -82.0029297, 26.9216154 ], [ -82.0029287, 26.9215548 ], [ -82.002994, 26.9215539 ], [ -82.0029922, 26.9214462 ], [ -82.0030225, 26.9214458 ], [ -82.0030202, 26.9213105 ], [ -82.0039378, 26.9212984 ], [ -82.0039469, 26.9218475 ] ] ] } },
{ "type": "Feature", "properties": { "facility_type": "police", "osm_id": 626744525 }, "geometry": { "type": "Polygon", "coordinates": [ [ [ -82.039743, 26.9327794 ], [ -82.0396222, 26.9327776 ], [ -82.0396238, 26.9326914 ], [ -82.039598, 26.932691 ], [ -82.0396016, 26.932507 ], [ -82.0398076, 26.9325102 ], [ -82.039807, 26.9325377 ], [ -82.0398604, 26.9325386 ], [ -82.0398606, 26.9325277 ], [ -82.0400177, 26.9325305 ], [ -82.0400166, 26.9325795 ], [ -82.0400409, 26.93258 ], [ -82.0400392, 26.9326534 ], [ -82.0399787, 26.9326523 ], [ -82.0399782, 26.9326733 ], [ -82.0398616, 26.9326711 ], [ -82.0398561, 26.9326478 ], [ -82.0397902, 26.9326468 ], [ -82.0397883, 26.9327497 ], [ -82.0397435, 26.932749 ], [ -82.039743, 26.9327794 ] ] ] } }
]
}
