{
"type": "FeatureCollection",
"name": "Ida_NewOrleans_buildings",
"crs": { "type": "name", "properties": { "name": "urn:ogc:def:crs:OGC:1.3:CRS84" } },
"features": [
{ "type": "Feature", "properties": { "facility_type": "hospital", "osm_id": 27338629 }, "geometry": { "type": "Polygon", "coordinates": [ [ [ -90.124942, 29.9245099 ], [ -90.1240769, 29.9241501 ], [ -90.1232729, 29.9257879 ], [ -90.124135, 29.9261275 ], [ -90.125164, 29.9265363 ], [ -90.1255646, 29.9257879 ], [ -90.1245457, 29.9253401 ], [ -90.124942, 29.9245099 ] ] ] } },
{ "type": "Feature", "properties": { "facility_type": "hospital", "osm_id": 28351835 }, "geometry": { "type": "Polygon", "coordinates": [ [ [ -90.0914148, 29.9252485 ], [ -90.0915077, 29.9254453 ], [ -90.0909714, 29.9256302 ], [ -90.0913118, 29.9262925 ], [ -90.0911441, 29.9263567 ], [ -90.0913045, 29.9266642 ], [ -90.0919545, 29.9264391 ], [ -90.0922755, 29.9263453 ], [ -90.0925803, 29.9271277 ], [ -90.0934134, 29.9268912 ], [ -90.0931275, 29.9260912 ], [ -90.0926804, 29.9248849 ], [ -90.0917196, 29.9251378 ], [ -90.0914148, 29.9252485 ] ] ] } },
{ "type": "Feature", "properties": { "facility_type": "hospital", "osm_id": 28533933 }, "geometry": { "type": "Polygon", "coordinates": [ [ [ -90.1039072, 29.9364826 ], [ -90.103278, 29.9365377 ], [ -90.1035066, 29.9390329 ], [ -90.105158, 29.9389068 ], [ -90.1050673, 29.9379343 ], [ -90.1055453, 29.9378901 ], [ -90.105447, 29.9370747 ], [ -90.1039752, 29.9371861 ], [ -90.1039072, 29.9364826 ] ] ] } },
{ "type": "Feature", "properties": { "facility_type": "hospital", "osm_id": 215115532 }, "geometry": { "type": "Polygon", "coordinates": [ [ [ -90.1470387, 29.962975 ], [ -90.145512, 29.9627393 ], [ -90.1433586, 29.9624068 ], [ -90.1434489, 29.9621945 ], [ -90.1448242, 29.9589609 ], [ -90.1473332, 29.9599944 ], [ -90.1478264, 29.9601162 ], [ -90.147012, 29.9620192 ], [ -90.147035, 29.962025 ], [ -90.1473933, 29.9621153 ], [ -90.1470387, 29.962975 ] ] ] } },
{ "type": "Feature", "properties": { "facility_type": "hospital", "osm_id": 329157778 }, "geometry": { "type": "Polygon", "coordinates": [ [ [ -90.0849859, 29.9636662 ], [ -90.0825722, 29.9620424 ], [ -90.0849362, 29.9593704 ], [ -90.0866953, 29.9601627 ], [ -90.0868645, 29.9602405 ], [ -90.0877, 29.9605913 ], [ -90.0872489, 29.9611087 ], [ -90.0871195, 29.9612572 ], [ -90.0849859, 29.9636662 ] ] ] } },
{ "type": "Feature", "properties": { "facility_type": "hospital", "osm_id": 473268014 }, "geometry": { "type": "Polygon", "coordinates": [ [ [ -89.9769234, 30.0292155 ], [ -89.9771229, 30.0290935 ], [ -89.976354, 30.0278041 ], [ -89.9759879, 30.0271902 ], [ -89.9742217, 30.0282683 ], [ -89.9737541, 30.0285537 ], [ -89.9735967, 30.0286498 ], [ -89.973476, 30.0287235 ], [ -89.9726757, 30.0292355 ], [ -89.9731299, 30.0297791 ], [ -89.9728731, 30.0299303 ], [ -89.973236, 30.0303706 ], [ -89.9732574, 30.0303882 ], [ -89.9734081, 30.0305501 ], [ -89.9740073, 30.0311937 ], [ -89.9741761, 30.0310975 ], [ -89.9749348, 30.0306402 ], [ -89.9752293, 30.0310722 ], [ -89.9755394, 30.0309138 ], [ -89.975473, 30.0308164 ], [ -89.9757163, 30.030707 ], [ -89.9761764, 30.0304483 ], [ -89.9758386, 30.0299127 ], [ -89.9765349, 30.0294652 ], [ -89.9769234, 30.0292155 ] ] ] } },
{ "type": "Feature", "properties": { "facility_type": "hospital", "osm_id": 489933144 }, "geometry": { "type": "Polygon", "coordinates": [ [ [ -90.1874833, 29.9963756 ], [ -90.1852001, 29.9962146 ], [ -90.184898, 29.996509 ], [ -90.1861587, 29.9972511 ], [ -90.1864062, 29.9975612 ], [ -90.1866685, 29.9978584 ], [ -90.1868953, 29.9980719 ], [ -90.1871556, 29.9981535 ], [ -90.1875128, 29.9982046 ], [ -90.1883237, 29.9982603 ], [ -90.1880885, 29.9975076 ], [ -90.1879387, 29.9971452 ], [ -90.187746, 29.9968153 ], [ -90.1874833, 29.9963756 ] ] ] } },
{ "type": "Feature", "properties": { "facility_type": "hospital", "osm_id": 489933159 }, "geometry": { "type": "Polygon", "coordinates": [ [ [ -90.1823285, 30.0117212 ], [ -90.179415, 30.0121534 ], [ -90.1799533, 30.0155775 ], [ -90.1818372, 30.0157359 ], [ -90.1817329, 30.0152289 ], [ -90.1826248, 30.015102 ], [ -90.182457, 30.0142645 ], [ -90.1828179, 30.014213 ], [ -90.1823285, 30.0117212 ] ] ] } },
{ "type": "Feature", "properties": { "facility_type": "hospital", "osm_id": 489939742 }, "geometry": { "type": "Polygon", "coordinates": [ [ [ -90.1841881, 29.9619955 ], [ -90.1835192, 29.9621836 ], [ -90.1835841, 29.9625015 ], [ -90.183644, 29.9628691 ], [ -90.183649, 29.9631783 ], [ -90.183619, 29.9635243 ], [ -90.1835341, 29.9640908 ], [ -90.1849893, 29.9645536 ], [ -90.1850317, 29.9644 ], [ -90.1850167, 29.9642379 ], [ -90.1848994, 29.9638551 ], [ -90.1846698, 29.9632821 ], [ -90.1844751, 29.962774 ], [ -90.1841881, 29.9619955 ] ] ] } },
{ "type": "Feature", "properties": { "facility_type": "hospital", "osm_id": 489965081 }, "geometry": { "type": "Polygon", "coordinates": [ [ [ -90.1274174, 29.9165459 ], [ -90.1264567, 29.9185459 ], [ -90.1278659, 29.919156 ], [ -90.1288324, 29.9171925 ], [ -90.1289122, 29.9170717 ], [ -90.1286002, 29.9168642 ], [ -90.1282359, 29.9166818 ], [ -90.1278122, 29.9165245 ], [ -90.1274552, 29.9164126 ], [ -90.1274174, 29.9165459 ] ] ] } },
{ "type": "Feature", "properties": { "facility_type": "hospital", "osm_id": 489976547 }, "geometry": { "type": "Polygon", "coordinates": [ [ [ -90.0928774, 29.9252348 ], [ -90.0937169, 29.9249905 ], [ -90.0935786, 29.9246332 ], [ -90.092739, 29.9248775 ], [ -90.0928774, 29.9252348 ] ] ] } },
{ "type": "Feature", "properties": { "facility_type": "hospital", "osm_id": 490092403 }, "geometry": { "type": "Polygon", "coordinates": [ [ [ -90.0799633, 29.957096 ], [ -90.0796389, 29.9574626 ], [ -90.0805099, 29.9580881 ], [ -90.0797862, 29.9588537 ], [ -90.0805299, 29.9593868 ], [ -90.079836, 29.9602103 ], [ -90.0822152, 29.9618737 ], [ -90.0846138, 29.9592036 ], [ -90.0838281, 29.9588489 ], [ -90.0835874, 29.9587218 ], [ -90.0828986, 29.958403 ], [ -90.0818556, 29.9579452 ], [ -90.0799633, 29.957096 ] ] ] } },
{ "type": "Feature", "properties": { "facility_type": "hospital", "osm_id": 490092404 }, "geometry": { "type": "Polygon", "coordinates": [ [ [ -90.0761411, 29.9564147 ], [ -90.07624, 29.956477 ], [ -90.0764578, 29.956257 ], [ -90.0765369, 29.9561771 ], [ -90.0772639, 29.9566039 ], [ -90.0776486, 29.956111 ], [ -90.0776544, 29.9560454 ], [ -90.0776194, 29.9560163 ], [ -90.0769099, 29.9557071 ], [ -90.0758638, 29.9552274 ], [ -90.075383, 29.955009 ], [ -90.0748857, 29.9555673 ], [ -90.0761411, 29.9564147 ] ] ] } },
{ "type": "Feature", "properties": { "facility_type": "hospital", "osm_id": 490173157 }, "geometry": { "type": "Polygon", "coordinates": [ [ [ -90.0272178, 29.8829474 ], [ -90.0271997, 29.8834538 ], [ -90.0263544, 29.883416 ], [ -90.0262673, 29.8848252 ], [ -90.0267822, 29.8852059 ], [ -90.0281901, 29.8862469 ], [ -90.0282554, 29.8861494 ], [ -90.0284005, 29.8838061 ], [ -90.0272178, 29.8829474 ] ] ] } },
{ "type": "Feature", "properties": { "facility_type": "hospital", "osm_id": 490221517 }, "geometry": { "type": "Polygon", "coordinates": [ [ [ -90.0955853, 29.8895147 ], [ -90.0939885, 29.8895938 ], [ -90.0934183, 29.8895938 ], [ -90.0932065, 29.8896249 ], [ -90.0930044, 29.8897266 ], [ -90.0928611, 29.8899103 ], [ -90.092835, 29.8901391 ], [ -90.0928676, 29.8904244 ], [ -90.0934672, 29.8939474 ], [ -90.0946109, 29.8937863 ], [ -90.0945002, 29.8930829 ], [ -90.0959698, 29.8929868 ], [ -90.0956342, 29.8895402 ], [ -90.0955853, 29.8895147 ] ] ] } },
{ "type": "Feature", "properties": { "facility_type": "hospital", "osm_id": 589546932 }, "geometry": { "type": "Polygon", "coordinates": [ [ [ -89.9878999, 29.9567207 ], [ -89.9884064, 29.9557687 ], [ -89.9892317, 29.9560984 ], [ -89.990153, 29.9543669 ], [ -89.9880558, 29.9535292 ], [ -89.9871321, 29.9552653 ], [ -89.9880184, 29.9556193 ], [ -89.9875143, 29.9565667 ], [ -89.9878999, 29.9567207 ] ] ] } },
{ "type": "Feature", "properties": { "facility_type": "hospital", "osm_id": 723925381 }, "geometry": { "type": "Polygon", "coordinates": [ [ [ -90.1593836, 29.9993424 ], [ -90.1593992, 29.9989766 ], [ -90.1590291, 29.9989647 ], [ -90.1590134, 29.9993306 ], [ -90.1593836, 29.9993424 ] ] ] } },
{ "type": "Feature", "properties": { "facility_type": "aerodrome", "osm_id": 767313073 }, "geometry": { "type": "Polygon", "coordinates": [ [ [ -90.0341982, 30.0333154 ], [ -90.0341975, 30.0332545 ], [ -90.0341781, 30.0332556 ], [ -90.0340793, 30.0320693 ], [ -90.0328478, 30.0323753 ], [ -90.0326331, 30.0324846 ], [ -90.0325875, 30.0324963 ], [ -90.0324382, 30.0325181 ], [ -90.031284, 30.0328202 ], [ -90.0304172, 30.0330685 ], [ -90.0300019, 30.0331894 ], [ -90.0298611, 30.0332428 ], [ -90.0295472, 30.0334367 ], [ -90.0294462, 30.0334528 ], [ -90.0291516, 30.0333833 ], [ -90.0290832, 30.0333845 ], [ -90.0280514, 30.0336606 ], [ -90.0279446, 30.0336898 ], [ -90.0273232, 30.0339009 ], [ -90.0270649, 30.0339313 ], [ -90.0268056, 30.0341482 ], [ -90.0266486, 30.0341413 ], [ -90.026481, 30.0342539 ], [ -90.0264099, 30.0340565 ], [ -90.0177824, 30.0365737 ], [ -90.0173698, 30.036694 ], [ -90.0161746, 30.0370427 ], [ -90.0163034, 30.0373632 ], [ -90.0164589, 30.0375536 ], [ -90.0168881, 30.0378415 ], [ -90.0172475, 30.0381155 ], [ -90.02251, 30.0425968 ], [ -90.0233147, 30.0418631 ], [ -90.0265267, 30.0444593 ], [ -90.0266043, 30.0510722 ], [ -90.0281484, 30.0510541 ], [ -90.0281782, 30.0530575 ], [ -90.030903, 30.0530285 ], [ -90.0308985, 30.0528615 ], [ -90.0308161, 30.0528616 ], [ -90.0307652, 30.0488338 ], [ -90.0306998, 30.0454007 ], [ -90.0306663, 30.0436535 ], [ -90.0308441, 30.0434653 ], [ -90.0309433, 30.0433488 ], [ -90.0310265, 30.043247 ], [ -90.0311016, 30.0431333 ], [ -90.0311863, 30.0430004 ], [ -90.0312782, 30.0428491 ], [ -90.0313322, 30.042742 ], [ -90.0313778, 30.0426329 ], [ -90.0314415, 30.0424774 ], [ -90.0314717, 30.0423798 ], [ -90.0315079, 30.0422568 ], [ -90.031537, 30.0421315 ], [ -90.0315602, 30.0420106 ], [ -90.03158, 30.0418809 ], [ -90.0315911, 30.041739 ], [ -90.0315994, 30.0415776 ], [ -90.0315891, 30.0411343 ], [ -90.0314687, 30.0339995 ], [ -90.0333209, 30.033529 ], [ -90.0333241, 30.0335424 ], [ -90.0341982, 30.0333154 ] ] ] } },
{ "type": "Feature", "properties": { "facility_type": "aerodrome", "osm_id": 888038153 }, "geometry": { "type": "Polygon", "coordinates": [ [ [ -90.0696232, 29.902416 ], [ -90.0688563, 29.9028962 ], [ -90.0689502, 29.903064 ], [ -90.0688916, 29.9030845 ], [ -90.0688389, 29.9031047 ], [ -90.0691809, 29.9037151 ], [ -90.0692927, 29.9036742 ], [ -90.0693282, 29.9036596 ], [ -90.0700254, 29.903373 ], [ -90.0701117, 29.9033375 ], [ -90.0696232, 29.902416 ] ] ] } },
{ "type": "Feature", "properties": { "facility_type": "power_plant", "osm_id": 419562308 }, "geometry": { "type": "Polygon", "coordinates": [ [ [ -90.1514925, 29.9465042 ], [ -90.1491885, 29.951408 ], [ -90.1468013, 29.949328 ], [ -90.1460825, 29.9490921 ], [ -90.1459189, 29.9490258 ], [ -90.1457633, 29.9489271 ], [ -90.145648, 29.9488213 ], [ -90.1455246, 29.9486889 ], [ -90.1454589, 29.9485599 ], [ -90.1454119, 29.9484262 ], [ -90.1453945, 29.9482426 ], [ -90.1453395, 29.9475628 ], [ -90.1453221, 29.9470945 ], [ -90.1452953, 29.9460859 ], [ -90.1453127, 29.9443265 ], [ -90.1454039, 29.9442335 ], [ -90.1468161, 29.9426397 ], [ -90.1467758, 29.9409454 ], [ -90.1492301, 29.9412057 ], [ -90.1495358, 29.9412754 ], [ -90.1514925, 29.9465042 ] ] ] } },
{ "type": "Feature", "properties": { "facility_type": "power_plant", "osm_id": 981561219 }, "geometry": { "type": "Polygon", "coordinates": [ [ [ -89.9391782, 30.0102609 ], [ -89.9392226, 30.0104753 ], [ -89.9381283, 30.012136 ], [ -89.9367323, 30.0125228 ], [ -89.9362414, 30.0127412 ], [ -89.9356191, 30.0131197 ], [ -89.935654, 30.0132568 ], [ -89.9356101, 30.0132871 ], [ -89.9350425, 30.0136795 ], [ -89.9346267, 30.0140209 ], [ -89.934152, 30.0144529 ], [ -89.933881, 30.0147363 ], [ -89.9330991, 30.0139824 ], [ -89.9349954, 30.0103224 ], [ -89.9368085, 30.0101772 ], [ -89.9369735, 30.0107742 ], [ -89.9370562, 30.0107584 ], [ -89.9379648, 30.0105847 ], [ -89.9379434, 30.0105013 ], [ -89.9391782, 30.0102609 ] ] ] } },
{ "type": "Feature", "properties": { "facility_type": "power_plant", "osm_id": 1155623492 }, "geometry": { "type": "Polygon", "coordinates": [ [ [ -90.0243342, 30.0124151 ], [ -90.02287, 30.0123913 ], [ -90.022787, 30.011504 ], [ -90.0228127, 30.0099113 ], [ -90.0242588, 30.0099304 ], [ -90.0245065, 30.0107227 ], [ -90.0247822, 30.0116881 ], [ -90.0243355, 30.0118682 ], [ -90.0243342, 30.0124151 ] ] ] } },
{ "type": "Feature", "properties": { "facility_type": "power_plant", "osm_id": 1176577573 }, "geometry": { "type": "Polygon", "coordinates": [ [ [ -90.0285777, 29.9913149 ], [ -90.0279709, 29.9914233 ], [ -90.0286422, 29.9942428 ], [ -90.0292493, 29.9941344 ], [ -90.0285777, 29.9913149 ] ] ] } },
{ "type": "Feature", "properties": { "facility_type": "power_plant", "osm_id": 1238103552 }, "geometry": { "type": "Polygon", "coordinates": [ [ [ -89.9760772, 29.9353197 ], [ -89.9771417, 29.9357419 ], [ -89.9778127, 29.9344718 ], [ -89.9767479, 29.9340494 ], [ -89.9760772, 29.9353197 ] ] ] } },
{ "type": "Feature", "properties": { "facility_type": "power_plant", "osm_id": 1443037109 }, "geometry": { "type": "Polygon", "coordinates": [ [ [ -90.1624349, 29.9240241 ], [ -90.1622766, 29.9243735 ], [ -90.1620692, 29.9243029 ], [ -90.1622274, 29.9239535 ], [ -90.1624349, 29.9240241 ] ] ] } },
{ "type": "Feature", "properties": { "facility_type": "fire_station", "osm_id": 208527704 }, "geometry": { "type": "Polygon", "coordinates": [ [ [ -90.0657031, 29.9541417 ], [ -90.0657281, 29.9541582 ], [ -90.0656931, 29.954198 ], [ -90.0656781, 29.954188 ], [ -90.0655662, 29.9543151 ], [ -90.0652975, 29.9541375 ], [ -90.0654312, 29.9539857 ], [ -90.0656529, 29.9541323 ], [ -90.0656661, 29.9541173 ], [ -90.0657031, 29.9541417 ] ] ] } },
{ "type": "Feature", "properties": { "facility_type": "fire_station", "osm_id": 318497050 }, "geometry": { "type": "Polygon", "coordinates": [ [ [ -89.9262021, 30.0311771 ], [ -89.9261281, 30.0312044 ], [ -89.9261176, 30.031183 ], [ -89.9260102, 30.0312226 ], [ -89.9259581, 30.0311154 ], [ -89.9259983, 30.0311005 ], [ -89.9259864, 30.0310761 ], [ -89.926049, 30.0310531 ], [ -89.9260623, 30.0310805 ], [ -89.9261409, 30.0310515 ], [ -89.9262021, 30.0311771 ] ] ] } },
{ "type": "Feature", "properties": { "facility_type": "fire_station", "osm_id": 324014284 }, "geometry": { "type": "Polygon", "coordinates": [ [ [ -89.9487712, 30.0628725 ], [ -89.9489082, 30.0630101 ], [ -89.9487068, 30.0631618 ], [ -89.9485698, 30.0630242 ], [ -89.9487712, 30.0628725 ] ] ] } },
{ "type": "Feature", "properties": { "facility_type": "fire_station", "osm_id": 608481698 }, "geometry": { "type": "Polygon", "coordinates": [ [ [ -89.9842671, 29.956256 ], [ -89.9843083, 29.9561806 ], [ -89.9842567, 29.9561594 ], [ -89.9841941, 29.9561337 ], [ -89.9842414, 29.956047 ], [ -89.9839257, 29.9559175 ], [ -89.983756, 29.9562279 ], [ -89.9840757, 29.9563591 ], [ -89.9841568, 29.9562108 ], [ -89.9842117, 29.9562333 ], [ -89.9842671, 29.956256 ] ] ] } },
{ "type": "Feature", "properties": { "facility_type": "fire_station", "osm_id": 608775695 }, "geometry": { "type": "Polygon", "coordinates": [ [ [ -90.0588725, 29.9792069 ], [ -90.0584605, 29.9795335 ], [ -90.0584006, 29.9794767 ], [ -90.0585019, 29.9793964 ], [ -90.0583671, 29.9792688 ], [ -90.0585796, 29.9791004 ], [ -90.0587121, 29.9792258 ], [ -90.0588102, 29.979148 ], [ -90.0588725, 29.9792069 ] ] ] } },
{ "type": "Feature", "properties": { "facility_type": "fire_station", "osm_id": 796340620 }, "geometry": { "type": "Polygon", "coordinates": [ [ [ -90.1618461, 29.9635466 ], [ -90.1618512, 29.9634444 ], [ -90.1617712, 29.9634414 ], [ -90.1617725, 29.9634157 ], [ -90.161676, 29.9634121 ], [ -90.1616659, 29.9636148 ], [ -90.1617913, 29.9636195 ], [ -90.161795, 29.9635447 ], [ -90.1618461, 29.9635466 ] ] ] } },
{ "type": "Feature", "properties": { "facility_type": "fire_station", "osm_id": 891398116 }, "geometry": { "type": "Polygon", "coordinates": [ [ [ -90.1349539, 29.997307 ], [ -90.1349554, 29.9972744 ], [ -90.1349877, 29.9972755 ], [ -90.1349944, 29.9971315 ], [ -90.134652, 29.9971196 ], [ -90.1346502, 29.9971578 ], [ -90.1346087, 29.9971563 ], [ -90.1346041, 29.9972572 ], [ -90.134647, 29.9972587 ], [ -90.1346462, 29.9972762 ], [ -90.1347033, 29.9972782 ], [ -90.1347042, 29.9972573 ], [ -90.1347925, 29.9972603 ], [ -90.1347906, 29.9973014 ], [ -90.1349539, 29.997307 ] ] ] } },
{ "type": "Feature", "properties": { "facility_type": "fire_station", "osm_id": 1064715574 }, "geometry": { "type": "Polygon", "coordinates": [ [ [ -90.1428861, 29.9787352 ], [ -90.1429097, 29.9787436 ], [ -90.142915, 29.9787324 ], [ -90.1430034, 29.978764 ], [ -90.1429952, 29.9787812 ], [ -90.1430426, 29.9787981 ], [ -90.1430163, 29.9788532 ], [ -90.1430274, 29.9788572 ], [ -90.1429383, 29.9790441 ], [ -90.1427679, 29.9789832 ], [ -90.1428861, 29.9787352 ] ] ] } },
{ "type": "Feature", "properties": { "facility_type": "fire_station", "osm_id": 1442707415 }, "geometry": { "type": "Polygon", "coordinates": [ [ [ -89.9903647, 29.9584069 ], [ -89.9904813, 29.9581835 ], [ -89.9906998, 29.9582693 ], [ -89.9905796, 29.958493 ], [ -89.9903647, 29.9584069 ] ] ] } },
{ "type": "Feature", "properties": { "facility_type": "fire_station", "osm_id": 1443337704 }, "geometry": { "type": "Polygon", "coordinates": [ [ [ -90.0742901, 29.9979747 ], [ -90.073849, 29.9980023 ], [ -90.0738347, 29.9978345 ], [ -90.0742803, 29.9978105 ], [ -90.0742901, 29.9979747 ] ] ] } },
{ "type": "Feature", "properties": { "facility_type": "fire_station", "osm_id": 1443522577 }, "geometry": { "type": "Polygon", "coordinates": [ [ [ -90.0992774, 30.0190576 ], [ -90.0988239, 30.0190181 ], [ -90.0987883, 30.0193619 ], [ -90.0992378, 30.0193966 ], [ -90.0992774, 30.0190576 ] ] ] } },
{ "type": "Feature", "properties": { "facility_type": "fire_station", "osm_id": 1443553299 }, "geometry": { "type": "Polygon", "coordinates": [ [ [ -90.0358054, 30.0038572 ], [ -90.0362621, 30.0036366 ], [ -90.036211, 30.0031226 ], [ -90.0357042, 30.0031624 ], [ -90.0357398, 30.0035153 ], [ -90.0358054, 30.0038572 ] ] ] } },
{ "type": "Feature", "properties": { "facility_type": "police", "osm_id": 208550079 }, "geometry": { "type": "Polygon", "coordinates": [ [ [ -90.0666523, 29.9554243 ], [ -90.0668734, 29.9551731 ], [ -90.06704, 29.9552833 ], [ -90.0668189, 29.9555344 ], [ -90.0666523, 29.9554243 ] ] ] } },
{ "type": "Feature", "properties": { "facility_type": "police", "osm_id": 329144018 }, "geometry": { "type": "Polygon", "coordinates": [ [ [ -90.0930457, 29.9605862 ], [ -90.0930216, 29.960626 ], [ -90.0930901, 29.9606572 ], [ -90.0931094, 29.960666 ], [ -90.0934628, 29.9600835 ], [ -90.0941837, 29.9604118 ], [ -90.0933021, 29.9613959 ], [ -90.0928684, 29.9611984 ], [ -90.092884, 29.9611727 ], [ -90.0928017, 29.9611352 ], [ -90.0927772, 29.9611759 ], [ -90.0924945, 29.961048 ], [ -90.0927483, 29.9606271 ], [ -90.0929299, 29.9607093 ], [ -90.0930131, 29.9605721 ], [ -90.0930457, 29.9605862 ] ] ] } },
{ "type": "Feature", "properties": { "facility_type": "police", "osm_id": 342552004 }, "geometry": { "type": "Polygon", "coordinates": [ [ [ -90.0320508, 29.9498764 ], [ -90.0318819, 29.9498675 ], [ -90.0318836, 29.9498429 ], [ -90.0316672, 29.9498315 ], [ -90.0316844, 29.9495846 ], [ -90.0318984, 29.9495959 ], [ -90.0319, 29.9495738 ], [ -90.0320712, 29.9495828 ], [ -90.0320508, 29.9498764 ] ] ] } },
{ "type": "Feature", "properties": { "facility_type": "police", "osm_id": 608707980 }, "geometry": { "type": "Polygon", "coordinates": [ [ [ -89.973744, 29.94151 ], [ -89.973827, 29.9413465 ], [ -89.9737527, 29.9413182 ], [ -89.9737658, 29.9412925 ], [ -89.9736891, 29.9412632 ], [ -89.9736782, 29.9412846 ], [ -89.9735416, 29.9412325 ], [ -89.973459, 29.941395 ], [ -89.9735965, 29.9414474 ], [ -89.9735839, 29.9414722 ], [ -89.9736577, 29.9415004 ], [ -89.9736676, 29.9414809 ], [ -89.973744, 29.94151 ] ] ] } },
{ "type": "Feature", "properties": { "facility_type": "police", "osm_id": 782001760 }, "geometry": { "type": "Polygon", "coordinates": [ [ [ -90.0057429, 29.9583237 ], [ -90.0059273, 29.9583882 ], [ -90.0059924, 29.9582486 ], [ -90.005928, 29.958226 ], [ -90.005808, 29.9581841 ], [ -90.0057429, 29.9583237 ] ] ] } },
{ "type": "Feature", "properties": { "facility_type": "police", "osm_id": 828311626 }, "geometry": { "type": "Polygon", "coordinates": [ [ [ -90.0613443, 30.0301184 ], [ -90.0613382, 30.0300383 ], [ -90.0613273, 30.0300389 ], [ -90.0613259, 30.0300208 ], [ -90.0613347, 30.0300203 ], [ -90.0613246, 30.0298889 ], [ -90.06128, 30.0298914 ], [ -90.0612727, 30.0297961 ], [ -90.0612029, 30.0298001 ], [ -90.0611979, 30.0297348 ], [ -90.0611103, 30.0297398 ], [ -90.0611154, 30.0298062 ], [ -90.0610813, 30.0298082 ], [ -90.0610942, 30.0299757 ], [ -90.0610238, 30.0299798 ], [ -90.0610358, 30.0301353 ], [ -90.0611007, 30.0301315 ], [ -90.0611001, 30.0301241 ], [ -90.0612518, 30.0301153 ], [ -90.0612525, 30.030124 ], [ -90.0612648, 30.0301233 ], [ -90.0612662, 30.0301422 ], [ -90.0612798, 30.030145 ], [ -90.0613014, 30.0301455 ], [ -90.0613183, 30.0301431 ], [ -90.0613312, 30.0301384 ], [ -90.0613298, 30.0301192 ], [ -90.0613443, 30.0301184 ] ] ] } },
{ "type": "Feature", "properties": { "facility_type": "police", "osm_id": 1173737031 }, "geometry": { "type": "Polygon", "coordinates": [ [ [ -90.0952262, 29.9604248 ], [ -90.0950779, 29.9606029 ], [ -90.0944342, 29.9603241 ], [ -90.094756, 29.9598245 ], [ -90.0949408, 29.9596531 ], [ -90.095187, 29.9598323 ], [ -90.0951306, 29.959891 ], [ -90.0951776, 29.9599252 ], [ -90.095182, 29.9599848 ], [ -90.0951492, 29.9600189 ], [ -90.0952213, 29.9600713 ], [ -90.0950079, 29.9602936 ], [ -90.0950661, 29.960336 ], [ -90.0950818, 29.9603196 ], [ -90.0952262, 29.9604248 ] ] ] } },
{ "type": "Feature", "properties": { "facility_type": "police", "osm_id": 1442707407 }, "geometry": { "type": "Polygon", "coordinates": [ [ [ -90.0001337, 29.962338 ], [ -90.0004895, 29.9616042 ], [ -90.0008245, 29.961724 ], [ -90.0004727, 29.9624609 ], [ -90.0001337, 29.962338 ] ] ] } }
]
}
