{
"type": "FeatureCollection",
"name": "Irma_Miami_buildings",
"crs": { "type": "name", "properties": { "name": "urn:ogc:def:crs:OGC:1.3:CRS84" } },
"features": [
{ "type": "Feature", "properties": { "facility_type": "hospital", "osm_id": 119562095 }, "geometry": { "type": "Polygon", "coordinates": [ [ [ -80.2110274, 25.7912566 ], [ -80.2110167, 25.7906999 ], [ -80.2107565, 25.7907048 ], [ -80.2107646, 25.7909638 ], [ -80.2107156, 25.791009 ], [ -80.2106814, 25.790977 ], [ -80.2106821, 25.7909632 ], [ -80.2106264, 25.7909137 ], [ -80.2105279, 25.791006 ], [ -80.2105835, 25.7910555 ], [ -80.2105829, 25.7910732 ], [ -80.2103473, 25.7910789 ], [ -80.2103542, 25.7912759 ], [ -80.2110274, 25.7912566 ] ] ] } },
{ "type": "Feature", "properties": { "facility_type": "hospital", "osm_id": 235920245 }, "geometry": { "type": "Polygon", "coordinates": [ [ [ -80.3171358, 25.7475591 ], [ -80.3171326, 25.747203 ], [ -80.3171753, 25.7470495 ], [ -80.3175188, 25.7466001 ], [ -80.3167623, 25.7461047 ], [ -80.3162464, 25.7466159 ], [ -80.3159765, 25.7466152 ], [ -80.3156481, 25.7466143 ], [ -80.3156465, 25.7466871 ], [ -80.3156877, 25.7475449 ], [ -80.3171358, 25.7475591 ] ] ] } },
{ "type": "Feature", "properties": { "facility_type": "hospital", "osm_id": 236157529 }, "geometry": { "type": "Polygon", "coordinates": [ [ [ -80.3245316, 25.8877889 ], [ -80.3246481, 25.8877955 ], [ -80.3275953, 25.8877988 ], [ -80.3276469, 25.8877717 ], [ -80.3276666, 25.8877258 ], [ -80.327571, 25.884678 ], [ -80.3275431, 25.8846403 ], [ -80.3274907, 25.8846206 ], [ -80.3246878, 25.8846189 ], [ -80.3246091, 25.8847255 ], [ -80.3245254, 25.884906 ], [ -80.3245057, 25.8850388 ], [ -80.324532, 25.8860671 ], [ -80.3245041, 25.8877548 ], [ -80.3245316, 25.8877889 ] ] ] } },
{ "type": "Feature", "properties": { "facility_type": "hospital", "osm_id": 319447568 }, "geometry": { "type": "Polygon", "coordinates": [ [ [ -80.1382166, 25.8161335 ], [ -80.1388009, 25.8161665 ], [ -80.1391269, 25.8162078 ], [ -80.1393501, 25.8161615 ], [ -80.1395732, 25.8160919 ], [ -80.1397277, 25.8159606 ], [ -80.1400367, 25.8157442 ], [ -80.1406032, 25.8153193 ], [ -80.1410066, 25.8149793 ], [ -80.1415044, 25.8145853 ], [ -80.1423799, 25.8139053 ], [ -80.1427877, 25.8135979 ], [ -80.1431953, 25.8131636 ], [ -80.1438562, 25.8124991 ], [ -80.1442682, 25.812105 ], [ -80.1445772, 25.8117728 ], [ -80.1449548, 25.8113787 ], [ -80.1451265, 25.8112396 ], [ -80.1452466, 25.8111546 ], [ -80.1454612, 25.8110465 ], [ -80.145693, 25.8109615 ], [ -80.1459491, 25.8109056 ], [ -80.1457084, 25.8107945 ], [ -80.145691, 25.8107941 ], [ -80.145643, 25.8107953 ], [ -80.1456071, 25.8107919 ], [ -80.14388, 25.8107479 ], [ -80.1426824, 25.810872 ], [ -80.1424944, 25.8108915 ], [ -80.1417456, 25.8110354 ], [ -80.1409899, 25.8112172 ], [ -80.1402098, 25.8114704 ], [ -80.1394613, 25.8117868 ], [ -80.1388693, 25.8125664 ], [ -80.1387721, 25.813163 ], [ -80.138719, 25.813855 ], [ -80.1383214, 25.8146186 ], [ -80.1379415, 25.8152629 ], [ -80.1377647, 25.8155652 ], [ -80.1382166, 25.8161335 ] ] ] } },
{ "type": "Feature", "properties": { "facility_type": "hospital", "osm_id": 319450775 }, "geometry": { "type": "Polygon", "coordinates": [ [ [ -80.1941793, 25.8221893 ], [ -80.1941652, 25.8221342 ], [ -80.1941165, 25.822106 ], [ -80.1918267, 25.8221258 ], [ -80.1919538, 25.8246376 ], [ -80.1919962, 25.8246786 ], [ -80.1944288, 25.8246376 ], [ -80.1944681, 25.824615 ], [ -80.1944932, 25.8245656 ], [ -80.1944696, 25.8240104 ], [ -80.1957456, 25.8239694 ], [ -80.195777, 25.8239355 ], [ -80.1957786, 25.8238733 ], [ -80.1957645, 25.823547 ], [ -80.1957378, 25.8235074 ], [ -80.1957048, 25.8234933 ], [ -80.1944179, 25.8235272 ], [ -80.1944226, 25.8235004 ], [ -80.1943723, 25.8234636 ], [ -80.1943315, 25.8234227 ], [ -80.1943111, 25.8234283 ], [ -80.1942892, 25.8228604 ], [ -80.1942232, 25.8228095 ], [ -80.1941887, 25.8228081 ], [ -80.1941793, 25.8221893 ] ] ] } },
{ "type": "Feature", "properties": { "facility_type": "hospital", "osm_id": 395649834 }, "geometry": { "type": "Polygon", "coordinates": [ [ [ -80.2087941, 25.7914043 ], [ -80.2087765, 25.7907768 ], [ -80.2084015, 25.7907809 ], [ -80.2080025, 25.7907888 ], [ -80.2080129, 25.7911001 ], [ -80.2080237, 25.7914204 ], [ -80.2083999, 25.7914125 ], [ -80.2087941, 25.7914043 ] ] ] } },
{ "type": "Feature", "properties": { "facility_type": "hospital", "osm_id": 420073420 }, "geometry": { "type": "Polygon", "coordinates": [ [ [ -80.1890258, 25.8125438 ], [ -80.1890381, 25.8128881 ], [ -80.1886553, 25.8128992 ], [ -80.1886445, 25.8125942 ], [ -80.1886866, 25.8125929 ], [ -80.1886852, 25.8125536 ], [ -80.1890258, 25.8125438 ] ] ] } },
{ "type": "Feature", "properties": { "facility_type": "hospital", "osm_id": 435541446 }, "geometry": { "type": "Polygon", "coordinates": [ [ [ -80.2104725, 25.7766949 ], [ -80.2106484, 25.7766899 ], [ -80.2112066, 25.7766685 ], [ -80.2112077, 25.7766968 ], [ -80.2112316, 25.7773423 ], [ -80.2104974, 25.7773646 ], [ -80.2104862, 25.7770626 ], [ -80.2104725, 25.7766949 ] ] ] } },
{ "type": "Feature", "properties": { "facility_type": "hospital", "osm_id": 503362694 }, "geometry": { "type": "Polygon", "coordinates": [ [ [ -80.2933469, 25.7052396 ], [ -80.2934216, 25.7067646 ], [ -80.292562, 25.7067919 ], [ -80.2925424, 25.7063445 ], [ -80.2928574, 25.7063349 ], [ -80.2928379, 25.7052621 ], [ -80.2933469, 25.7052396 ] ] ] } },
{ "type": "Feature", "properties": { "facility_type": "hospital", "osm_id": 503484100 }, "geometry": { "type": "Polygon", "coordinates": [ [ [ -80.2731112, 25.7255486 ], [ -80.273248, 25.7255559 ], [ -80.2738139, 25.7251427 ], [ -80.2743825, 25.7248092 ], [ -80.2748653, 25.7246111 ], [ -80.2752033, 25.7245071 ], [ -80.2751617, 25.7243126 ], [ -80.2750738, 25.724126 ], [ -80.2749057, 25.7238836 ], [ -80.274641, 25.7236218 ], [ -80.2741859, 25.7233239 ], [ -80.2739292, 25.7231999 ], [ -80.273881, 25.7232482 ], [ -80.2736825, 25.7235841 ], [ -80.2734089, 25.7235672 ], [ -80.2732506, 25.7237315 ], [ -80.2730253, 25.7241858 ], [ -80.2728698, 25.7246497 ], [ -80.2728081, 25.7249373 ], [ -80.2731675, 25.7249663 ], [ -80.2731138, 25.7253988 ], [ -80.2731112, 25.7255486 ] ] ] } },
{ "type": "Feature", "properties": { "facility_type": "hospital", "osm_id": 503484152 }, "geometry": { "type": "Polygon", "coordinates": [ [ [ -80.2959611, 25.7425597 ], [ -80.2958795, 25.7408631 ], [ -80.2958243, 25.7397157 ], [ -80.295788, 25.739693 ], [ -80.2957265, 25.7396704 ], [ -80.2930314, 25.7397484 ], [ -80.2932381, 25.7427471 ], [ -80.2932688, 25.7427823 ], [ -80.2933219, 25.7427999 ], [ -80.2949334, 25.7427471 ], [ -80.2950046, 25.7427232 ], [ -80.2950367, 25.742698 ], [ -80.2950772, 25.742644 ], [ -80.2952475, 25.7426289 ], [ -80.2959053, 25.7426037 ], [ -80.2959611, 25.7425597 ] ] ] } },
{ "type": "Feature", "properties": { "facility_type": "hospital", "osm_id": 503484158 }, "geometry": { "type": "Polygon", "coordinates": [ [ [ -80.3182147, 25.7470815 ], [ -80.3176418, 25.7467072 ], [ -80.3173593, 25.7470482 ], [ -80.317317, 25.747111 ], [ -80.3172962, 25.7471664 ], [ -80.3172889, 25.7472199 ], [ -80.317299, 25.7473906 ], [ -80.3173159, 25.7477777 ], [ -80.3173262, 25.7479188 ], [ -80.3173528, 25.7479434 ], [ -80.3173902, 25.7479608 ], [ -80.3177904, 25.7479592 ], [ -80.3182147, 25.7470815 ] ] ] } },
{ "type": "Feature", "properties": { "facility_type": "hospital", "osm_id": 503485732 }, "geometry": { "type": "Polygon", "coordinates": [ [ [ -80.2148391, 25.7878257 ], [ -80.2147907, 25.7877191 ], [ -80.212813, 25.7877858 ], [ -80.2127538, 25.7878366 ], [ -80.2127431, 25.7879747 ], [ -80.2127888, 25.7883745 ], [ -80.2128507, 25.788452 ], [ -80.213039, 25.7884859 ], [ -80.2132516, 25.7885804 ], [ -80.2133969, 25.7887088 ], [ -80.2135126, 25.7888832 ], [ -80.213561, 25.7890795 ], [ -80.2135826, 25.7892927 ], [ -80.214866, 25.7892902 ], [ -80.2148687, 25.7880426 ], [ -80.2148391, 25.7878257 ] ] ] } },
{ "type": "Feature", "properties": { "facility_type": "hospital", "osm_id": 503565123 }, "geometry": { "type": "Polygon", "coordinates": [ [ [ -80.2173602, 25.787638 ], [ -80.2173979, 25.7892927 ], [ -80.2167737, 25.7893048 ], [ -80.2167521, 25.7892733 ], [ -80.2166795, 25.78922 ], [ -80.2166176, 25.7891982 ], [ -80.2165127, 25.7891885 ], [ -80.2154203, 25.7891982 ], [ -80.2153611, 25.7891739 ], [ -80.2153342, 25.78914 ], [ -80.215283, 25.7876985 ], [ -80.2173602, 25.787638 ] ] ] } },
{ "type": "Feature", "properties": { "facility_type": "hospital", "osm_id": 503666489 }, "geometry": { "type": "Polygon", "coordinates": [ [ [ -80.2100605, 25.7900527 ], [ -80.2088615, 25.7900962 ], [ -80.2089232, 25.791393 ], [ -80.2101141, 25.7913375 ], [ -80.2100605, 25.7900527 ] ] ] } },
{ "type": "Feature", "properties": { "facility_type": "hospital", "osm_id": 503666490 }, "geometry": { "type": "Polygon", "coordinates": [ [ [ -80.2152747, 25.7905176 ], [ -80.2152613, 25.7905417 ], [ -80.2152506, 25.7905756 ], [ -80.215323, 25.7931512 ], [ -80.2190352, 25.7930352 ], [ -80.2189788, 25.7916901 ], [ -80.2184933, 25.791265 ], [ -80.2182815, 25.7912288 ], [ -80.2178603, 25.790782 ], [ -80.2177115, 25.7906335 ], [ -80.2176458, 25.7905828 ], [ -80.2175693, 25.7905321 ], [ -80.2174848, 25.7904995 ], [ -80.2173641, 25.7904633 ], [ -80.217281, 25.7904524 ], [ -80.2170329, 25.7904596 ], [ -80.2162001, 25.7904838 ], [ -80.2152747, 25.7905176 ] ] ] } },
{ "type": "Feature", "properties": { "facility_type": "hospital", "osm_id": 503666507 }, "geometry": { "type": "Polygon", "coordinates": [ [ [ -80.2103134, 25.7914779 ], [ -80.2103161, 25.791318 ], [ -80.2111475, 25.791301 ], [ -80.2111421, 25.7905694 ], [ -80.2116883, 25.7905597 ], [ -80.211761, 25.7906566 ], [ -80.212291, 25.7906493 ], [ -80.2124229, 25.7905258 ], [ -80.2126462, 25.7905137 ], [ -80.2126823, 25.7904886 ], [ -80.2127135, 25.7904555 ], [ -80.2126435, 25.7890552 ], [ -80.2125897, 25.7887815 ], [ -80.212509, 25.7885974 ], [ -80.2128534, 25.7885634 ], [ -80.2130498, 25.7885949 ], [ -80.2132839, 25.7887209 ], [ -80.2133915, 25.7888711 ], [ -80.2134722, 25.7890359 ], [ -80.2135126, 25.7892176 ], [ -80.2135368, 25.7905888 ], [ -80.2148149, 25.7905791 ], [ -80.2148741, 25.7906154 ], [ -80.2148875, 25.7918631 ], [ -80.2149683, 25.7948067 ], [ -80.2149629, 25.7948428 ], [ -80.2149414, 25.7948736 ], [ -80.2149113, 25.7948972 ], [ -80.2148649, 25.7949122 ], [ -80.2112458, 25.7950209 ], [ -80.2112158, 25.7950182 ], [ -80.2111934, 25.7950095 ], [ -80.2111773, 25.7949947 ], [ -80.2111652, 25.7949769 ], [ -80.2111576, 25.7949539 ], [ -80.2111529, 25.7940482 ], [ -80.2110883, 25.7936994 ], [ -80.2110692, 25.7936606 ], [ -80.2109753, 25.7934692 ], [ -80.2108596, 25.7932875 ], [ -80.2105798, 25.793009 ], [ -80.2104674, 25.7930417 ], [ -80.2102219, 25.7931131 ], [ -80.2090246, 25.7931301 ], [ -80.2090165, 25.7924929 ], [ -80.2100847, 25.7924445 ], [ -80.2103296, 25.792241 ], [ -80.2103134, 25.7914779 ] ] ] } },
{ "type": "Feature", "properties": { "facility_type": "hospital", "osm_id": 503675517 }, "geometry": { "type": "Polygon", "coordinates": [ [ [ -80.2114684, 25.7402195 ], [ -80.2124589, 25.7413348 ], [ -80.2139053, 25.7415047 ], [ -80.2140272, 25.7415933 ], [ -80.2153754, 25.743236 ], [ -80.2156701, 25.7435617 ], [ -80.2182016, 25.7418278 ], [ -80.2180331, 25.7415922 ], [ -80.2170882, 25.7420635 ], [ -80.2168663, 25.7418372 ], [ -80.2161107, 25.7409204 ], [ -80.2155565, 25.7403208 ], [ -80.2165845, 25.739574 ], [ -80.2159326, 25.7387966 ], [ -80.214358, 25.7383078 ], [ -80.2114684, 25.7402195 ] ] ] } },
{ "type": "Feature", "properties": { "facility_type": "hospital", "osm_id": 503677063 }, "geometry": { "type": "Polygon", "coordinates": [ [ [ -80.2544344, 25.7427468 ], [ -80.2544094, 25.7427884 ], [ -80.2544171, 25.7431123 ], [ -80.2544305, 25.7434553 ], [ -80.2544666, 25.7441388 ], [ -80.2544754, 25.7441561 ], [ -80.2544976, 25.7441626 ], [ -80.2557372, 25.744088 ], [ -80.2559031, 25.7438976 ], [ -80.2548748, 25.7430499 ], [ -80.2544748, 25.7427537 ], [ -80.2544344, 25.7427468 ] ] ] } },
{ "type": "Feature", "properties": { "facility_type": "hospital", "osm_id": 503770792 }, "geometry": { "type": "Polygon", "coordinates": [ [ [ -80.2927752, 25.7779873 ], [ -80.2927861, 25.779176 ], [ -80.2928024, 25.7792569 ], [ -80.2929865, 25.7791712 ], [ -80.293088, 25.7791227 ], [ -80.293255, 25.7790497 ], [ -80.293639, 25.7788617 ], [ -80.293751, 25.7788167 ], [ -80.29395, 25.7787157 ], [ -80.293972, 25.7786947 ], [ -80.294098, 25.7786237 ], [ -80.2942544, 25.7785369 ], [ -80.2944011, 25.778466 ], [ -80.2945612, 25.7787095 ], [ -80.2931484, 25.7794533 ], [ -80.2935686, 25.7801611 ], [ -80.2952568, 25.7792184 ], [ -80.2948184, 25.7785268 ], [ -80.2946808, 25.7786182 ], [ -80.2945267, 25.7783919 ], [ -80.294753, 25.7782687 ], [ -80.294855, 25.7782207 ], [ -80.2950926, 25.7780798 ], [ -80.295269, 25.7779727 ], [ -80.2951481, 25.777956 ], [ -80.2946318, 25.7779282 ], [ -80.2934555, 25.7779595 ], [ -80.2927752, 25.7779873 ] ] ] } },
{ "type": "Feature", "properties": { "facility_type": "hospital", "osm_id": 503895931 }, "geometry": { "type": "Polygon", "coordinates": [ [ [ -80.3131315, 25.867637 ], [ -80.3131866, 25.8695279 ], [ -80.310375, 25.869517 ], [ -80.3103151, 25.8673756 ], [ -80.3107219, 25.8673768 ], [ -80.3110126, 25.8674923 ], [ -80.3114126, 25.8676101 ], [ -80.3117005, 25.867637 ], [ -80.3131315, 25.867637 ] ] ] } },
{ "type": "Feature", "properties": { "facility_type": "hospital", "osm_id": 503998718 }, "geometry": { "type": "Polygon", "coordinates": [ [ [ -80.2157058, 25.8579699 ], [ -80.2158316, 25.8580328 ], [ -80.2165417, 25.8580051 ], [ -80.216606, 25.8581108 ], [ -80.2163321, 25.8584252 ], [ -80.2160273, 25.8588101 ], [ -80.2159043, 25.8590064 ], [ -80.2157673, 25.8592856 ], [ -80.2155828, 25.8598265 ], [ -80.2155353, 25.8601007 ], [ -80.2155688, 25.8610466 ], [ -80.2155688, 25.8614089 ], [ -80.2155073, 25.8614818 ], [ -80.2136902, 25.861556 ], [ -80.2136846, 25.8612265 ], [ -80.2135252, 25.861234 ], [ -80.2134777, 25.8598869 ], [ -80.2126642, 25.8599221 ], [ -80.2126753, 25.8607648 ], [ -80.2117248, 25.8607799 ], [ -80.2117053, 25.8599397 ], [ -80.2121833, 25.8599095 ], [ -80.2121386, 25.8590089 ], [ -80.2121554, 25.8589133 ], [ -80.2127145, 25.8589007 ], [ -80.2127033, 25.8585007 ], [ -80.2128682, 25.8584932 ], [ -80.2128375, 25.8580881 ], [ -80.2136091, 25.8580479 ], [ -80.2136175, 25.8581158 ], [ -80.2139222, 25.8580957 ], [ -80.2139166, 25.8580328 ], [ -80.2155688, 25.8579724 ], [ -80.2157058, 25.8579699 ] ] ] } },
{ "type": "Feature", "properties": { "facility_type": "hospital", "osm_id": 504000941 }, "geometry": { "type": "Polygon", "coordinates": [ [ [ -80.2682929, 25.8449962 ], [ -80.2703346, 25.844945 ], [ -80.2707895, 25.8449383 ], [ -80.2707969, 25.845321 ], [ -80.2708834, 25.8453232 ], [ -80.2708859, 25.8457236 ], [ -80.2701962, 25.8457459 ], [ -80.2702086, 25.8463599 ], [ -80.2683868, 25.8464155 ], [ -80.268372, 25.8459372 ], [ -80.2683299, 25.8458616 ], [ -80.2682434, 25.8458438 ], [ -80.2663796, 25.8460751 ], [ -80.2663524, 25.8453477 ], [ -80.2682929, 25.8449962 ] ] ] } },
{ "type": "Feature", "properties": { "facility_type": "hospital", "osm_id": 1086827228 }, "geometry": { "type": "Polygon", "coordinates": [ [ [ -80.3245018, 25.8007048 ], [ -80.3244949, 25.7998539 ], [ -80.3249274, 25.7998478 ], [ -80.324918, 25.7996559 ], [ -80.324481, 25.7996635 ], [ -80.324425, 25.7972545 ], [ -80.3238296, 25.7972764 ], [ -80.3236477, 25.7973397 ], [ -80.3236329, 25.7973859 ], [ -80.3236008, 25.7974357 ], [ -80.3235706, 25.7975023 ], [ -80.3235272, 25.797634 ], [ -80.3235024, 25.7977052 ], [ -80.3234714, 25.7977795 ], [ -80.3233832, 25.7978965 ], [ -80.3233363, 25.7980194 ], [ -80.3232553, 25.7981193 ], [ -80.3231742, 25.7982307 ], [ -80.3231145, 25.7983421 ], [ -80.3230292, 25.7984803 ], [ -80.3229055, 25.7986263 ], [ -80.322786, 25.7987223 ], [ -80.3226922, 25.798753 ], [ -80.322656, 25.7987561 ], [ -80.3226179, 25.7987646 ], [ -80.3225827, 25.7987839 ], [ -80.3225548, 25.7988107 ], [ -80.3225416, 25.7988391 ], [ -80.3225476, 25.798872 ], [ -80.3226248, 25.7989357 ], [ -80.322577, 25.7989873 ], [ -80.322432, 25.7990986 ], [ -80.3223466, 25.7991516 ], [ -80.3222613, 25.7991947 ], [ -80.3221972, 25.7992174 ], [ -80.3221325, 25.7992311 ], [ -80.3220628, 25.7992352 ], [ -80.3219903, 25.7992363 ], [ -80.3218305, 25.7992331 ], [ -80.3215703, 25.799187 ], [ -80.3215108, 25.8000732 ], [ -80.3214513, 25.8006986 ], [ -80.3235248, 25.8007031 ], [ -80.3245018, 25.8007048 ] ] ] } },
{ "type": "Feature", "properties": { "facility_type": "hospital", "osm_id": 1443107592 }, "geometry": { "type": "Polygon", "coordinates": [ [ [ -80.2944427, 25.7042363 ], [ -80.2935903, 25.7042769 ], [ -80.2935658, 25.7042836 ], [ -80.293549, 25.704294 ], [ -80.2935371, 25.7043069 ], [ -80.2935278, 25.7043201 ], [ -80.2935256, 25.704332 ], [ -80.2935247, 25.7043459 ], [ -80.2935707, 25.7052609 ], [ -80.2944909, 25.7052172 ], [ -80.2944427, 25.7042363 ] ] ] } },
{ "type": "Feature", "properties": { "facility_type": "aerodrome", "osm_id": 113657169 }, "geometry": { "type": "Polygon", "coordinates": [ [ [ -80.2890679, 25.80715 ], [ -80.2985468, 25.807121 ], [ -80.2989169, 25.8071114 ], [ -80.299153, 25.807092 ], [ -80.2993783, 25.8070631 ], [ -80.300419, 25.8069133 ], [ -80.3007998, 25.8068651 ], [ -80.3018727, 25.8068554 ], [ -80.3034342, 25.8068027 ], [ -80.3038905, 25.8067562 ], [ -80.3042157, 25.8067148 ], [ -80.3044543, 25.8067135 ], [ -80.3046385, 25.8066959 ], [ -80.3047515, 25.8066356 ], [ -80.3048408, 25.8065665 ], [ -80.304905, 25.8064698 ], [ -80.3049441, 25.8063605 ], [ -80.3049581, 25.806162 ], [ -80.3049358, 25.8057205 ], [ -80.3049036, 25.8042909 ], [ -80.3048822, 25.8034216 ], [ -80.3048822, 25.8032429 ], [ -80.3049251, 25.803016 ], [ -80.3049948, 25.8026924 ], [ -80.3051075, 25.8023543 ], [ -80.3052308, 25.8021032 ], [ -80.3053596, 25.801881 ], [ -80.3054937, 25.8016878 ], [ -80.3056332, 25.8015236 ], [ -80.3058638, 25.8012531 ], [ -80.3060677, 25.8010262 ], [ -80.3062554, 25.8007364 ], [ -80.3063788, 25.800408 ], [ -80.3064432, 25.8000892 ], [ -80.3064432, 25.7996932 ], [ -80.3064432, 25.7972058 ], [ -80.3064003, 25.7967905 ], [ -80.3077341, 25.7967774 ], [ -80.3077235, 25.7899151 ], [ -80.3076663, 25.7889949 ], [ -80.3091147, 25.7890046 ], [ -80.3095117, 25.7888886 ], [ -80.3097799, 25.78885 ], [ -80.3100588, 25.7888017 ], [ -80.3138171, 25.788777 ], [ -80.3159382, 25.7887631 ], [ -80.3166463, 25.7886954 ], [ -80.3172793, 25.7884926 ], [ -80.317848, 25.7881545 ], [ -80.3182449, 25.787797 ], [ -80.3186848, 25.7872271 ], [ -80.318953, 25.7865508 ], [ -80.3190281, 25.7859905 ], [ -80.3190067, 25.7856331 ], [ -80.3188457, 25.785295 ], [ -80.3186097, 25.7850051 ], [ -80.3183863, 25.7847433 ], [ -80.3180411, 25.7845994 ], [ -80.3177423, 25.7844696 ], [ -80.3172882, 25.784432 ], [ -80.3123537, 25.7844209 ], [ -80.3124192, 25.783856 ], [ -80.3115394, 25.783798 ], [ -80.3113148, 25.7837185 ], [ -80.3111532, 25.7835662 ], [ -80.3111102, 25.7829672 ], [ -80.3094795, 25.7835469 ], [ -80.3081705, 25.7841265 ], [ -80.3069856, 25.7845757 ], [ -80.3069893, 25.7848599 ], [ -80.3064472, 25.7849654 ], [ -80.3051841, 25.7849823 ], [ -80.3031822, 25.7849853 ], [ -80.2987997, 25.7850957 ], [ -80.2952422, 25.7852416 ], [ -80.2929382, 25.7853316 ], [ -80.2888328, 25.7857537 ], [ -80.2885558, 25.7857687 ], [ -80.2875521, 25.7858025 ], [ -80.2855658, 25.7858675 ], [ -80.284642, 25.7858508 ], [ -80.2837429, 25.7858788 ], [ -80.2796341, 25.7860107 ], [ -80.2791084, 25.785971 ], [ -80.2789552, 25.7859543 ], [ -80.2765594, 25.7855136 ], [ -80.2747957, 25.785179 ], [ -80.2743531, 25.785179 ], [ -80.2738822, 25.7852888 ], [ -80.2736006, 25.7853957 ], [ -80.273299, 25.7855697 ], [ -80.2730067, 25.7857973 ], [ -80.2718642, 25.7869281 ], [ -80.2703192, 25.7885703 ], [ -80.2678484, 25.7913023 ], [ -80.2667787, 25.7928981 ], [ -80.2660491, 25.7941152 ], [ -80.2653819, 25.7958426 ], [ -80.2652404, 25.7962945 ], [ -80.2651613, 25.7965713 ], [ -80.2651167, 25.7967478 ], [ -80.2650788, 25.7969379 ], [ -80.2650574, 25.7970804 ], [ -80.2650441, 25.79718 ], [ -80.2650319, 25.7973115 ], [ -80.2650108, 25.7974987 ], [ -80.2650124, 25.7976532 ], [ -80.2650171, 25.7984036 ], [ -80.2650803, 25.8009154 ], [ -80.2650686, 25.8010234 ], [ -80.2650578, 25.8011082 ], [ -80.2650363, 25.8012127 ], [ -80.2650236, 25.8012656 ], [ -80.2650736, 25.8017176 ], [ -80.2651918, 25.8018967 ], [ -80.265238, 25.8036751 ], [ -80.265341, 25.8053201 ], [ -80.2651265, 25.8061701 ], [ -80.2647402, 25.8069428 ], [ -80.2647351, 25.8080829 ], [ -80.2651479, 25.8081019 ], [ -80.2678945, 25.8080246 ], [ -80.269301, 25.8081141 ], [ -80.2751472, 25.8079473 ], [ -80.2783015, 25.8078507 ], [ -80.2806189, 25.8077541 ], [ -80.2833448, 25.8076168 ], [ -80.2857977, 25.8075828 ], [ -80.28667, 25.8075416 ], [ -80.2873995, 25.8075267 ], [ -80.2880593, 25.8074784 ], [ -80.2887353, 25.8074156 ], [ -80.2889391, 25.8074059 ], [ -80.2890303, 25.8073577 ], [ -80.2890679, 25.80715 ] ] ] } },
{ "type": "Feature", "properties": { "facility_type": "aerodrome", "osm_id": 438172916 }, "geometry": { "type": "Polygon", "coordinates": [ [ [ -80.2926073, 25.9145006 ], [ -80.258292, 25.91489 ], [ -80.2581324, 25.911194 ], [ -80.2580271, 25.8981816 ], [ -80.259918, 25.8981841 ], [ -80.2599046, 25.8972672 ], [ -80.2611224, 25.897202 ], [ -80.2622757, 25.8974964 ], [ -80.2628926, 25.8976219 ], [ -80.2637134, 25.897535 ], [ -80.2643195, 25.8973034 ], [ -80.2651081, 25.8973323 ], [ -80.2662937, 25.8975205 ], [ -80.2668462, 25.8978487 ], [ -80.2671466, 25.8981768 ], [ -80.267591, 25.8982987 ], [ -80.2679646, 25.898291 ], [ -80.275546, 25.89805 ], [ -80.2754787, 25.8966308 ], [ -80.2810471, 25.8965113 ], [ -80.281833, 25.8965922 ], [ -80.2837937, 25.8971351 ], [ -80.2859905, 25.8972467 ], [ -80.2875099, 25.8974397 ], [ -80.2894954, 25.8986147 ], [ -80.291151, 25.8989724 ], [ -80.2915909, 25.8989942 ], [ -80.291666, 25.899075 ], [ -80.2916761, 25.8996517 ], [ -80.291829, 25.8996471 ], [ -80.2919684, 25.9011913 ], [ -80.2926073, 25.9145006 ] ] ] } },
{ "type": "Feature", "properties": { "facility_type": "power_plant", "osm_id": 476755079 }, "geometry": { "type": "Polygon", "coordinates": [ [ [ -80.1527012, 25.74859 ], [ -80.152626, 25.7485563 ], [ -80.152546, 25.7485593 ], [ -80.1525454, 25.748439 ], [ -80.1526344, 25.7484398 ], [ -80.1526879, 25.7484147 ], [ -80.1530073, 25.748409 ], [ -80.1530072, 25.7484785 ], [ -80.153083, 25.7484778 ], [ -80.153083, 25.7485202 ], [ -80.1530082, 25.7485216 ], [ -80.1530071, 25.7485833 ], [ -80.1527012, 25.74859 ] ] ] } },
{ "type": "Feature", "properties": { "facility_type": "power_plant", "osm_id": 1035108143 }, "geometry": { "type": "Polygon", "coordinates": [ [ [ -80.3841341, 25.7924023 ], [ -80.3840998, 25.7912716 ], [ -80.3843351, 25.7912658 ], [ -80.3843325, 25.7911796 ], [ -80.3842493, 25.7911816 ], [ -80.3842476, 25.7911234 ], [ -80.3841944, 25.7911247 ], [ -80.384192, 25.7910423 ], [ -80.3841676, 25.7910428 ], [ -80.3841584, 25.7907107 ], [ -80.3839992, 25.7907143 ], [ -80.3839995, 25.7907278 ], [ -80.3839838, 25.7907282 ], [ -80.3839845, 25.790755 ], [ -80.3838875, 25.7907572 ], [ -80.3838867, 25.7907279 ], [ -80.3838536, 25.7907286 ], [ -80.3838511, 25.7906416 ], [ -80.3835084, 25.7906496 ], [ -80.383511, 25.7907402 ], [ -80.3834327, 25.7907421 ], [ -80.3834301, 25.7906533 ], [ -80.383276, 25.7906569 ], [ -80.3832857, 25.7909898 ], [ -80.3832672, 25.7909903 ], [ -80.3832689, 25.7910477 ], [ -80.3832348, 25.7910485 ], [ -80.3832362, 25.7910964 ], [ -80.3832608, 25.7910958 ], [ -80.3832612, 25.7911073 ], [ -80.3832814, 25.7911068 ], [ -80.3832825, 25.7911422 ], [ -80.3832516, 25.7911429 ], [ -80.3832533, 25.7911961 ], [ -80.3831749, 25.7911981 ], [ -80.3832038, 25.7921434 ], [ -80.383422, 25.792138 ], [ -80.3834305, 25.7924197 ], [ -80.3841341, 25.7924023 ] ] ] } },
{ "type": "Feature", "properties": { "facility_type": "power_plant", "osm_id": 1035111262 }, "geometry": { "type": "Polygon", "coordinates": [ [ [ -80.1973164, 25.7991084 ], [ -80.1973057, 25.7988521 ], [ -80.1969414, 25.7988644 ], [ -80.1969501, 25.799072 ], [ -80.1969981, 25.7991192 ], [ -80.1973164, 25.7991084 ] ] ] } },
{ "type": "Feature", "properties": { "facility_type": "fire_station", "osm_id": 278834543 }, "geometry": { "type": "Polygon", "coordinates": [ [ [ -80.2141179, 25.7804398 ], [ -80.2141477, 25.7809295 ], [ -80.2144362, 25.7809223 ], [ -80.2144132, 25.780429 ], [ -80.2141179, 25.7804398 ] ] ] } },
{ "type": "Feature", "properties": { "facility_type": "fire_station", "osm_id": 311357063 }, "geometry": { "type": "Polygon", "coordinates": [ [ [ -80.1913642, 25.7789404 ], [ -80.1913491, 25.7786391 ], [ -80.1909805, 25.7786493 ], [ -80.1909805, 25.7786629 ], [ -80.190949, 25.7786617 ], [ -80.1909553, 25.7787376 ], [ -80.1909327, 25.7787376 ], [ -80.1909415, 25.7789552 ], [ -80.1913642, 25.7789404 ] ] ] } },
{ "type": "Feature", "properties": { "facility_type": "fire_station", "osm_id": 435388475 }, "geometry": { "type": "Polygon", "coordinates": [ [ [ -80.2631199, 25.7790592 ], [ -80.2631185, 25.7789703 ], [ -80.2630861, 25.7789707 ], [ -80.2630844, 25.7788624 ], [ -80.2634176, 25.778858 ], [ -80.2634207, 25.7790553 ], [ -80.2631199, 25.7790592 ] ] ] } },
{ "type": "Feature", "properties": { "facility_type": "fire_station", "osm_id": 435517040 }, "geometry": { "type": "Polygon", "coordinates": [ [ [ -80.1607059, 25.7029223 ], [ -80.1607522, 25.7028296 ], [ -80.1607124, 25.7028132 ], [ -80.1607387, 25.7027606 ], [ -80.1607711, 25.7027739 ], [ -80.1608042, 25.7027077 ], [ -80.1610172, 25.7027952 ], [ -80.1609721, 25.7028852 ], [ -80.1609104, 25.7028599 ], [ -80.1608496, 25.7029814 ], [ -80.1607059, 25.7029223 ] ] ] } },
{ "type": "Feature", "properties": { "facility_type": "fire_station", "osm_id": 435565975 }, "geometry": { "type": "Polygon", "coordinates": [ [ [ -80.1936293, 25.8629805 ], [ -80.1936287, 25.8629644 ], [ -80.1936182, 25.8629647 ], [ -80.1936137, 25.8628418 ], [ -80.1935914, 25.8628425 ], [ -80.1935892, 25.8627811 ], [ -80.1935997, 25.8627808 ], [ -80.1935994, 25.8627711 ], [ -80.1936134, 25.8627707 ], [ -80.1936098, 25.8626743 ], [ -80.193777, 25.8626693 ], [ -80.193787, 25.8629419 ], [ -80.1937875, 25.8629554 ], [ -80.1936937, 25.8629582 ], [ -80.1936945, 25.8629786 ], [ -80.1936293, 25.8629805 ] ] ] } },
{ "type": "Feature", "properties": { "facility_type": "fire_station", "osm_id": 435578923 }, "geometry": { "type": "Polygon", "coordinates": [ [ [ -80.338783, 25.7912806 ], [ -80.3386796, 25.7911875 ], [ -80.3386134, 25.7912203 ], [ -80.3385502, 25.7911471 ], [ -80.3386361, 25.7910725 ], [ -80.3387403, 25.7910319 ], [ -80.3387313, 25.7910235 ], [ -80.3387695, 25.7909902 ], [ -80.3387826, 25.7910053 ], [ -80.3388656, 25.7909332 ], [ -80.3389817, 25.7910428 ], [ -80.3389417, 25.7910775 ], [ -80.3389735, 25.7911145 ], [ -80.3389493, 25.7911355 ], [ -80.338964, 25.7911525 ], [ -80.3389183, 25.7911923 ], [ -80.3388811, 25.7911641 ], [ -80.3388182, 25.7912321 ], [ -80.3388245, 25.7912445 ], [ -80.338783, 25.7912806 ] ] ] } },
{ "type": "Feature", "properties": { "facility_type": "fire_station", "osm_id": 436039527 }, "geometry": { "type": "Polygon", "coordinates": [ [ [ -80.1239205, 25.8540631 ], [ -80.1239408, 25.8537434 ], [ -80.1240065, 25.8537468 ], [ -80.1240075, 25.8537321 ], [ -80.1241782, 25.8537409 ], [ -80.124174, 25.8538072 ], [ -80.1242057, 25.8538088 ], [ -80.1241956, 25.8539684 ], [ -80.1241618, 25.8539666 ], [ -80.1241559, 25.8540603 ], [ -80.1239976, 25.8540521 ], [ -80.1239966, 25.854067 ], [ -80.1239205, 25.8540631 ] ] ] } },
{ "type": "Feature", "properties": { "facility_type": "fire_station", "osm_id": 436125077 }, "geometry": { "type": "Polygon", "coordinates": [ [ [ -80.2135099, 25.7804456 ], [ -80.2139277, 25.7804327 ], [ -80.2139349, 25.7806244 ], [ -80.2132617, 25.7806452 ], [ -80.2132577, 25.7805397 ], [ -80.2132865, 25.7805388 ], [ -80.2132839, 25.7804689 ], [ -80.2135105, 25.7804619 ], [ -80.2135099, 25.7804456 ] ] ] } },
{ "type": "Feature", "properties": { "facility_type": "fire_station", "osm_id": 550645447 }, "geometry": { "type": "Polygon", "coordinates": [ [ [ -80.3781227, 25.8412141 ], [ -80.3776965, 25.841215 ], [ -80.3776964, 25.8411564 ], [ -80.3777413, 25.8411563 ], [ -80.3777411, 25.8410789 ], [ -80.3778021, 25.8410787 ], [ -80.3778017, 25.8409266 ], [ -80.3778087, 25.8409266 ], [ -80.3778086, 25.8408785 ], [ -80.3780565, 25.840878 ], [ -80.3780566, 25.8409261 ], [ -80.3780608, 25.8409261 ], [ -80.3780612, 25.8410807 ], [ -80.3781223, 25.8410806 ], [ -80.3781227, 25.8412141 ] ] ] } },
{ "type": "Feature", "properties": { "facility_type": "fire_station", "osm_id": 637378101 }, "geometry": { "type": "Polygon", "coordinates": [ [ [ -80.2644893, 25.7245994 ], [ -80.2645205, 25.7245723 ], [ -80.2645469, 25.7246008 ], [ -80.2645644, 25.7245854 ], [ -80.2645215, 25.7245425 ], [ -80.264704, 25.7243957 ], [ -80.2647232, 25.7244136 ], [ -80.2647465, 25.7243924 ], [ -80.2646986, 25.7243451 ], [ -80.2646521, 25.7242984 ], [ -80.2648357, 25.7241499 ], [ -80.2648865, 25.7242009 ], [ -80.2649349, 25.7242494 ], [ -80.2649579, 25.7242308 ], [ -80.2649692, 25.7242421 ], [ -80.2649459, 25.7242609 ], [ -80.2649502, 25.7242651 ], [ -80.2649702, 25.7242489 ], [ -80.2650222, 25.7243011 ], [ -80.2650022, 25.7243173 ], [ -80.2650222, 25.7243373 ], [ -80.2648389, 25.7244858 ], [ -80.2647979, 25.7244421 ], [ -80.2647908, 25.7244469 ], [ -80.2648319, 25.72449 ], [ -80.2648131, 25.7245057 ], [ -80.2648188, 25.72451 ], [ -80.2646379, 25.7246552 ], [ -80.2646172, 25.7246322 ], [ -80.2645678, 25.7246729 ], [ -80.2644893, 25.7245994 ] ] ] } },
{ "type": "Feature", "properties": { "facility_type": "police", "osm_id": 255202019 }, "geometry": { "type": "Polygon", "coordinates": [ [ [ -80.1508127, 25.8484889 ], [ -80.1508066, 25.8482926 ], [ -80.1509343, 25.8482897 ], [ -80.1510004, 25.8482876 ], [ -80.1512612, 25.8482811 ], [ -80.1512673, 25.8484775 ], [ -80.1508127, 25.8484889 ] ] ] } },
{ "type": "Feature", "properties": { "facility_type": "police", "osm_id": 255449472 }, "geometry": { "type": "Polygon", "coordinates": [ [ [ -80.1448028, 25.793452 ], [ -80.1448538, 25.7933776 ], [ -80.1449386, 25.7934246 ], [ -80.1448877, 25.7934991 ], [ -80.1448028, 25.793452 ] ] ] } },
{ "type": "Feature", "properties": { "facility_type": "police", "osm_id": 396424891 }, "geometry": { "type": "Polygon", "coordinates": [ [ [ -80.2319455, 25.7722702 ], [ -80.2319497, 25.772402 ], [ -80.2315881, 25.7724114 ], [ -80.2315876, 25.7723953 ], [ -80.2315543, 25.7723966 ], [ -80.2315257, 25.7723926 ], [ -80.2315004, 25.7723782 ], [ -80.2314805, 25.7723563 ], [ -80.2314712, 25.7723309 ], [ -80.2314669, 25.7723016 ], [ -80.2314737, 25.7722679 ], [ -80.2314912, 25.7722482 ], [ -80.2315053, 25.7722346 ], [ -80.2314931, 25.7722228 ], [ -80.2316277, 25.7720954 ], [ -80.2317308, 25.7721847 ], [ -80.2316495, 25.7722604 ], [ -80.2316554, 25.7722778 ], [ -80.2319455, 25.7722702 ] ] ] } },
{ "type": "Feature", "properties": { "facility_type": "police", "osm_id": 435565588 }, "geometry": { "type": "Polygon", "coordinates": [ [ [ -80.1980653, 25.7784414 ], [ -80.1980519, 25.7780874 ], [ -80.1980344, 25.7780879 ], [ -80.1980297, 25.7779624 ], [ -80.1981342, 25.7779592 ], [ -80.1981364, 25.778018 ], [ -80.1982823, 25.7780136 ], [ -80.1984221, 25.7778819 ], [ -80.1984216, 25.7778691 ], [ -80.1984949, 25.7778667 ], [ -80.1984976, 25.7779367 ], [ -80.1985681, 25.7779344 ], [ -80.1985745, 25.7780966 ], [ -80.198679, 25.7780933 ], [ -80.1986785, 25.7780795 ], [ -80.198723, 25.7780781 ], [ -80.1987312, 25.7782937 ], [ -80.1986802, 25.7782952 ], [ -80.1986772, 25.7782165 ], [ -80.1985831, 25.7782194 ], [ -80.1985909, 25.7784252 ], [ -80.1980653, 25.7784414 ] ] ] } },
{ "type": "Feature", "properties": { "facility_type": "police", "osm_id": 435567527 }, "geometry": { "type": "Polygon", "coordinates": [ [ [ -80.1836754, 25.8893474 ], [ -80.1836386, 25.8893011 ], [ -80.1834263, 25.8893084 ], [ -80.1834086, 25.8889795 ], [ -80.1834081, 25.8889634 ], [ -80.1836524, 25.8891643 ], [ -80.1837045, 25.8891453 ], [ -80.1837559, 25.8891315 ], [ -80.1838087, 25.8891226 ], [ -80.1838623, 25.8891186 ], [ -80.1839159, 25.8891197 ], [ -80.1839692, 25.8891258 ], [ -80.1840215, 25.8891368 ], [ -80.1840723, 25.8891526 ], [ -80.184121, 25.8891731 ], [ -80.1841671, 25.8891981 ], [ -80.1841705, 25.8892791 ], [ -80.1838302, 25.8893018 ], [ -80.1837377, 25.8893079 ], [ -80.1837109, 25.8893097 ], [ -80.1836754, 25.8893474 ] ] ] } },
{ "type": "Feature", "properties": { "facility_type": "police", "osm_id": 435738801 }, "geometry": { "type": "Polygon", "coordinates": [ [ [ -80.2134662, 25.781294 ], [ -80.2134649, 25.7812491 ], [ -80.2133162, 25.7812528 ], [ -80.2132827, 25.7812219 ], [ -80.2132748, 25.7809783 ], [ -80.2137795, 25.7809598 ], [ -80.213769, 25.7806645 ], [ -80.2139372, 25.7806602 ], [ -80.2139501, 25.7809531 ], [ -80.2138829, 25.7809548 ], [ -80.2138875, 25.7810952 ], [ -80.2144502, 25.7810744 ], [ -80.2144611, 25.7814744 ], [ -80.2141517, 25.7814857 ], [ -80.2134662, 25.781294 ] ] ] } },
{ "type": "Feature", "properties": { "facility_type": "police", "osm_id": 435848303 }, "geometry": { "type": "Polygon", "coordinates": [ [ [ -80.3355343, 25.7151324 ], [ -80.3359271, 25.7151111 ], [ -80.3359167, 25.7149539 ], [ -80.3363967, 25.7149279 ], [ -80.3364033, 25.7150271 ], [ -80.336044, 25.7150466 ], [ -80.3360485, 25.7151139 ], [ -80.3363858, 25.7150956 ], [ -80.3364132, 25.7155097 ], [ -80.3355623, 25.7155559 ], [ -80.3355343, 25.7151324 ] ] ] } },
{ "type": "Feature", "properties": { "facility_type": "police", "osm_id": 435883259 }, "geometry": { "type": "Polygon", "coordinates": [ [ [ -80.2376298, 25.7720295 ], [ -80.2378581, 25.7720203 ], [ -80.2378683, 25.7722285 ], [ -80.2378127, 25.7722307 ], [ -80.2378149, 25.7722746 ], [ -80.2376422, 25.7722815 ], [ -80.2376298, 25.7720295 ] ] ] } },
{ "type": "Feature", "properties": { "facility_type": "police", "osm_id": 436033314 }, "geometry": { "type": "Polygon", "coordinates": [ [ [ -80.1987308, 25.7766761 ], [ -80.1987301, 25.7765501 ], [ -80.1988414, 25.7765513 ], [ -80.1988735, 25.7765117 ], [ -80.1988631, 25.7764873 ], [ -80.1988678, 25.7764626 ], [ -80.1988848, 25.7764439 ], [ -80.1989149, 25.7764346 ], [ -80.1989389, 25.776439 ], [ -80.1989497, 25.776445 ], [ -80.1990808, 25.7763179 ], [ -80.1992543, 25.7763149 ], [ -80.1992598, 25.7766613 ], [ -80.1987308, 25.7766761 ] ] ] } },
{ "type": "Feature", "properties": { "facility_type": "police", "osm_id": 466832029 }, "geometry": { "type": "Polygon", "coordinates": [ [ [ -80.1937002, 25.8668638 ], [ -80.1936935, 25.8666757 ], [ -80.1938591, 25.8666708 ], [ -80.1938637, 25.8667985 ], [ -80.1939377, 25.8667963 ], [ -80.1939421, 25.8669194 ], [ -80.1937363, 25.8669254 ], [ -80.1937355, 25.8669043 ], [ -80.1937219, 25.8669019 ], [ -80.1937082, 25.86689 ], [ -80.1937038, 25.8668815 ], [ -80.1937002, 25.8668638 ] ] ] } },
{ "type": "Feature", "properties": { "facility_type": "police", "osm_id": 884740791 }, "geometry": { "type": "Polygon", "coordinates": [ [ [ -80.1295036, 25.8772379 ], [ -80.1301174, 25.8772041 ], [ -80.1299912, 25.8777431 ], [ -80.129676, 25.877687 ], [ -80.1294876, 25.8776605 ], [ -80.1294621, 25.8776454 ], [ -80.12944, 25.8776213 ], [ -80.1294326, 25.8775941 ], [ -80.1295036, 25.8772379 ] ] ] } },
{ "type": "Feature", "properties": { "facility_type": "police", "osm_id": 1353850754 }, "geometry": { "type": "Polygon", "coordinates": [ [ [ -80.1300748, 25.885594 ], [ -80.1300657, 25.8854401 ], [ -80.1299938, 25.8854417 ], [ -80.1300016, 25.8855978 ], [ -80.1300748, 25.885594 ] ] ] } },
{ "type": "Feature", "properties": { "facility_type": "police", "osm_id": 1353850755 }, "geometry": { "type": "Polygon", "coordinates": [ [ [ -80.1301637, 25.8854025 ], [ -80.1301613, 25.8853372 ], [ -80.1299877, 25.8853432 ], [ -80.1299932, 25.8854096 ], [ -80.1301637, 25.8854025 ] ] ] } }
]
}
