{
"type": "FeatureCollection",
"name": "Laura_LakeCharles_buildings",
"crs": { "type": "name", "properties": { "name": "urn:ogc:def:crs:OGC:1.3:CRS84" } },
"features": [
{ "type": "Feature", "properties": { "facility_type": "hospital", "osm_id": 488779759 }, "geometry": { "type": "Polygon", "coordinates": [ [ [ -93.1961164, 30.2056437 ], [ -93.1985355, 30.2056493 ], [ -93.1985257, 30.2051578 ], [ -93.2000882, 30.2051804 ], [ -93.2000915, 30.2043469 ], [ -93.2000948, 30.2040588 ], [ -93.1985126, 30.2040814 ], [ -93.1984668, 30.2027987 ], [ -93.1975384, 30.2028016 ], [ -93.197545, 30.2034966 ], [ -93.1960707, 30.2035107 ], [ -93.1961164, 30.2056437 ] ] ] } },
{ "type": "Feature", "properties": { "facility_type": "hospital", "osm_id": 488779764 }, "geometry": { "type": "Polygon", "coordinates": [ [ [ -93.2495172, 30.1824971 ], [ -93.2500148, 30.1825474 ], [ -93.2513797, 30.1825625 ], [ -93.251371, 30.1814355 ], [ -93.2518483, 30.1814254 ], [ -93.2520316, 30.1813248 ], [ -93.25202, 30.1801877 ], [ -93.2513855, 30.1801701 ], [ -93.2513943, 30.1797726 ], [ -93.2494648, 30.1797826 ], [ -93.2494764, 30.1801726 ], [ -93.2495172, 30.1824971 ] ] ] } },
{ "type": "Feature", "properties": { "facility_type": "hospital", "osm_id": 488779797 }, "geometry": { "type": "Polygon", "coordinates": [ [ [ -93.2262181, 30.2148773 ], [ -93.2262123, 30.2158031 ], [ -93.2267509, 30.2156798 ], [ -93.2270536, 30.2171767 ], [ -93.2285005, 30.216837 ], [ -93.2281599, 30.215471 ], [ -93.2279299, 30.2155339 ], [ -93.227927, 30.2147943 ], [ -93.2271235, 30.2148194 ], [ -93.2271235, 30.2146584 ], [ -93.2262181, 30.2148773 ] ] ] } },
{ "type": "Feature", "properties": { "facility_type": "aerodrome", "osm_id": 888038230 }, "geometry": { "type": "Polygon", "coordinates": [ [ [ -93.1627804, 30.2272909 ], [ -93.1627884, 30.2271959 ], [ -93.1630915, 30.2271797 ], [ -93.1630996, 30.2268181 ], [ -93.1628716, 30.2267185 ], [ -93.1628421, 30.2258007 ], [ -93.1623834, 30.2258007 ], [ -93.1623995, 30.225949 ], [ -93.1621688, 30.225949 ], [ -93.1621635, 30.2273025 ], [ -93.1627804, 30.2272909 ] ] ] } },
{ "type": "Feature", "properties": { "facility_type": "power_plant", "osm_id": 492936824 }, "geometry": { "type": "Polygon", "coordinates": [ [ [ -93.2813796, 30.2244856 ], [ -93.2813931, 30.2254822 ], [ -93.2812324, 30.2254838 ], [ -93.281219, 30.2244872 ], [ -93.2813796, 30.2244856 ] ] ] } },
{ "type": "Feature", "properties": { "facility_type": "power_plant", "osm_id": 510819998 }, "geometry": { "type": "Polygon", "coordinates": [ [ [ -93.3026737, 30.2882172 ], [ -93.3026744, 30.2832091 ], [ -93.3026744, 30.2828952 ], [ -93.2971613, 30.2828981 ], [ -93.2957748, 30.2828928 ], [ -93.295774, 30.2830633 ], [ -93.2957737, 30.2831139 ], [ -93.2950486, 30.2831111 ], [ -93.2950558, 30.2817291 ], [ -93.29469, 30.2817277 ], [ -93.2946944, 30.2808811 ], [ -93.2939082, 30.2811806 ], [ -93.2926315, 30.2812409 ], [ -93.2915211, 30.2811575 ], [ -93.2896514, 30.2807542 ], [ -93.2893056, 30.2802252 ], [ -93.2877392, 30.280268 ], [ -93.2853305, 30.2821581 ], [ -93.2851777, 30.2836775 ], [ -93.2844696, 30.2838746 ], [ -93.2843703, 30.2839022 ], [ -93.284086, 30.2841871 ], [ -93.2840082, 30.2844882 ], [ -93.2840458, 30.2867117 ], [ -93.2842496, 30.2869132 ], [ -93.2848853, 30.2869549 ], [ -93.2849068, 30.2873324 ], [ -93.2873797, 30.2873417 ], [ -93.2873756, 30.2875475 ], [ -93.2873656, 30.2880524 ], [ -93.2877598, 30.2881157 ], [ -93.2880566, 30.2886422 ], [ -93.2873534, 30.2886703 ], [ -93.2873422, 30.2892362 ], [ -93.2886323, 30.2892385 ], [ -93.288635, 30.2895813 ], [ -93.288796, 30.2896994 ], [ -93.2896838, 30.2895489 ], [ -93.2904804, 30.2892131 ], [ -93.2946968, 30.2887846 ], [ -93.2973334, 30.288773 ], [ -93.2975748, 30.2888772 ], [ -93.300654, 30.2886827 ], [ -93.3026737, 30.2882172 ] ] ] } },
{ "type": "Feature", "properties": { "facility_type": "power_plant", "osm_id": 676362449 }, "geometry": { "type": "Polygon", "coordinates": [ [ [ -93.3463802, 30.1585128 ], [ -93.3442545, 30.1585251 ], [ -93.3442736, 30.1609809 ], [ -93.3463993, 30.1609686 ], [ -93.3463802, 30.1585128 ] ] ] } },
{ "type": "Feature", "properties": { "facility_type": "power_plant", "osm_id": 864868798 }, "geometry": { "type": "Polygon", "coordinates": [ [ [ -93.2914084, 30.2682783 ], [ -93.2914943, 30.2724804 ], [ -93.2913601, 30.272675 ], [ -93.2913977, 30.2736108 ], [ -93.2879537, 30.2736572 ], [ -93.2878733, 30.2703863 ], [ -93.2898822, 30.2703191 ], [ -93.2898232, 30.2683084 ], [ -93.2914084, 30.2682783 ] ] ] } },
{ "type": "Feature", "properties": { "facility_type": "power_plant", "osm_id": 1178437038 }, "geometry": { "type": "Polygon", "coordinates": [ [ [ -93.2803666, 30.2218994 ], [ -93.2803665, 30.2211681 ], [ -93.2810037, 30.2211682 ], [ -93.2810037, 30.2218994 ], [ -93.2803666, 30.2218994 ] ] ] } },
{ "type": "Feature", "properties": { "facility_type": "power_plant", "osm_id": 1178437039 }, "geometry": { "type": "Polygon", "coordinates": [ [ [ -93.2958031, 30.2249285 ], [ -93.2937421, 30.2249308 ], [ -93.2937442, 30.2262777 ], [ -93.2948595, 30.2262764 ], [ -93.2948588, 30.2258271 ], [ -93.2958044, 30.2258261 ], [ -93.2958031, 30.2249285 ] ] ] } },
{ "type": "Feature", "properties": { "facility_type": "power_plant", "osm_id": 1178437040 }, "geometry": { "type": "Polygon", "coordinates": [ [ [ -93.2936392, 30.2263834 ], [ -93.293637, 30.2265429 ], [ -93.2940961, 30.2265476 ], [ -93.2940983, 30.226388 ], [ -93.2936392, 30.2263834 ] ] ] } },
{ "type": "Feature", "properties": { "facility_type": "power_plant", "osm_id": 1178437043 }, "geometry": { "type": "Polygon", "coordinates": [ [ [ -93.2838783, 30.2219231 ], [ -93.2838675, 30.2208335 ], [ -93.2825539, 30.2208051 ], [ -93.2822625, 30.2209103 ], [ -93.2822634, 30.2217189 ], [ -93.2821835, 30.221719 ], [ -93.2821839, 30.2220262 ], [ -93.2828867, 30.2220255 ], [ -93.2828862, 30.2216877 ], [ -93.2830541, 30.2216875 ], [ -93.2835907, 30.2219178 ], [ -93.2838783, 30.2219231 ] ] ] } },
{ "type": "Feature", "properties": { "facility_type": "power_plant", "osm_id": 1178437062 }, "geometry": { "type": "Polygon", "coordinates": [ [ [ -93.3221981, 30.196419 ], [ -93.3221973, 30.1968018 ], [ -93.3216908, 30.196801 ], [ -93.3216917, 30.1964181 ], [ -93.3221981, 30.196419 ] ] ] } },
{ "type": "Feature", "properties": { "facility_type": "fire_station", "osm_id": 686206722 }, "geometry": { "type": "Polygon", "coordinates": [ [ [ -93.1707399, 30.2769673 ], [ -93.1703617, 30.2769754 ], [ -93.1701967, 30.2766291 ], [ -93.1702651, 30.2766106 ], [ -93.1707399, 30.2766059 ], [ -93.1707399, 30.2769673 ] ] ] } },
{ "type": "Feature", "properties": { "facility_type": "fire_station", "osm_id": 1417588270 }, "geometry": { "type": "Polygon", "coordinates": [ [ [ -93.3365391, 30.2285275 ], [ -93.3367342, 30.2285279 ], [ -93.3367341, 30.2285677 ], [ -93.3369156, 30.2285681 ], [ -93.3369164, 30.2283026 ], [ -93.3367349, 30.2283022 ], [ -93.3367348, 30.2283271 ], [ -93.3365396, 30.2283267 ], [ -93.3365391, 30.2285275 ] ] ] } },
{ "type": "Feature", "properties": { "facility_type": "police", "osm_id": 488796120 }, "geometry": { "type": "Polygon", "coordinates": [ [ [ -93.2050389, 30.2267669 ], [ -93.2046168, 30.2267669 ], [ -93.2046168, 30.2263999 ], [ -93.2050389, 30.2263999 ], [ -93.2050389, 30.2267669 ] ] ] } }
]
}
