{
"type": "FeatureCollection",
"name": "Maria_SanJuan_buildings",
"crs": { "type": "name", "properties": { "name": "urn:ogc:def:crs:OGC:1.3:CRS84" } },
"features": [
{ "type": "Feature", "properties": { "facility_type": "hospital", "osm_id": 55787520 }, "geometry": { "type": "Polygon", "coordinates": [ [ [ -66.0718789, 18.3992178 ], [ -66.0730744, 18.3993865 ], [ -66.0742507, 18.39943 ], [ -66.07526, 18.3990708 ], [ -66.0760224, 18.3988008 ], [ -66.076198, 18.3978608 ], [ -66.0761921, 18.3967995 ], [ -66.0761978, 18.3953556 ], [ -66.0762629, 18.392425 ], [ -66.075935, 18.3921944 ], [ -66.0756589, 18.3920364 ], [ -66.0753581, 18.3918896 ], [ -66.0729809, 18.3911361 ], [ -66.0727834, 18.3910896 ], [ -66.0726283, 18.3912367 ], [ -66.0724027, 18.3916386 ], [ -66.0718179, 18.3934553 ], [ -66.0712318, 18.3953179 ], [ -66.0712284, 18.3983523 ], [ -66.0714115, 18.3988057 ], [ -66.0714939, 18.3989043 ], [ -66.0716418, 18.399016 ], [ -66.0718789, 18.3992178 ] ] ] } },
{ "type": "Feature", "properties": { "facility_type": "hospital", "osm_id": 59576700 }, "geometry": { "type": "Polygon", "coordinates": [ [ [ -65.973698, 18.3888042 ], [ -65.9709494, 18.3904684 ], [ -65.9701575, 18.389354 ], [ -65.9706688, 18.3886429 ], [ -65.9708646, 18.3883833 ], [ -65.9714735, 18.3876655 ], [ -65.9716608, 18.3874192 ], [ -65.9717401, 18.387315 ], [ -65.9727971, 18.3881086 ], [ -65.9732294, 18.3884452 ], [ -65.973698, 18.3888042 ] ] ] } },
{ "type": "Feature", "properties": { "facility_type": "hospital", "osm_id": 59592670 }, "geometry": { "type": "Polygon", "coordinates": [ [ [ -66.0496504, 18.4113642 ], [ -66.0496396, 18.4110935 ], [ -66.049638, 18.4110572 ], [ -66.0496276, 18.4108155 ], [ -66.0495935, 18.4100261 ], [ -66.048857, 18.4100697 ], [ -66.0488308, 18.4082365 ], [ -66.0494696, 18.4082181 ], [ -66.0510819, 18.4082668 ], [ -66.0520611, 18.4082964 ], [ -66.0524896, 18.4083045 ], [ -66.0525737, 18.4083203 ], [ -66.0526913, 18.4083801 ], [ -66.0527951, 18.4084886 ], [ -66.0528584, 18.4086119 ], [ -66.0529326, 18.4087981 ], [ -66.0529489, 18.4088191 ], [ -66.0529801, 18.4088998 ], [ -66.0529706, 18.4089837 ], [ -66.0530281, 18.4091303 ], [ -66.0530287, 18.4091723 ], [ -66.0530561, 18.409235 ], [ -66.0531132, 18.409281 ], [ -66.0533948, 18.4099821 ], [ -66.0536678, 18.4106827 ], [ -66.0530097, 18.410831 ], [ -66.0525251, 18.4109221 ], [ -66.0525903, 18.4112078 ], [ -66.0521338, 18.4113059 ], [ -66.0520721, 18.4110124 ], [ -66.0517834, 18.4110633 ], [ -66.0503543, 18.4113879 ], [ -66.0496504, 18.4113642 ] ] ] } },
{ "type": "Feature", "properties": { "facility_type": "hospital", "osm_id": 194738491 }, "geometry": { "type": "Polygon", "coordinates": [ [ [ -66.1467118, 18.3986812 ], [ -66.1471101, 18.3988195 ], [ -66.1477156, 18.3990297 ], [ -66.1479037, 18.3985264 ], [ -66.14835, 18.3973321 ], [ -66.1474264, 18.3970166 ], [ -66.1473379, 18.3970535 ], [ -66.1472921, 18.3971727 ], [ -66.1467118, 18.3986812 ] ] ] } },
{ "type": "Feature", "properties": { "facility_type": "hospital", "osm_id": 261411289 }, "geometry": { "type": "Polygon", "coordinates": [ [ [ -66.1141031, 18.3612197 ], [ -66.1140669, 18.3610124 ], [ -66.1140407, 18.3609907 ], [ -66.1140074, 18.3609821 ], [ -66.1129258, 18.3612617 ], [ -66.1125749, 18.3613524 ], [ -66.1125806, 18.3613721 ], [ -66.112583, 18.3613831 ], [ -66.1127645, 18.3620711 ], [ -66.1127742, 18.3621077 ], [ -66.11279, 18.3621676 ], [ -66.1131389, 18.3620889 ], [ -66.1131193, 18.3620061 ], [ -66.1131546, 18.3621278 ], [ -66.1133877, 18.3621131 ], [ -66.1136596, 18.3616887 ], [ -66.1141862, 18.3612917 ], [ -66.1141031, 18.3612197 ] ] ] } },
{ "type": "Feature", "properties": { "facility_type": "hospital", "osm_id": 308741708 }, "geometry": { "type": "Polygon", "coordinates": [ [ [ -66.0979335, 18.3618861 ], [ -66.0981318, 18.3619634 ], [ -66.0988637, 18.3623648 ], [ -66.0984353, 18.3631584 ], [ -66.0982008, 18.3631014 ], [ -66.0982838, 18.3629006 ], [ -66.0979664, 18.362868 ], [ -66.0978172, 18.3627773 ], [ -66.0978141, 18.3628688 ], [ -66.0976063, 18.3628624 ], [ -66.0975479, 18.3628134 ], [ -66.0975204, 18.3628073 ], [ -66.0974836, 18.3628049 ], [ -66.0974356, 18.3628098 ], [ -66.0968965, 18.3631465 ], [ -66.0968717, 18.3631538 ], [ -66.0968502, 18.3631538 ], [ -66.0968202, 18.3631514 ], [ -66.0967748, 18.3630704 ], [ -66.0965769, 18.3627043 ], [ -66.0966274, 18.3626767 ], [ -66.0965871, 18.3626165 ], [ -66.0970834, 18.3623237 ], [ -66.0972393, 18.362229 ], [ -66.0979335, 18.3618861 ] ] ] } },
{ "type": "Feature", "properties": { "facility_type": "hospital", "osm_id": 333374803 }, "geometry": { "type": "Polygon", "coordinates": [ [ [ -66.0629804, 18.4463658 ], [ -66.0634614, 18.4464496 ], [ -66.0634162, 18.4466535 ], [ -66.0633823, 18.4467625 ], [ -66.0631116, 18.4476328 ], [ -66.0628552, 18.4475384 ], [ -66.0628143, 18.4475041 ], [ -66.062808, 18.4474613 ], [ -66.0629804, 18.4463658 ] ] ] } },
{ "type": "Feature", "properties": { "facility_type": "hospital", "osm_id": 336398983 }, "geometry": { "type": "Polygon", "coordinates": [ [ [ -66.0749052, 18.3889669 ], [ -66.0749743, 18.389289 ], [ -66.0751824, 18.3900962 ], [ -66.0753798, 18.3908618 ], [ -66.0755836, 18.391652 ], [ -66.0756028, 18.3916787 ], [ -66.0756243, 18.391694 ], [ -66.0756484, 18.3917106 ], [ -66.0756806, 18.3917214 ], [ -66.0757309, 18.3917239 ], [ -66.0757783, 18.391717 ], [ -66.0768732, 18.3913468 ], [ -66.0771438, 18.3913294 ], [ -66.078318, 18.3903769 ], [ -66.077944, 18.388491 ], [ -66.0774725, 18.388416 ], [ -66.0767787, 18.3884219 ], [ -66.0756145, 18.3886911 ], [ -66.075471, 18.3887228 ], [ -66.0750391, 18.3888378 ], [ -66.0749052, 18.3889669 ] ] ] } },
{ "type": "Feature", "properties": { "facility_type": "hospital", "osm_id": 336398987 }, "geometry": { "type": "Polygon", "coordinates": [ [ [ -66.0771438, 18.3913294 ], [ -66.0798143, 18.3931339 ], [ -66.0801402, 18.3923562 ], [ -66.0810165, 18.3909738 ], [ -66.081255, 18.3908329 ], [ -66.0816031, 18.3907613 ], [ -66.0815881, 18.3905451 ], [ -66.0815516, 18.3899709 ], [ -66.0815201, 18.3899377 ], [ -66.081192, 18.3898781 ], [ -66.0809144, 18.3897837 ], [ -66.0785804, 18.3886341 ], [ -66.077944, 18.388491 ], [ -66.078318, 18.3903769 ], [ -66.0771438, 18.3913294 ] ] ] } },
{ "type": "Feature", "properties": { "facility_type": "hospital", "osm_id": 365138908 }, "geometry": { "type": "Polygon", "coordinates": [ [ [ -66.0520969, 18.3968059 ], [ -66.0521053, 18.3967775 ], [ -66.0521017, 18.3967765 ], [ -66.0521144, 18.3967332 ], [ -66.0521172, 18.3967237 ], [ -66.0521345, 18.3967282 ], [ -66.0521443, 18.3966948 ], [ -66.0521749, 18.396703 ], [ -66.0521854, 18.3966672 ], [ -66.0522487, 18.396684 ], [ -66.0522322, 18.3967484 ], [ -66.0522277, 18.3967659 ], [ -66.0521971, 18.3967577 ], [ -66.0521816, 18.3968105 ], [ -66.0521438, 18.3968003 ], [ -66.0521388, 18.3968171 ], [ -66.0520969, 18.3968059 ] ] ] } },
{ "type": "Feature", "properties": { "facility_type": "hospital", "osm_id": 366580694 }, "geometry": { "type": "Polygon", "coordinates": [ [ [ -66.0558548, 18.419476 ], [ -66.0557994, 18.4192572 ], [ -66.0558116, 18.4192543 ], [ -66.0558088, 18.4192431 ], [ -66.055986, 18.4192015 ], [ -66.055989, 18.4192133 ], [ -66.056067, 18.419195 ], [ -66.0560961, 18.4193078 ], [ -66.0561231, 18.4194126 ], [ -66.0560447, 18.419431 ], [ -66.0560478, 18.419443 ], [ -66.0559373, 18.419469 ], [ -66.0558979, 18.4194756 ], [ -66.0558679, 18.4194827 ], [ -66.0558656, 18.4194734 ], [ -66.0558548, 18.419476 ] ] ] } },
{ "type": "Feature", "properties": { "facility_type": "hospital", "osm_id": 375708854 }, "geometry": { "type": "Polygon", "coordinates": [ [ [ -66.0694423, 18.4187128 ], [ -66.0694329, 18.4188279 ], [ -66.0693498, 18.4188978 ], [ -66.0693484, 18.4190359 ], [ -66.0693109, 18.4190353 ], [ -66.0692988, 18.4193966 ], [ -66.0694115, 18.4196371 ], [ -66.0696314, 18.4200796 ], [ -66.0696215, 18.4201492 ], [ -66.0695717, 18.4202757 ], [ -66.069535, 18.4203512 ], [ -66.0690017, 18.4206155 ], [ -66.0688805, 18.419976 ], [ -66.0688686, 18.4199131 ], [ -66.0688612, 18.4198744 ], [ -66.0688678, 18.4198566 ], [ -66.0689511, 18.418809 ], [ -66.0694423, 18.4187128 ] ] ] } },
{ "type": "Feature", "properties": { "facility_type": "hospital", "osm_id": 387047881 }, "geometry": { "type": "Polygon", "coordinates": [ [ [ -66.0678799, 18.4110392 ], [ -66.0691266, 18.4107724 ], [ -66.0692121, 18.4107837 ], [ -66.0693019, 18.4108319 ], [ -66.0693388, 18.4108801 ], [ -66.069367, 18.4109588 ], [ -66.0693671, 18.4111162 ], [ -66.0693606, 18.4113822 ], [ -66.0693733, 18.4114679 ], [ -66.0693272, 18.4123163 ], [ -66.0681969, 18.4125318 ], [ -66.0678799, 18.4110392 ] ] ] } },
{ "type": "Feature", "properties": { "facility_type": "hospital", "osm_id": 458520760 }, "geometry": { "type": "Polygon", "coordinates": [ [ [ -66.097317, 18.3899004 ], [ -66.0974135, 18.3898597 ], [ -66.097553, 18.3898342 ], [ -66.0982906, 18.3895822 ], [ -66.098701, 18.3894626 ], [ -66.09887, 18.3894142 ], [ -66.0990791, 18.3904935 ], [ -66.0991368, 18.3906564 ], [ -66.0991878, 18.3907734 ], [ -66.0992173, 18.3908459 ], [ -66.0976911, 18.3907899 ], [ -66.097317, 18.3899004 ] ] ] } },
{ "type": "Feature", "properties": { "facility_type": "hospital", "osm_id": 492408200 }, "geometry": { "type": "Polygon", "coordinates": [ [ [ -66.1484828, 18.4169137 ], [ -66.1471127, 18.4168923 ], [ -66.1470941, 18.4179736 ], [ -66.1474191, 18.4182715 ], [ -66.147681, 18.4182841 ], [ -66.1476523, 18.418824 ], [ -66.1484494, 18.4188405 ], [ -66.1484828, 18.4169137 ] ] ] } },
{ "type": "Feature", "properties": { "facility_type": "hospital", "osm_id": 530434594 }, "geometry": { "type": "Polygon", "coordinates": [ [ [ -66.0459141, 18.37347 ], [ -66.0456647, 18.372728 ], [ -66.0466665, 18.3718969 ], [ -66.0470742, 18.3723296 ], [ -66.0472016, 18.3724264 ], [ -66.047329, 18.3726478 ], [ -66.0472556, 18.3726994 ], [ -66.0459141, 18.37347 ] ] ] } },
{ "type": "Feature", "properties": { "facility_type": "hospital", "osm_id": 530434622 }, "geometry": { "type": "Polygon", "coordinates": [ [ [ -66.0650718, 18.4552167 ], [ -66.0657303, 18.4553143 ], [ -66.0656525, 18.4554059 ], [ -66.0656337, 18.4554466 ], [ -66.0656472, 18.4554861 ], [ -66.0656793, 18.4555179 ], [ -66.0660481, 18.4555637 ], [ -66.0659114, 18.4568065 ], [ -66.0657665, 18.4567862 ], [ -66.0656752, 18.4571818 ], [ -66.0652629, 18.4567779 ], [ -66.0650981, 18.4566104 ], [ -66.0652126, 18.4562824 ], [ -66.064821, 18.4561717 ], [ -66.064924, 18.4558403 ], [ -66.0649498, 18.4558092 ], [ -66.0650718, 18.4552167 ] ] ] } },
{ "type": "Feature", "properties": { "facility_type": "hospital", "osm_id": 585913572 }, "geometry": { "type": "Polygon", "coordinates": [ [ [ -66.152933, 18.3665962 ], [ -66.152974, 18.3669269 ], [ -66.1527969, 18.3672171 ], [ -66.1524965, 18.367431 ], [ -66.1523203, 18.3675455 ], [ -66.1537662, 18.3692196 ], [ -66.1548263, 18.3704269 ], [ -66.1560484, 18.3695661 ], [ -66.1556126, 18.3690155 ], [ -66.1555742, 18.3689504 ], [ -66.1555743, 18.3688814 ], [ -66.1558183, 18.3681895 ], [ -66.1558247, 18.3680157 ], [ -66.1554861, 18.3667198 ], [ -66.1548094, 18.3662721 ], [ -66.1546057, 18.3661373 ], [ -66.1544068, 18.3663272 ], [ -66.152933, 18.3665962 ] ] ] } },
{ "type": "Feature", "properties": { "facility_type": "hospital", "osm_id": 585939362 }, "geometry": { "type": "Polygon", "coordinates": [ [ [ -66.0395654, 18.3986047 ], [ -66.0391577, 18.3992207 ], [ -66.038927, 18.3995235 ], [ -66.0387661, 18.3997628 ], [ -66.038353, 18.3995184 ], [ -66.0383637, 18.3994764 ], [ -66.0381277, 18.3993428 ], [ -66.0381612, 18.3990985 ], [ -66.0383275, 18.3988007 ], [ -66.0380258, 18.3987167 ], [ -66.038121, 18.398438 ], [ -66.0395654, 18.3986047 ] ] ] } },
{ "type": "Feature", "properties": { "facility_type": "hospital", "osm_id": 608469301 }, "geometry": { "type": "Polygon", "coordinates": [ [ [ -66.1389755, 18.4281139 ], [ -66.1388876, 18.4280728 ], [ -66.1383691, 18.4278303 ], [ -66.1382881, 18.4278837 ], [ -66.1379788, 18.4285628 ], [ -66.1386046, 18.4288506 ], [ -66.1389755, 18.4281139 ] ] ] } },
{ "type": "Feature", "properties": { "facility_type": "hospital", "osm_id": 778606219 }, "geometry": { "type": "Polygon", "coordinates": [ [ [ -66.0433848, 18.4195938 ], [ -66.043327, 18.4192901 ], [ -66.0432572, 18.4192189 ], [ -66.0431633, 18.4191629 ], [ -66.0428254, 18.4190916 ], [ -66.0424949, 18.4197273 ], [ -66.0428408, 18.4196754 ], [ -66.0433848, 18.4195938 ] ] ] } },
{ "type": "Feature", "properties": { "facility_type": "hospital", "osm_id": 835130833 }, "geometry": { "type": "Polygon", "coordinates": [ [ [ -66.0465202, 18.3573685 ], [ -66.0465444, 18.3566022 ], [ -66.0458792, 18.3564291 ], [ -66.0457209, 18.3564036 ], [ -66.0455761, 18.3564164 ], [ -66.045391, 18.3564444 ], [ -66.044707, 18.3566633 ], [ -66.0445461, 18.3567473 ], [ -66.0445112, 18.3568491 ], [ -66.0463459, 18.3573914 ], [ -66.0464022, 18.3574016 ], [ -66.0464719, 18.3573914 ], [ -66.0465202, 18.3573685 ] ] ] } },
{ "type": "Feature", "properties": { "facility_type": "hospital", "osm_id": 952097685 }, "geometry": { "type": "Polygon", "coordinates": [ [ [ -66.1278525, 18.4417986 ], [ -66.1273019, 18.4415572 ], [ -66.1271703, 18.4415304 ], [ -66.1269955, 18.4420955 ], [ -66.1276095, 18.4424172 ], [ -66.1278525, 18.4417986 ] ] ] } },
{ "type": "Feature", "properties": { "facility_type": "hospital", "osm_id": 1077496878 }, "geometry": { "type": "Polygon", "coordinates": [ [ [ -66.0408057, 18.448856 ], [ -66.0411671, 18.4481139 ], [ -66.0406058, 18.447868 ], [ -66.0405783, 18.4478661 ], [ -66.0405568, 18.4478712 ], [ -66.0405421, 18.4478877 ], [ -66.0401998, 18.4485904 ], [ -66.0408057, 18.448856 ] ] ] } },
{ "type": "Feature", "properties": { "facility_type": "hospital", "osm_id": 1122950382 }, "geometry": { "type": "Polygon", "coordinates": [ [ [ -66.0802182, 18.4168121 ], [ -66.0800251, 18.4168885 ], [ -66.0797683, 18.4170397 ], [ -66.0793954, 18.4175448 ], [ -66.0796838, 18.417751 ], [ -66.0801475, 18.4174983 ], [ -66.080472, 18.4173259 ], [ -66.0802182, 18.4168121 ] ] ] } },
{ "type": "Feature", "properties": { "facility_type": "hospital", "osm_id": 1123235481 }, "geometry": { "type": "Polygon", "coordinates": [ [ [ -66.0146421, 18.3990055 ], [ -66.014684, 18.3990057 ], [ -66.0147719, 18.3990072 ], [ -66.0152711, 18.3990112 ], [ -66.0152717, 18.3989978 ], [ -66.0152801, 18.3988212 ], [ -66.0152993, 18.3984169 ], [ -66.0152805, 18.3984068 ], [ -66.0152443, 18.398394 ], [ -66.0146166, 18.3983851 ], [ -66.0146019, 18.3987465 ], [ -66.014618, 18.3987974 ], [ -66.0146234, 18.3988125 ], [ -66.0146421, 18.3988649 ], [ -66.0146448, 18.3989234 ], [ -66.0146427, 18.3989875 ], [ -66.0146421, 18.3990055 ] ] ] } },
{ "type": "Feature", "properties": { "facility_type": "hospital", "osm_id": 1340875157 }, "geometry": { "type": "Polygon", "coordinates": [ [ [ -66.0232618, 18.3851781 ], [ -66.023027, 18.3852624 ], [ -66.0226578, 18.3849568 ], [ -66.0219639, 18.3845696 ], [ -66.0216419, 18.3840375 ], [ -66.0216725, 18.3836977 ], [ -66.022619, 18.3836872 ], [ -66.0234878, 18.3849515 ], [ -66.0232618, 18.3851781 ] ] ] } },
{ "type": "Feature", "properties": { "facility_type": "hospital", "osm_id": 1340878748 }, "geometry": { "type": "Polygon", "coordinates": [ [ [ -66.1667419, 18.3983326 ], [ -66.1671103, 18.3982766 ], [ -66.1671425, 18.3979508 ], [ -66.1658604, 18.3976963 ], [ -66.1656798, 18.3982376 ], [ -66.1662698, 18.3983581 ], [ -66.1664272, 18.3982664 ], [ -66.1667419, 18.3983326 ] ] ] } },
{ "type": "Feature", "properties": { "facility_type": "aerodrome", "osm_id": 202157722 }, "geometry": { "type": "Polygon", "coordinates": [ [ [ -66.10644, 18.455715 ], [ -66.1066084, 18.456051 ], [ -66.1067268, 18.4568799 ], [ -66.1064215, 18.4575139 ], [ -66.1058609, 18.4583481 ], [ -66.1057485, 18.4586172 ], [ -66.105226, 18.4585221 ], [ -66.1053984, 18.4577824 ], [ -66.105394, 18.4577427 ], [ -66.1053569, 18.4577233 ], [ -66.1046174, 18.4578117 ], [ -66.1045332, 18.4577851 ], [ -66.1044947, 18.4577427 ], [ -66.1043886, 18.4577535 ], [ -66.1043728, 18.4576337 ], [ -66.1038451, 18.4577042 ], [ -66.1037132, 18.4577443 ], [ -66.1035161, 18.4578101 ], [ -66.1033342, 18.4578935 ], [ -66.1025467, 18.4579583 ], [ -66.1024758, 18.4579516 ], [ -66.1024334, 18.4579098 ], [ -66.1023603, 18.4573611 ], [ -66.0993398, 18.4576678 ], [ -66.0933847, 18.4584319 ], [ -66.089805, 18.4580062 ], [ -66.0897014, 18.4579093 ], [ -66.0896525, 18.4575853 ], [ -66.0896287, 18.4573405 ], [ -66.0897276, 18.4572816 ], [ -66.0936468, 18.4568142 ], [ -66.0950245, 18.4553676 ], [ -66.0958625, 18.4544539 ], [ -66.0960336, 18.4542634 ], [ -66.0963741, 18.4539197 ], [ -66.0965154, 18.4538103 ], [ -66.0966298, 18.453793 ], [ -66.0968207, 18.4538782 ], [ -66.0979649, 18.4548488 ], [ -66.0981659, 18.4549814 ], [ -66.0983646, 18.4550741 ], [ -66.0985358, 18.4551161 ], [ -66.0987144, 18.4551299 ], [ -66.1036961, 18.4545515 ], [ -66.1038881, 18.4545294 ], [ -66.1044901, 18.4544595 ], [ -66.1049586, 18.4543983 ], [ -66.1050912, 18.4544071 ], [ -66.1055002, 18.454442 ], [ -66.105835, 18.455077 ], [ -66.1061028, 18.4554346 ], [ -66.10644, 18.455715 ] ] ] } },
{ "type": "Feature", "properties": { "facility_type": "power_plant", "osm_id": 84567357 }, "geometry": { "type": "Polygon", "coordinates": [ [ [ -66.1483143, 18.4542411 ], [ -66.148502, 18.4542284 ], [ -66.1490572, 18.4542309 ], [ -66.1491069, 18.4542458 ], [ -66.1492772, 18.4542971 ], [ -66.1505271, 18.4543683 ], [ -66.150452, 18.455498 ], [ -66.1499263, 18.4558643 ], [ -66.1501493, 18.4561569 ], [ -66.1488193, 18.4571299 ], [ -66.1488082, 18.4571543 ], [ -66.1485265, 18.4574068 ], [ -66.1481453, 18.456994 ], [ -66.1476088, 18.457513 ], [ -66.1472226, 18.4571466 ], [ -66.1472977, 18.4570856 ], [ -66.1473084, 18.4566988 ], [ -66.1467934, 18.4566887 ], [ -66.147008, 18.4562307 ], [ -66.1468471, 18.4561351 ], [ -66.1481644, 18.454325 ], [ -66.1483143, 18.4542411 ] ] ] } },
{ "type": "Feature", "properties": { "facility_type": "power_plant", "osm_id": 448221263 }, "geometry": { "type": "Polygon", "coordinates": [ [ [ -66.1042348, 18.4289397 ], [ -66.1040852, 18.4287501 ], [ -66.1021876, 18.4267722 ], [ -66.1036896, 18.4249057 ], [ -66.1041214, 18.4243713 ], [ -66.1042985, 18.4243408 ], [ -66.1067648, 18.4269109 ], [ -66.1069552, 18.4273283 ], [ -66.1042348, 18.4289397 ] ] ] } },
{ "type": "Feature", "properties": { "facility_type": "power_plant", "osm_id": 1102156075 }, "geometry": { "type": "Polygon", "coordinates": [ [ [ -66.1339683, 18.4144836 ], [ -66.1341979, 18.4155478 ], [ -66.1349309, 18.4154055 ], [ -66.1347015, 18.4143413 ], [ -66.1339683, 18.4144836 ] ] ] } },
{ "type": "Feature", "properties": { "facility_type": "power_plant", "osm_id": 1150325802 }, "geometry": { "type": "Polygon", "coordinates": [ [ [ -66.1142916, 18.4092618 ], [ -66.1141424, 18.4092536 ], [ -66.1141762, 18.4091642 ], [ -66.1139558, 18.4091599 ], [ -66.1139632, 18.4091188 ], [ -66.1143278, 18.408596 ], [ -66.1144793, 18.4085916 ], [ -66.1145689, 18.4086018 ], [ -66.1146197, 18.4086035 ], [ -66.1146909, 18.4085799 ], [ -66.1147056, 18.4086562 ], [ -66.1147213, 18.4087054 ], [ -66.1142916, 18.4092618 ] ] ] } },
{ "type": "Feature", "properties": { "facility_type": "power_plant", "osm_id": 1155295445 }, "geometry": { "type": "Polygon", "coordinates": [ [ [ -66.1293902, 18.4150508 ], [ -66.1279601, 18.4150915 ], [ -66.1278662, 18.4152799 ], [ -66.1278475, 18.4153791 ], [ -66.1277724, 18.4161629 ], [ -66.1279977, 18.4161807 ], [ -66.1280004, 18.4161095 ], [ -66.1280835, 18.4161095 ], [ -66.1280835, 18.416168 ], [ -66.1283115, 18.4161426 ], [ -66.1285807, 18.4162178 ], [ -66.1296252, 18.4161039 ], [ -66.1294731, 18.4154658 ], [ -66.1294167, 18.4152302 ], [ -66.1293915, 18.4150923 ], [ -66.1293902, 18.4150508 ] ] ] } },
{ "type": "Feature", "properties": { "facility_type": "power_plant", "osm_id": 1155295483 }, "geometry": { "type": "Polygon", "coordinates": [ [ [ -66.1260602, 18.4166246 ], [ -66.1259918, 18.4165508 ], [ -66.1251603, 18.416477 ], [ -66.1250088, 18.4165012 ], [ -66.1249672, 18.4167773 ], [ -66.1260334, 18.4168905 ], [ -66.1260602, 18.4166246 ] ] ] } },
{ "type": "Feature", "properties": { "facility_type": "power_plant", "osm_id": 1155295536 }, "geometry": { "type": "Polygon", "coordinates": [ [ [ -66.1129626, 18.4115567 ], [ -66.1116054, 18.4114753 ], [ -66.111588, 18.4118417 ], [ -66.1130149, 18.4120059 ], [ -66.1130082, 18.4117998 ], [ -66.1129626, 18.4115567 ] ] ] } },
{ "type": "Feature", "properties": { "facility_type": "fire_station", "osm_id": 295319828 }, "geometry": { "type": "Polygon", "coordinates": [ [ [ -66.0924744, 18.4625517 ], [ -66.0924278, 18.4627579 ], [ -66.0921378, 18.4626989 ], [ -66.0921314, 18.4627273 ], [ -66.0918784, 18.4626759 ], [ -66.0919201, 18.4624913 ], [ -66.0919522, 18.4624979 ], [ -66.0919591, 18.4624675 ], [ -66.0921816, 18.4625127 ], [ -66.0921922, 18.4624656 ], [ -66.0922897, 18.4624855 ], [ -66.0922835, 18.4625129 ], [ -66.0924744, 18.4625517 ] ] ] } },
{ "type": "Feature", "properties": { "facility_type": "fire_station", "osm_id": 295380546 }, "geometry": { "type": "Polygon", "coordinates": [ [ [ -66.0927661, 18.4625567 ], [ -66.0925169, 18.4631153 ], [ -66.0918172, 18.4628497 ], [ -66.0919213, 18.462411 ], [ -66.0919588, 18.46239 ], [ -66.0927661, 18.4625567 ] ] ] } },
{ "type": "Feature", "properties": { "facility_type": "fire_station", "osm_id": 308579735 }, "geometry": { "type": "Polygon", "coordinates": [ [ [ -66.1158581, 18.3578041 ], [ -66.1158319, 18.3578352 ], [ -66.11586, 18.3578592 ], [ -66.1157785, 18.3579452 ], [ -66.1157096, 18.3578863 ], [ -66.1157301, 18.3578647 ], [ -66.1156484, 18.3577949 ], [ -66.115692, 18.357749 ], [ -66.1157024, 18.357738 ], [ -66.1157059, 18.357741 ], [ -66.1157337, 18.3577117 ], [ -66.1158581, 18.3578041 ] ] ] } },
{ "type": "Feature", "properties": { "facility_type": "fire_station", "osm_id": 338720498 }, "geometry": { "type": "Polygon", "coordinates": [ [ [ -66.1669272, 18.3923162 ], [ -66.16702, 18.3922126 ], [ -66.1671814, 18.3923443 ], [ -66.1670972, 18.3924388 ], [ -66.1669751, 18.3923392 ], [ -66.166967, 18.3923488 ], [ -66.1669272, 18.3923162 ] ] ] } },
{ "type": "Feature", "properties": { "facility_type": "fire_station", "osm_id": 365142354 }, "geometry": { "type": "Polygon", "coordinates": [ [ [ -66.0509953, 18.3958264 ], [ -66.0511567, 18.3958646 ], [ -66.0511322, 18.3959587 ], [ -66.0510551, 18.3959405 ], [ -66.0510593, 18.3959243 ], [ -66.050975, 18.3959044 ], [ -66.0509953, 18.3958264 ] ] ] } },
{ "type": "Feature", "properties": { "facility_type": "fire_station", "osm_id": 366007553 }, "geometry": { "type": "Polygon", "coordinates": [ [ [ -66.0525921, 18.4401497 ], [ -66.0527001, 18.4401777 ], [ -66.0526675, 18.4403212 ], [ -66.0525404, 18.4402982 ], [ -66.0525589, 18.4402465 ], [ -66.0525527, 18.4402448 ], [ -66.0525687, 18.4401946 ], [ -66.0525748, 18.4401964 ], [ -66.0525921, 18.4401497 ] ] ] } },
{ "type": "Feature", "properties": { "facility_type": "fire_station", "osm_id": 366577125 }, "geometry": { "type": "Polygon", "coordinates": [ [ [ -66.0570928, 18.416116 ], [ -66.0570936, 18.4161457 ], [ -66.0571214, 18.416145 ], [ -66.0571223, 18.4161776 ], [ -66.0572222, 18.4161753 ], [ -66.0572256, 18.4163073 ], [ -66.0569924, 18.4163127 ], [ -66.0569891, 18.4161826 ], [ -66.0570336, 18.4161816 ], [ -66.0570334, 18.4161744 ], [ -66.0570319, 18.4161174 ], [ -66.0570928, 18.416116 ] ] ] } },
{ "type": "Feature", "properties": { "facility_type": "fire_station", "osm_id": 366578807 }, "geometry": { "type": "Polygon", "coordinates": [ [ [ -66.0854837, 18.4129794 ], [ -66.0854848, 18.4129935 ], [ -66.085538, 18.4129899 ], [ -66.0855437, 18.4130655 ], [ -66.0854744, 18.4130701 ], [ -66.0854766, 18.4130993 ], [ -66.085357, 18.4131073 ], [ -66.0853545, 18.4130731 ], [ -66.0853514, 18.4130329 ], [ -66.0854353, 18.4130272 ], [ -66.0854331, 18.4129984 ], [ -66.0854586, 18.4129967 ], [ -66.0854575, 18.4129812 ], [ -66.0854837, 18.4129794 ] ] ] } },
{ "type": "Feature", "properties": { "facility_type": "fire_station", "osm_id": 366590886 }, "geometry": { "type": "Polygon", "coordinates": [ [ [ -66.0424566, 18.4191067 ], [ -66.0425396, 18.4191259 ], [ -66.0425443, 18.4191072 ], [ -66.0426241, 18.4191257 ], [ -66.0425956, 18.4192383 ], [ -66.0425158, 18.4192197 ], [ -66.04252, 18.4192035 ], [ -66.0424369, 18.4191842 ], [ -66.0424566, 18.4191067 ] ] ] } },
{ "type": "Feature", "properties": { "facility_type": "fire_station", "osm_id": 528927188 }, "geometry": { "type": "Polygon", "coordinates": [ [ [ -65.9978823, 18.4378416 ], [ -65.9977766, 18.4376079 ], [ -65.9978756, 18.4375676 ], [ -65.9978245, 18.4374547 ], [ -65.9977902, 18.4374687 ], [ -65.9977316, 18.4373391 ], [ -65.9979862, 18.4372355 ], [ -65.9980167, 18.4373029 ], [ -65.9981714, 18.4372399 ], [ -65.9982651, 18.4374472 ], [ -65.9981616, 18.4374894 ], [ -65.9982116, 18.4375999 ], [ -65.9981773, 18.4376139 ], [ -65.9982184, 18.4377048 ], [ -65.9978823, 18.4378416 ] ] ] } },
{ "type": "Feature", "properties": { "facility_type": "fire_station", "osm_id": 535083126 }, "geometry": { "type": "Polygon", "coordinates": [ [ [ -66.1268433, 18.4409208 ], [ -66.1267501, 18.440883 ], [ -66.1267367, 18.440907 ], [ -66.1266467, 18.440869 ], [ -66.1266583, 18.4408402 ], [ -66.1266413, 18.4408321 ], [ -66.1266968, 18.4407269 ], [ -66.1268975, 18.440816 ], [ -66.1268433, 18.4409208 ] ] ] } },
{ "type": "Feature", "properties": { "facility_type": "fire_station", "osm_id": 669355515 }, "geometry": { "type": "Polygon", "coordinates": [ [ [ -66.0250957, 18.4416689 ], [ -66.0249679, 18.4418468 ], [ -66.0251011, 18.441933 ], [ -66.0252289, 18.4417551 ], [ -66.0250957, 18.4416689 ] ] ] } },
{ "type": "Feature", "properties": { "facility_type": "police", "osm_id": 72746868 }, "geometry": { "type": "Polygon", "coordinates": [ [ [ -66.0516601, 18.3972066 ], [ -66.0517995, 18.3972456 ], [ -66.0517329, 18.3974597 ], [ -66.0515935, 18.3974207 ], [ -66.0516601, 18.3972066 ] ] ] } },
{ "type": "Feature", "properties": { "facility_type": "police", "osm_id": 295176739 }, "geometry": { "type": "Polygon", "coordinates": [ [ [ -66.09719, 18.4624364 ], [ -66.0971504, 18.462666 ], [ -66.0970721, 18.462666 ], [ -66.097071, 18.4627353 ], [ -66.096414, 18.4627312 ], [ -66.096415, 18.4627191 ], [ -66.0963413, 18.4627194 ], [ -66.0963398, 18.4624355 ], [ -66.09719, 18.4624364 ] ] ] } },
{ "type": "Feature", "properties": { "facility_type": "police", "osm_id": 308623265 }, "geometry": { "type": "Polygon", "coordinates": [ [ [ -66.1121274, 18.3622571 ], [ -66.1119641, 18.3622975 ], [ -66.1118899, 18.3623156 ], [ -66.1118534, 18.3621692 ], [ -66.1120183, 18.3621299 ], [ -66.1120885, 18.3621136 ], [ -66.1121075, 18.3621837 ], [ -66.1121274, 18.3622571 ] ] ] } },
{ "type": "Feature", "properties": { "facility_type": "police", "osm_id": 308742147 }, "geometry": { "type": "Polygon", "coordinates": [ [ [ -66.0977389, 18.3610336 ], [ -66.097786, 18.3607983 ], [ -66.0976704, 18.3607775 ], [ -66.0976605, 18.3608267 ], [ -66.0976128, 18.3608181 ], [ -66.0975755, 18.3610041 ], [ -66.0977389, 18.3610336 ] ] ] } },
{ "type": "Feature", "properties": { "facility_type": "police", "osm_id": 314666250 }, "geometry": { "type": "Polygon", "coordinates": [ [ [ -66.081569, 18.4485362 ], [ -66.0815822, 18.448497 ], [ -66.0815666, 18.4484924 ], [ -66.0815872, 18.4484309 ], [ -66.0816021, 18.4484354 ], [ -66.0816158, 18.4483944 ], [ -66.0815917, 18.4483872 ], [ -66.0816127, 18.4483248 ], [ -66.0816376, 18.4483323 ], [ -66.0816518, 18.4482899 ], [ -66.0817697, 18.4483255 ], [ -66.0817586, 18.4483585 ], [ -66.0818544, 18.4483874 ], [ -66.0818568, 18.4483803 ], [ -66.0819213, 18.4483998 ], [ -66.0819125, 18.4484258 ], [ -66.0819272, 18.4484302 ], [ -66.0819018, 18.448506 ], [ -66.0818933, 18.4485034 ], [ -66.0818784, 18.4485479 ], [ -66.0818677, 18.4485447 ], [ -66.0818532, 18.448588 ], [ -66.0818244, 18.4485793 ], [ -66.0818141, 18.4486102 ], [ -66.081569, 18.4485362 ] ] ] } },
{ "type": "Feature", "properties": { "facility_type": "police", "osm_id": 337496520 }, "geometry": { "type": "Polygon", "coordinates": [ [ [ -66.14495, 18.4181442 ], [ -66.1450182, 18.4179868 ], [ -66.1451103, 18.418023 ], [ -66.1451314, 18.4179805 ], [ -66.1451885, 18.4180018 ], [ -66.1451701, 18.4180478 ], [ -66.1452649, 18.4180822 ], [ -66.1451967, 18.4182422 ], [ -66.1451272, 18.4182165 ], [ -66.1450985, 18.4182855 ], [ -66.1450813, 18.4182777 ], [ -66.145057, 18.4183371 ], [ -66.1449767, 18.4183066 ], [ -66.1450021, 18.4182506 ], [ -66.1449865, 18.4182411 ], [ -66.1450152, 18.4181725 ], [ -66.14495, 18.4181442 ] ] ] } },
{ "type": "Feature", "properties": { "facility_type": "police", "osm_id": 337496543 }, "geometry": { "type": "Polygon", "coordinates": [ [ [ -66.1473081, 18.4155807 ], [ -66.1473103, 18.4155083 ], [ -66.1473405, 18.4155092 ], [ -66.1473468, 18.4153 ], [ -66.1473559, 18.4153005 ], [ -66.1473571, 18.4152631 ], [ -66.1473479, 18.4152631 ], [ -66.1473508, 18.4151646 ], [ -66.1473664, 18.4151651 ], [ -66.147367, 18.4151481 ], [ -66.14759, 18.4151546 ], [ -66.1475906, 18.4151346 ], [ -66.1476666, 18.4151364 ], [ -66.147666, 18.415156 ], [ -66.1477415, 18.4151583 ], [ -66.1477409, 18.4151778 ], [ -66.1477495, 18.4151778 ], [ -66.1477347, 18.4156617 ], [ -66.1477234, 18.4156617 ], [ -66.1477234, 18.4156742 ], [ -66.1473602, 18.4156641 ], [ -66.1473602, 18.4156511 ], [ -66.1473451, 18.4156511 ], [ -66.147336, 18.4156507 ], [ -66.1473382, 18.4155817 ], [ -66.1473081, 18.4155807 ] ] ] } },
{ "type": "Feature", "properties": { "facility_type": "police", "osm_id": 338716630 }, "geometry": { "type": "Polygon", "coordinates": [ [ [ -66.1556173, 18.3993658 ], [ -66.155716, 18.3993551 ], [ -66.1558054, 18.3993479 ], [ -66.155831, 18.3995489 ], [ -66.1556488, 18.3995686 ], [ -66.1556281, 18.3994006 ], [ -66.1556216, 18.3994014 ], [ -66.1556173, 18.3993658 ] ] ] } },
{ "type": "Feature", "properties": { "facility_type": "police", "osm_id": 338720288 }, "geometry": { "type": "Polygon", "coordinates": [ [ [ -66.1499917, 18.3939041 ], [ -66.1499923, 18.3938764 ], [ -66.1500004, 18.3938768 ], [ -66.1500166, 18.3935336 ], [ -66.1500232, 18.3934298 ], [ -66.1501046, 18.3934339 ], [ -66.1500994, 18.3936365 ], [ -66.1501878, 18.3936406 ], [ -66.1502076, 18.3936736 ], [ -66.1502469, 18.393691 ], [ -66.1502296, 18.3937257 ], [ -66.1502759, 18.3937488 ], [ -66.1502786, 18.3937436 ], [ -66.1503034, 18.3937562 ], [ -66.1503007, 18.3937614 ], [ -66.1503066, 18.3937644 ], [ -66.1502002, 18.3939591 ], [ -66.150078, 18.3938982 ], [ -66.1500898, 18.3938817 ], [ -66.1500139, 18.3938794 ], [ -66.1500133, 18.393905 ], [ -66.1499917, 18.3939041 ] ] ] } },
{ "type": "Feature", "properties": { "facility_type": "police", "osm_id": 339934072 }, "geometry": { "type": "Polygon", "coordinates": [ [ [ -66.1496431, 18.3633623 ], [ -66.1496788, 18.3633202 ], [ -66.1497272, 18.363358 ], [ -66.1497428, 18.3633394 ], [ -66.1497251, 18.3633251 ], [ -66.1497607, 18.363283 ], [ -66.1497779, 18.3632961 ], [ -66.1497903, 18.3632818 ], [ -66.149764, 18.3632613 ], [ -66.1497704, 18.3632535 ], [ -66.1497629, 18.3632479 ], [ -66.1498169, 18.3631846 ], [ -66.1498233, 18.3631894 ], [ -66.1498287, 18.3631829 ], [ -66.1500633, 18.3633642 ], [ -66.1500574, 18.3633707 ], [ -66.1500649, 18.3633763 ], [ -66.1500185, 18.363431 ], [ -66.150032, 18.3634414 ], [ -66.1500568, 18.3634119 ], [ -66.1500848, 18.3634332 ], [ -66.150047, 18.3634779 ], [ -66.1499975, 18.3634396 ], [ -66.1499932, 18.3634444 ], [ -66.1500109, 18.3634583 ], [ -66.1499537, 18.3635263 ], [ -66.1499338, 18.3635111 ], [ -66.1499284, 18.363518 ], [ -66.1499359, 18.3635241 ], [ -66.1498755, 18.3635957 ], [ -66.1496651, 18.3634335 ], [ -66.1496727, 18.3634248 ], [ -66.1496635, 18.3634178 ], [ -66.1497083, 18.363365 ], [ -66.1496959, 18.3633554 ], [ -66.1496716, 18.3633844 ], [ -66.1496431, 18.3633623 ] ] ] } },
{ "type": "Feature", "properties": { "facility_type": "police", "osm_id": 365415153 }, "geometry": { "type": "Polygon", "coordinates": [ [ [ -66.0725078, 18.3848349 ], [ -66.0725696, 18.384855 ], [ -66.0725666, 18.3848682 ], [ -66.0726941, 18.3848949 ], [ -66.0726848, 18.3849357 ], [ -66.0726514, 18.3849287 ], [ -66.0726315, 18.3850156 ], [ -66.0726583, 18.3850212 ], [ -66.072634, 18.3851275 ], [ -66.072625, 18.3851256 ], [ -66.0726222, 18.3851379 ], [ -66.072592, 18.3851316 ], [ -66.0725945, 18.3851209 ], [ -66.072514, 18.3851041 ], [ -66.0725295, 18.3850359 ], [ -66.0724951, 18.3850287 ], [ -66.072518, 18.3849283 ], [ -66.0724879, 18.384922 ], [ -66.0725078, 18.3848349 ] ] ] } },
{ "type": "Feature", "properties": { "facility_type": "police", "osm_id": 365415701 }, "geometry": { "type": "Polygon", "coordinates": [ [ [ -66.079698, 18.3849346 ], [ -66.0799813, 18.3850635 ], [ -66.0799683, 18.3850895 ], [ -66.0803042, 18.3852422 ], [ -66.0801237, 18.3856042 ], [ -66.0801428, 18.3856129 ], [ -66.0801824, 18.3856033 ], [ -66.0802063, 18.3856131 ], [ -66.0802297, 18.3856683 ], [ -66.0801731, 18.3856869 ], [ -66.080149, 18.3856768 ], [ -66.0801316, 18.3856447 ], [ -66.0801087, 18.3856341 ], [ -66.079965, 18.3859221 ], [ -66.0796385, 18.3857736 ], [ -66.079679, 18.3856925 ], [ -66.0796566, 18.3856825 ], [ -66.0796934, 18.3856072 ], [ -66.0797177, 18.3856149 ], [ -66.0798916, 18.3852662 ], [ -66.079599, 18.3851332 ], [ -66.079698, 18.3849346 ] ] ] } },
{ "type": "Feature", "properties": { "facility_type": "police", "osm_id": 365416505 }, "geometry": { "type": "Polygon", "coordinates": [ [ [ -66.0914665, 18.4003925 ], [ -66.0914854, 18.4004455 ], [ -66.0915001, 18.4004865 ], [ -66.0915069, 18.4005053 ], [ -66.0914039, 18.4005385 ], [ -66.0914026, 18.4005348 ], [ -66.0913726, 18.4005445 ], [ -66.091369, 18.4005457 ], [ -66.0913631, 18.4005292 ], [ -66.0913325, 18.4004438 ], [ -66.0913642, 18.4004336 ], [ -66.0913616, 18.4004263 ], [ -66.0913665, 18.4004248 ], [ -66.0914665, 18.4003925 ] ] ] } },
{ "type": "Feature", "properties": { "facility_type": "police", "osm_id": 366005892 }, "geometry": { "type": "Polygon", "coordinates": [ [ [ -66.0415338, 18.436613 ], [ -66.0415442, 18.4366162 ], [ -66.041573, 18.4366248 ], [ -66.0415805, 18.4366023 ], [ -66.0416101, 18.4366111 ], [ -66.0416431, 18.436621 ], [ -66.0416456, 18.4366218 ], [ -66.041626, 18.4366809 ], [ -66.0415978, 18.4366724 ], [ -66.041591, 18.4366927 ], [ -66.0416239, 18.4367026 ], [ -66.0415873, 18.4368127 ], [ -66.041463, 18.4367755 ], [ -66.0414832, 18.4367148 ], [ -66.0415147, 18.4367242 ], [ -66.0415149, 18.4367236 ], [ -66.0415398, 18.4366485 ], [ -66.0415237, 18.4366437 ], [ -66.0415338, 18.436613 ] ] ] } },
{ "type": "Feature", "properties": { "facility_type": "police", "osm_id": 366006359 }, "geometry": { "type": "Polygon", "coordinates": [ [ [ -66.0514042, 18.4407337 ], [ -66.0515023, 18.4407743 ], [ -66.0514872, 18.4408077 ], [ -66.051425, 18.4409449 ], [ -66.0513268, 18.4409043 ], [ -66.0514042, 18.4407337 ] ] ] } },
{ "type": "Feature", "properties": { "facility_type": "police", "osm_id": 366007926 }, "geometry": { "type": "Polygon", "coordinates": [ [ [ -66.0416959, 18.4367205 ], [ -66.041754, 18.4367392 ], [ -66.041736, 18.4367894 ], [ -66.0417468, 18.4367929 ], [ -66.0416799, 18.4369797 ], [ -66.0416702, 18.4369761 ], [ -66.0416035, 18.4369559 ], [ -66.0416693, 18.4367711 ], [ -66.0416769, 18.4367736 ], [ -66.0416874, 18.4367442 ], [ -66.0416959, 18.4367205 ] ] ] } },
{ "type": "Feature", "properties": { "facility_type": "police", "osm_id": 366578397 }, "geometry": { "type": "Polygon", "coordinates": [ [ [ -66.0781347, 18.4173488 ], [ -66.0781274, 18.4173344 ], [ -66.0779674, 18.4174099 ], [ -66.0779675, 18.4174124 ], [ -66.0776864, 18.4175317 ], [ -66.0775319, 18.4172354 ], [ -66.077504, 18.4172473 ], [ -66.0774642, 18.4171709 ], [ -66.0780471, 18.4168941 ], [ -66.0782587, 18.4173001 ], [ -66.0782421, 18.4173079 ], [ -66.0781347, 18.4173488 ] ] ] } },
{ "type": "Feature", "properties": { "facility_type": "police", "osm_id": 366579035 }, "geometry": { "type": "Polygon", "coordinates": [ [ [ -66.0500567, 18.4138227 ], [ -66.0502316, 18.413822 ], [ -66.0502324, 18.4139997 ], [ -66.0501493, 18.414 ], [ -66.0501492, 18.4139811 ], [ -66.0500574, 18.4139815 ], [ -66.0500567, 18.4138227 ] ] ] } },
{ "type": "Feature", "properties": { "facility_type": "police", "osm_id": 422982417 }, "geometry": { "type": "Polygon", "coordinates": [ [ [ -66.0237276, 18.3673511 ], [ -66.0229369, 18.3676284 ], [ -66.0227994, 18.3673511 ], [ -66.0235943, 18.3670289 ], [ -66.0237276, 18.3673511 ] ] ] } },
{ "type": "Feature", "properties": { "facility_type": "police", "osm_id": 479518889 }, "geometry": { "type": "Polygon", "coordinates": [ [ [ -66.0611804, 18.4190964 ], [ -66.0612333, 18.4190836 ], [ -66.0612352, 18.4190911 ], [ -66.0612698, 18.4190832 ], [ -66.0612731, 18.4190962 ], [ -66.061279, 18.4190948 ], [ -66.0612872, 18.4191272 ], [ -66.0612798, 18.4191289 ], [ -66.0612832, 18.4191422 ], [ -66.0613014, 18.419138 ], [ -66.0613196, 18.4192101 ], [ -66.0613081, 18.4192127 ], [ -66.0613114, 18.4192259 ], [ -66.0613337, 18.4192208 ], [ -66.0613452, 18.4192693 ], [ -66.061347, 18.4192761 ], [ -66.0613271, 18.4192806 ], [ -66.0613321, 18.4193005 ], [ -66.0613488, 18.4192967 ], [ -66.061361, 18.4193449 ], [ -66.061313, 18.4193558 ], [ -66.0612937, 18.4193602 ], [ -66.0612904, 18.4193471 ], [ -66.0612484, 18.4193566 ], [ -66.0612366, 18.419308 ], [ -66.0612331, 18.4192938 ], [ -66.061192, 18.4193035 ], [ -66.0611816, 18.4192612 ], [ -66.0611718, 18.4192217 ], [ -66.0611653, 18.4192232 ], [ -66.0611558, 18.4191853 ], [ -66.0611635, 18.4191836 ], [ -66.0611588, 18.4191638 ], [ -66.0611948, 18.4191559 ], [ -66.0611804, 18.4190964 ] ] ] } },
{ "type": "Feature", "properties": { "facility_type": "police", "osm_id": 479518891 }, "geometry": { "type": "Polygon", "coordinates": [ [ [ -66.0616407, 18.4201314 ], [ -66.061611, 18.420137 ], [ -66.061527, 18.4201554 ], [ -66.061473, 18.4201663 ], [ -66.0614075, 18.4201807 ], [ -66.06136, 18.420191 ], [ -66.061322, 18.4200452 ], [ -66.061436, 18.4200202 ], [ -66.0614533, 18.4200166 ], [ -66.0616044, 18.419985 ], [ -66.0616407, 18.4201314 ] ] ] } },
{ "type": "Feature", "properties": { "facility_type": "police", "osm_id": 528263466 }, "geometry": { "type": "Polygon", "coordinates": [ [ [ -65.9612186, 18.3801406 ], [ -65.9611994, 18.3799425 ], [ -65.9610755, 18.3799533 ], [ -65.9610591, 18.3797843 ], [ -65.9611561, 18.3797759 ], [ -65.9611401, 18.3796106 ], [ -65.9607297, 18.3796464 ], [ -65.9607456, 18.3798102 ], [ -65.9608422, 18.3798018 ], [ -65.9608577, 18.3799612 ], [ -65.9607473, 18.3799709 ], [ -65.9607675, 18.38018 ], [ -65.9612186, 18.3801406 ] ] ] } },
{ "type": "Feature", "properties": { "facility_type": "police", "osm_id": 529009572 }, "geometry": { "type": "Polygon", "coordinates": [ [ [ -65.9837312, 18.4554568 ], [ -65.9837164, 18.4555891 ], [ -65.983626, 18.45558 ], [ -65.9836407, 18.4554477 ], [ -65.9837312, 18.4554568 ] ] ] } },
{ "type": "Feature", "properties": { "facility_type": "police", "osm_id": 530910162 }, "geometry": { "type": "Polygon", "coordinates": [ [ [ -66.19457, 18.4381679 ], [ -66.1946054, 18.4381056 ], [ -66.1943246, 18.4379535 ], [ -66.1941414, 18.4379462 ], [ -66.1941444, 18.4380216 ], [ -66.1943048, 18.4380274 ], [ -66.19457, 18.4381679 ] ] ] } },
{ "type": "Feature", "properties": { "facility_type": "police", "osm_id": 533029423 }, "geometry": { "type": "Polygon", "coordinates": [ [ [ -65.9796917, 18.3827151 ], [ -65.9794642, 18.3825919 ], [ -65.9793899, 18.3827156 ], [ -65.9793261, 18.382681 ], [ -65.9794287, 18.3825103 ], [ -65.979492, 18.3825446 ], [ -65.9795026, 18.3825269 ], [ -65.9795343, 18.382544 ], [ -65.9795626, 18.3824969 ], [ -65.9797589, 18.3826032 ], [ -65.9796917, 18.3827151 ] ] ] } },
{ "type": "Feature", "properties": { "facility_type": "police", "osm_id": 533099600 }, "geometry": { "type": "Polygon", "coordinates": [ [ [ -66.1260347, 18.44158 ], [ -66.1260947, 18.4416038 ], [ -66.1262949, 18.4416228 ], [ -66.126375, 18.4415444 ], [ -66.1263785, 18.4413717 ], [ -66.1264556, 18.441354 ], [ -66.1265035, 18.4412286 ], [ -66.1264314, 18.4412057 ], [ -66.1264143, 18.4412782 ], [ -66.1262762, 18.4412772 ], [ -66.1262755, 18.4413093 ], [ -66.1262748, 18.4413415 ], [ -66.1262217, 18.4413405 ], [ -66.1261739, 18.4413416 ], [ -66.1261685, 18.441375 ], [ -66.1261021, 18.4413757 ], [ -66.1260648, 18.4413954 ], [ -66.1260649, 18.44149 ], [ -66.1260388, 18.4415255 ], [ -66.1260347, 18.44158 ] ] ] } },
{ "type": "Feature", "properties": { "facility_type": "police", "osm_id": 533139432 }, "geometry": { "type": "Polygon", "coordinates": [ [ [ -66.0053412, 18.356652 ], [ -66.0052839, 18.3566638 ], [ -66.0052702, 18.3566033 ], [ -66.0051732, 18.3566232 ], [ -66.0051452, 18.3564998 ], [ -66.0052994, 18.3564682 ], [ -66.0053412, 18.356652 ] ] ] } },
{ "type": "Feature", "properties": { "facility_type": "police", "osm_id": 533211436 }, "geometry": { "type": "Polygon", "coordinates": [ [ [ -66.006408, 18.3560964 ], [ -66.0063091, 18.3560711 ], [ -66.0063615, 18.3558863 ], [ -66.0064605, 18.3559116 ], [ -66.006408, 18.3560964 ] ] ] } },
{ "type": "Feature", "properties": { "facility_type": "police", "osm_id": 548889837 }, "geometry": { "type": "Polygon", "coordinates": [ [ [ -66.1228436, 18.3975018 ], [ -66.1225496, 18.3975047 ], [ -66.1225466, 18.3972307 ], [ -66.1225828, 18.3972304 ], [ -66.1225823, 18.3971879 ], [ -66.1226169, 18.3971876 ], [ -66.1226176, 18.3972549 ], [ -66.1227466, 18.3972538 ], [ -66.1227461, 18.3972033 ], [ -66.1228407, 18.3972025 ], [ -66.1228436, 18.3975018 ] ] ] } },
{ "type": "Feature", "properties": { "facility_type": "police", "osm_id": 778642869 }, "geometry": { "type": "Polygon", "coordinates": [ [ [ -66.034392, 18.4149196 ], [ -66.0343945, 18.4149132 ], [ -66.0344737, 18.4149414 ], [ -66.0345039, 18.4148648 ], [ -66.0344353, 18.4148405 ], [ -66.0344394, 18.4148302 ], [ -66.0344512, 18.4148344 ], [ -66.0344845, 18.4147499 ], [ -66.0344645, 18.4147428 ], [ -66.0344676, 18.4147351 ], [ -66.0345244, 18.4147553 ], [ -66.0345426, 18.4147093 ], [ -66.0345085, 18.4146971 ], [ -66.0344965, 18.4147274 ], [ -66.0344811, 18.4147219 ], [ -66.0345059, 18.4146592 ], [ -66.034498, 18.4146564 ], [ -66.0345007, 18.4146495 ], [ -66.0342548, 18.4145619 ], [ -66.0342522, 18.4145683 ], [ -66.034243, 18.414565 ], [ -66.0342119, 18.4146434 ], [ -66.0342199, 18.4146463 ], [ -66.0341799, 18.4147472 ], [ -66.0341247, 18.4147274 ], [ -66.0341073, 18.4147713 ], [ -66.0341358, 18.4147815 ], [ -66.0341474, 18.4147523 ], [ -66.0341674, 18.4147594 ], [ -66.0341426, 18.4148217 ], [ -66.0341513, 18.4148248 ], [ -66.0341481, 18.4148327 ], [ -66.034392, 18.4149196 ] ] ] } },
{ "type": "Feature", "properties": { "facility_type": "police", "osm_id": 1079311976 }, "geometry": { "type": "Polygon", "coordinates": [ [ [ -66.0158344, 18.3966271 ], [ -66.0158314, 18.3964791 ], [ -66.0154941, 18.3964853 ], [ -66.0154949, 18.3965228 ], [ -66.0154712, 18.3965232 ], [ -66.0154731, 18.3966168 ], [ -66.0153916, 18.3966182 ], [ -66.0153739, 18.3966889 ], [ -66.0157998, 18.396681 ], [ -66.0157987, 18.3966278 ], [ -66.0158344, 18.3966271 ] ] ] } }
]
}
