{
"type": "FeatureCollection",
"name": "Michael_PanamaCity_buildings",
"crs": { "type": "name", "properties": { "name": "urn:ogc:def:crs:OGC:1.3:CRS84" } },
"features": [
{ "type": "Feature", "properties": { "facility_type": "hospital", "osm_id": 1136084194 }, "geometry": { "type": "Polygon", "coordinates": [ [ [ -85.6585147, 30.185366 ], [ -85.6584906, 30.1854361 ], [ -85.6584737, 30.1855034 ], [ -85.6584553, 30.1855941 ], [ -85.6584364, 30.185706 ], [ -85.6584246, 30.1858082 ], [ -85.6584184, 30.1858989 ], [ -85.6584136, 30.185987 ], [ -85.6572757, 30.185979 ], [ -85.656858, 30.1859761 ], [ -85.6543085, 30.1859618 ], [ -85.6543324, 30.1850864 ], [ -85.6551028, 30.185095 ], [ -85.655118, 30.1845236 ], [ -85.6559475, 30.1845426 ], [ -85.6562139, 30.1845487 ], [ -85.6562633, 30.1824874 ], [ -85.6562634, 30.1824314 ], [ -85.6563187, 30.1824323 ], [ -85.6563832, 30.1824339 ], [ -85.6564911, 30.1824351 ], [ -85.6566346, 30.1824341 ], [ -85.6569122, 30.1824348 ], [ -85.6573026, 30.1824334 ], [ -85.6577574, 30.1824336 ], [ -85.6584931, 30.1824347 ], [ -85.6584962, 30.1831736 ], [ -85.6584673, 30.1832312 ], [ -85.6584453, 30.183275 ], [ -85.6595933, 30.1837275 ], [ -85.6595771, 30.1837606 ], [ -85.6595469, 30.1838126 ], [ -85.6595132, 30.1838601 ], [ -85.65945, 30.1839467 ], [ -85.6590871, 30.1843816 ], [ -85.6590191, 30.1844646 ], [ -85.658952, 30.1845521 ], [ -85.6588751, 30.1846571 ], [ -85.6587926, 30.184783 ], [ -85.6587184, 30.1849084 ], [ -85.6586515, 30.185039 ], [ -85.658608, 30.1851286 ], [ -85.6585757, 30.1852033 ], [ -85.6585404, 30.1852926 ], [ -85.6585147, 30.185366 ] ] ] } },
{ "type": "Feature", "properties": { "facility_type": "hospital", "osm_id": 1136084215 }, "geometry": { "type": "Polygon", "coordinates": [ [ [ -85.6078083, 30.2131247 ], [ -85.6096838, 30.2131122 ], [ -85.609634, 30.2149291 ], [ -85.6075459, 30.2149159 ], [ -85.6075901, 30.2134677 ], [ -85.6075924, 30.2134134 ], [ -85.6075955, 30.2133758 ], [ -85.607615, 30.2133164 ], [ -85.6076518, 30.2132566 ], [ -85.6076863, 30.2132218 ], [ -85.6078083, 30.2131247 ] ] ] } },
{ "type": "Feature", "properties": { "facility_type": "hospital", "osm_id": 1136087248 }, "geometry": { "type": "Polygon", "coordinates": [ [ [ -85.6056843, 30.2149684 ], [ -85.6056571, 30.2157851 ], [ -85.6054119, 30.2157927 ], [ -85.6052235, 30.2157943 ], [ -85.6052182, 30.2158015 ], [ -85.6052126, 30.2158076 ], [ -85.6052045, 30.2158137 ], [ -85.6051949, 30.2158191 ], [ -85.6051829, 30.2158237 ], [ -85.6051711, 30.2158271 ], [ -85.6051595, 30.215828 ], [ -85.6051361, 30.2158283 ], [ -85.6051359, 30.2158875 ], [ -85.6050844, 30.215912 ], [ -85.6049718, 30.2160349 ], [ -85.6046977, 30.2163295 ], [ -85.6044139, 30.2166269 ], [ -85.6037348, 30.2158907 ], [ -85.6042079, 30.2155713 ], [ -85.6046536, 30.215271 ], [ -85.6053419, 30.2148108 ], [ -85.6054773, 30.2147496 ], [ -85.6056843, 30.2149684 ] ] ] } },
{ "type": "Feature", "properties": { "facility_type": "hospital", "osm_id": 1484740005 }, "geometry": { "type": "Polygon", "coordinates": [ [ [ -85.6662057, 30.1883273 ], [ -85.666209, 30.1883202 ], [ -85.6662127, 30.1883176 ], [ -85.6662181, 30.1883159 ], [ -85.6662228, 30.1883156 ], [ -85.6662277, 30.1883169 ], [ -85.6662307, 30.1883193 ], [ -85.6662359, 30.188325 ], [ -85.6662389, 30.1882302 ], [ -85.666237, 30.188237 ], [ -85.6662347, 30.1882394 ], [ -85.6662312, 30.1882417 ], [ -85.6662256, 30.1882431 ], [ -85.6662214, 30.1882433 ], [ -85.6662176, 30.1882421 ], [ -85.666214, 30.1882403 ], [ -85.6662104, 30.1882374 ], [ -85.6662093, 30.1882343 ], [ -85.6662094, 30.1882307 ], [ -85.6662101, 30.1881884 ], [ -85.6655799, 30.1881741 ], [ -85.6655746, 30.1883569 ], [ -85.665573, 30.1883662 ], [ -85.6655706, 30.1883722 ], [ -85.6655681, 30.1883776 ], [ -85.6655648, 30.1883823 ], [ -85.6655602, 30.188388 ], [ -85.6655551, 30.1883921 ], [ -85.6655493, 30.1883961 ], [ -85.6655423, 30.1884006 ], [ -85.6655347, 30.1884037 ], [ -85.6655277, 30.1884059 ], [ -85.6655189, 30.1884069 ], [ -85.6656921, 30.1884083 ], [ -85.6656801, 30.1884066 ], [ -85.6656691, 30.1884031 ], [ -85.6656614, 30.1883985 ], [ -85.6656561, 30.1883943 ], [ -85.665649, 30.1883874 ], [ -85.6656437, 30.1883793 ], [ -85.665641, 30.1883716 ], [ -85.6656402, 30.1883655 ], [ -85.6656411, 30.1883161 ], [ -85.6656427, 30.1883101 ], [ -85.6656461, 30.1883051 ], [ -85.6656511, 30.1883028 ], [ -85.6656564, 30.1883015 ], [ -85.6656619, 30.1883021 ], [ -85.6656659, 30.188304 ], [ -85.6656695, 30.1883079 ], [ -85.6656711, 30.1883127 ], [ -85.6656718, 30.1883173 ], [ -85.6656698, 30.1883616 ], [ -85.666205, 30.1883738 ], [ -85.6662057, 30.1883273 ] ] ] } },
{ "type": "Feature", "properties": { "facility_type": "fire_station", "osm_id": 427546834 }, "geometry": { "type": "Polygon", "coordinates": [ [ [ -85.7493624, 30.1539427 ], [ -85.7493573, 30.1536763 ], [ -85.7494193, 30.1536754 ], [ -85.7494169, 30.1535516 ], [ -85.7492815, 30.1535536 ], [ -85.7492825, 30.1536056 ], [ -85.7491544, 30.1536074 ], [ -85.7491547, 30.1536218 ], [ -85.7489343, 30.1536248 ], [ -85.7489346, 30.1536413 ], [ -85.7488778, 30.153642 ], [ -85.748882, 30.1538724 ], [ -85.7489337, 30.1538717 ], [ -85.7489338, 30.1538748 ], [ -85.7491667, 30.1538714 ], [ -85.7491681, 30.1539455 ], [ -85.7493624, 30.1539427 ] ] ] } },
{ "type": "Feature", "properties": { "facility_type": "fire_station", "osm_id": 636926047 }, "geometry": { "type": "Polygon", "coordinates": [ [ [ -85.7703441, 30.1561651 ], [ -85.7703242, 30.1561864 ], [ -85.7702505, 30.1561345 ], [ -85.7702704, 30.1561131 ], [ -85.7702655, 30.1561097 ], [ -85.7703611, 30.1560071 ], [ -85.7703636, 30.1560089 ], [ -85.7703795, 30.1559918 ], [ -85.770377, 30.15599 ], [ -85.7704129, 30.1559516 ], [ -85.7705358, 30.1560382 ], [ -85.7704999, 30.1560766 ], [ -85.7704557, 30.1560454 ], [ -85.7704338, 30.1560689 ], [ -85.7704534, 30.1560828 ], [ -85.7704295, 30.1561084 ], [ -85.7704099, 30.1560946 ], [ -85.7703441, 30.1561651 ] ] ] } },
{ "type": "Feature", "properties": { "facility_type": "fire_station", "osm_id": 636947650 }, "geometry": { "type": "Polygon", "coordinates": [ [ [ -85.6521742, 30.158046 ], [ -85.6519891, 30.157943 ], [ -85.6519592, 30.1579837 ], [ -85.6519159, 30.1579596 ], [ -85.6518884, 30.1579969 ], [ -85.6518193, 30.1579585 ], [ -85.6518767, 30.1578806 ], [ -85.6518386, 30.1577335 ], [ -85.6518722, 30.1576879 ], [ -85.6518349, 30.1576672 ], [ -85.651895, 30.1575856 ], [ -85.6519457, 30.1576137 ], [ -85.6519708, 30.1575796 ], [ -85.6521137, 30.157659 ], [ -85.652091, 30.1576898 ], [ -85.6521069, 30.1576986 ], [ -85.6521381, 30.1578358 ], [ -85.6522735, 30.1579111 ], [ -85.6521742, 30.158046 ] ] ] } },
{ "type": "Feature", "properties": { "facility_type": "fire_station", "osm_id": 637070263 }, "geometry": { "type": "Polygon", "coordinates": [ [ [ -85.5653323, 30.1512309 ], [ -85.5652746, 30.1512301 ], [ -85.5652772, 30.1510891 ], [ -85.5651969, 30.151088 ], [ -85.565199, 30.1509729 ], [ -85.5653796, 30.1509754 ], [ -85.5653798, 30.1509653 ], [ -85.5654231, 30.1509659 ], [ -85.5654663, 30.1509665 ], [ -85.5654661, 30.1509766 ], [ -85.5655815, 30.1509781 ], [ -85.5655812, 30.1509942 ], [ -85.565604, 30.1509945 ], [ -85.5656032, 30.151036 ], [ -85.5656025, 30.1510775 ], [ -85.5655797, 30.1510772 ], [ -85.5655794, 30.1510933 ], [ -85.5655387, 30.1510927 ], [ -85.5655362, 30.1512337 ], [ -85.5653323, 30.1512309 ] ] ] } },
{ "type": "Feature", "properties": { "facility_type": "fire_station", "osm_id": 1063135684 }, "geometry": { "type": "Polygon", "coordinates": [ [ [ -85.6317824, 30.2135094 ], [ -85.6318824, 30.2136193 ], [ -85.6321743, 30.2134207 ], [ -85.6320744, 30.213311 ], [ -85.6317824, 30.2135094 ] ] ] } },
{ "type": "Feature", "properties": { "facility_type": "fire_station", "osm_id": 1068911129 }, "geometry": { "type": "Polygon", "coordinates": [ [ [ -85.6478002, 30.2365599 ], [ -85.6477911, 30.2370956 ], [ -85.6480035, 30.2370973 ], [ -85.6480126, 30.2365643 ], [ -85.6478002, 30.2365599 ] ] ] } },
{ "type": "Feature", "properties": { "facility_type": "fire_station", "osm_id": 1093515191 }, "geometry": { "type": "Polygon", "coordinates": [ [ [ -85.6103629, 30.1527589 ], [ -85.6103597, 30.1525979 ], [ -85.6102698, 30.1525984 ], [ -85.6102704, 30.1526983 ], [ -85.6102334, 30.1526972 ], [ -85.6102321, 30.1525835 ], [ -85.6100695, 30.152583 ], [ -85.6100707, 30.1527319 ], [ -85.6102704, 30.1527325 ], [ -85.6102711, 30.1527567 ], [ -85.6103629, 30.1527589 ] ] ] } },
{ "type": "Feature", "properties": { "facility_type": "fire_station", "osm_id": 1228739594 }, "geometry": { "type": "Polygon", "coordinates": [ [ [ -85.6518831, 30.1570041 ], [ -85.6518814, 30.1574172 ], [ -85.6515332, 30.1574144 ], [ -85.651533, 30.1574346 ], [ -85.6515894, 30.1575031 ], [ -85.651304, 30.1578492 ], [ -85.6516742, 30.1580362 ], [ -85.6518089, 30.1580995 ], [ -85.6519266, 30.158153 ], [ -85.6520493, 30.1582054 ], [ -85.6521743, 30.1582547 ], [ -85.6523071, 30.1583053 ], [ -85.6523525, 30.1583228 ], [ -85.652367, 30.1583269 ], [ -85.6523749, 30.1583283 ], [ -85.6523841, 30.1583264 ], [ -85.6523891, 30.1583236 ], [ -85.6523937, 30.1583182 ], [ -85.6523956, 30.1583138 ], [ -85.6523972, 30.1583068 ], [ -85.6523993, 30.1582902 ], [ -85.6523996, 30.1582036 ], [ -85.6523969, 30.1578787 ], [ -85.6523906, 30.1576536 ], [ -85.652385, 30.1573747 ], [ -85.6523871, 30.1570629 ], [ -85.6523862, 30.1570493 ], [ -85.6523824, 30.1570379 ], [ -85.6523743, 30.157028 ], [ -85.6523645, 30.157021 ], [ -85.6523556, 30.1570148 ], [ -85.6523456, 30.1570101 ], [ -85.6523307, 30.1570075 ], [ -85.6518831, 30.1570041 ] ] ] } },
{ "type": "Feature", "properties": { "facility_type": "fire_station", "osm_id": 1229086105 }, "geometry": { "type": "Polygon", "coordinates": [ [ [ -85.6328139, 30.1591309 ], [ -85.6324378, 30.1591305 ], [ -85.6324553, 30.1586145 ], [ -85.632515, 30.1585402 ], [ -85.6329786, 30.1585266 ], [ -85.632981, 30.158841 ], [ -85.6328149, 30.1588388 ], [ -85.6328139, 30.1591309 ] ] ] } },
{ "type": "Feature", "properties": { "facility_type": "fire_station", "osm_id": 1229095095 }, "geometry": { "type": "Polygon", "coordinates": [ [ [ -85.6100111, 30.152189 ], [ -85.6105285, 30.1521915 ], [ -85.6105311, 30.153021 ], [ -85.6099923, 30.1530093 ], [ -85.6100111, 30.152189 ] ] ] } },
{ "type": "Feature", "properties": { "facility_type": "fire_station", "osm_id": 1230404048 }, "geometry": { "type": "Polygon", "coordinates": [ [ [ -85.6639497, 30.1823554 ], [ -85.6639519, 30.1818802 ], [ -85.6628307, 30.1818745 ], [ -85.6628274, 30.1822187 ], [ -85.6628292, 30.1822333 ], [ -85.6628315, 30.1822455 ], [ -85.6628366, 30.1822607 ], [ -85.6628447, 30.1822743 ], [ -85.6628547, 30.1822878 ], [ -85.6628711, 30.1823035 ], [ -85.6628848, 30.1823146 ], [ -85.6628986, 30.182323 ], [ -85.6629136, 30.1823311 ], [ -85.6629317, 30.1823378 ], [ -85.6629519, 30.1823432 ], [ -85.6629727, 30.1823457 ], [ -85.663012, 30.1823422 ], [ -85.6634005, 30.1823429 ], [ -85.6635742, 30.1823471 ], [ -85.6635945, 30.1823514 ], [ -85.6639497, 30.1823554 ] ] ] } },
{ "type": "Feature", "properties": { "facility_type": "police", "osm_id": 637069958 }, "geometry": { "type": "Polygon", "coordinates": [ [ [ -85.5653323, 30.1512309 ], [ -85.5655362, 30.1512337 ], [ -85.5655628, 30.1512341 ], [ -85.5655625, 30.1512509 ], [ -85.5655837, 30.1512512 ], [ -85.565583, 30.1512915 ], [ -85.5655823, 30.1513318 ], [ -85.5655611, 30.1513315 ], [ -85.5655608, 30.1513483 ], [ -85.5654403, 30.1513466 ], [ -85.56544, 30.1513594 ], [ -85.5653469, 30.1513581 ], [ -85.5653472, 30.1513454 ], [ -85.5653303, 30.1513451 ], [ -85.5653323, 30.1512309 ] ] ] } },
{ "type": "Feature", "properties": { "facility_type": "police", "osm_id": 637979249 }, "geometry": { "type": "Polygon", "coordinates": [ [ [ -85.6409475, 30.1758606 ], [ -85.6409474, 30.1757282 ], [ -85.6408856, 30.1757282 ], [ -85.6408853, 30.1753523 ], [ -85.6413921, 30.175352 ], [ -85.6413922, 30.1754809 ], [ -85.6414623, 30.1754808 ], [ -85.6414624, 30.1756312 ], [ -85.6413924, 30.1756312 ], [ -85.6413924, 30.1757279 ], [ -85.6410504, 30.1757281 ], [ -85.6410505, 30.1758606 ], [ -85.6409475, 30.1758606 ] ] ] } },
{ "type": "Feature", "properties": { "facility_type": "police", "osm_id": 1073432051 }, "geometry": { "type": "Polygon", "coordinates": [ [ [ -85.650482, 30.2104356 ], [ -85.6504797, 30.2105271 ], [ -85.6504763, 30.2107537 ], [ -85.6508487, 30.2107578 ], [ -85.6508484, 30.2107769 ], [ -85.6509226, 30.2107777 ], [ -85.6509228, 30.2107603 ], [ -85.6511724, 30.210763 ], [ -85.6511744, 30.2106281 ], [ -85.6512178, 30.2106286 ], [ -85.6512187, 30.2105633 ], [ -85.6511773, 30.2105628 ], [ -85.6511793, 30.2104184 ], [ -85.6512212, 30.2104189 ], [ -85.6512222, 30.2103536 ], [ -85.6511797, 30.2103532 ], [ -85.6511817, 30.2102189 ], [ -85.6509319, 30.2102162 ], [ -85.6509321, 30.2101975 ], [ -85.6508568, 30.2101967 ], [ -85.6508565, 30.2102142 ], [ -85.6504854, 30.2102101 ], [ -85.650482, 30.2104356 ] ] ] } },
{ "type": "Feature", "properties": { "facility_type": "police", "osm_id": 1229719345 }, "geometry": { "type": "Polygon", "coordinates": [ [ [ -85.6414942, 30.1750958 ], [ -85.6415191, 30.1750968 ], [ -85.6415307, 30.1750981 ], [ -85.6415406, 30.1751002 ], [ -85.6415522, 30.1751035 ], [ -85.6415622, 30.1751083 ], [ -85.6415703, 30.1751131 ], [ -85.6415795, 30.1751199 ], [ -85.6415855, 30.1751265 ], [ -85.6415914, 30.1751346 ], [ -85.6415973, 30.1751465 ], [ -85.641602, 30.1751609 ], [ -85.641606, 30.1751783 ], [ -85.6416082, 30.1751915 ], [ -85.6416276, 30.1753741 ], [ -85.6416249, 30.1761334 ], [ -85.6416209, 30.1765485 ], [ -85.6416149, 30.1765685 ], [ -85.6416068, 30.1765879 ], [ -85.6415954, 30.1766062 ], [ -85.6415823, 30.176625 ], [ -85.6415683, 30.1766415 ], [ -85.6415488, 30.1766566 ], [ -85.6415287, 30.1766685 ], [ -85.6415026, 30.1766798 ], [ -85.6414727, 30.1766905 ], [ -85.6414459, 30.1766978 ], [ -85.6414207, 30.176701 ], [ -85.6413788, 30.1767039 ], [ -85.640827, 30.1767056 ], [ -85.6407646, 30.1767044 ], [ -85.6407894, 30.1750906 ], [ -85.6414942, 30.1750958 ] ] ] } }
]
}
